{"type":"FeatureCollection","features":[{"type":"Feature","geometry":{"type":"Polygon","coordinates":[[[129.04002,35.11142],[129.0382,35.112],[129.03636,35.10907],[129.03556,35.09859],[129.03544,35.09828],[129.03677,35.09469],[129.03692,35.09472],[129.0393,35.0951],[129.0395,35.09523],[129.04455,35.10581],[129.04273,35.11072],[129.04002,35.11142]]]},"properties":{"key":"부산광역시|중구|중앙동","code":"2611051000"}},{"type":"Feature","geometry":{"type":"Polygon","coordinates":[[[129.03556,35.09859],[129.03636,35.10907],[129.03437,35.10882],[129.03261,35.1088],[129.03372,35.10195],[129.03556,35.09859]]]},"properties":{"key":"부산광역시|중구|동광동","code":"2611052000"}},{"type":"Feature","geometry":{"type":"Polygon","coordinates":[[[129.03261,35.1088],[129.02818,35.10822],[129.02789,35.10302],[129.0279,35.10264],[129.03372,35.10195],[129.03261,35.1088]]]},"properties":{"key":"부산광역시|중구|대청동","code":"2611053000"}},{"type":"Feature","geometry":{"type":"Polygon","coordinates":[[[129.02705,35.1105],[129.02644,35.11109],[129.02235,35.10752],[129.02123,35.10331],[129.02789,35.10302],[129.02818,35.10822],[129.02705,35.1105]]]},"properties":{"key":"부산광역시|중구|보수동","code":"2611054500"}},{"type":"Feature","geometry":{"type":"Polygon","coordinates":[[[129.02789,35.10302],[129.02123,35.10331],[129.02155,35.10191],[129.02514,35.09807],[129.02783,35.09904],[129.0279,35.10264],[129.02789,35.10302]]]},"properties":{"key":"부산광역시|중구|부평동","code":"2611056000"}},{"type":"Feature","geometry":{"type":"Polygon","coordinates":[[[129.03372,35.10195],[129.0279,35.10264],[129.02783,35.09904],[129.03544,35.09828],[129.03556,35.09859],[129.03372,35.10195]]]},"properties":{"key":"부산광역시|중구|광복동","code":"2611057000"}},{"type":"Feature","geometry":{"type":"Polygon","coordinates":[[[129.03544,35.09828],[129.02783,35.09904],[129.02514,35.09807],[129.02621,35.09568],[129.03389,35.09694],[129.03667,35.09466],[129.03677,35.09469],[129.03544,35.09828]]]},"properties":{"key":"부산광역시|중구|남포동","code":"2611058000"}},{"type":"Feature","geometry":{"type":"Polygon","coordinates":[[[129.0382,35.112],[129.03319,35.1155],[129.03437,35.10882],[129.03636,35.10907],[129.0382,35.112]]]},"properties":{"key":"부산광역시|중구|영주1동","code":"2611059000"}},{"type":"Feature","geometry":{"type":"Polygon","coordinates":[[[129.02822,35.11734],[129.02613,35.11678],[129.02705,35.1105],[129.02818,35.10822],[129.03261,35.1088],[129.03437,35.10882],[129.03319,35.1155],[129.03265,35.11599],[129.02822,35.11734]]]},"properties":{"key":"부산광역시|중구|영주2동","code":"2611060000"}},{"type":"Feature","geometry":{"type":"Polygon","coordinates":[[[129.02644,35.11109],[129.01794,35.10995],[129.02021,35.10763],[129.02235,35.10752],[129.02644,35.11109]]]},"properties":{"key":"부산광역시|서구|동대신1동","code":"2614051000"}},{"type":"Feature","geometry":{"type":"Polygon","coordinates":[[[129.02613,35.11678],[129.01656,35.11248],[129.01794,35.10995],[129.02644,35.11109],[129.02705,35.1105],[129.02613,35.11678]]]},"properties":{"key":"부산광역시|서구|동대신2동","code":"2614052000"}},{"type":"Feature","geometry":{"type":"Polygon","coordinates":[[[129.02512,35.13216],[129.02412,35.13402],[129.02029,35.12959],[129.0152,35.115],[129.01656,35.11248],[129.02613,35.11678],[129.0246,35.11877],[129.02603,35.12912],[129.02512,35.13216]]]},"properties":{"key":"부산광역시|서구|동대신3동","code":"2614053000"}},{"type":"Feature","geometry":{"type":"Polygon","coordinates":[[[129.01656,35.11248],[129.00371,35.11067],[129.01051,35.10559],[129.01408,35.10503],[129.02021,35.10763],[129.01794,35.10995],[129.01656,35.11248]]]},"properties":{"key":"부산광역시|서구|서대신1동","code":"2614054000"}},{"type":"Feature","geometry":{"type":"Polygon","coordinates":[[[129.0152,35.115],[129.00015,35.11838],[129.00371,35.11067],[129.01656,35.11248],[129.0152,35.115]]]},"properties":{"key":"부산광역시|서구|서대신3동","code":"2614056000"}},{"type":"Feature","geometry":{"type":"Polygon","coordinates":[[[129.00658,35.13939],[129.00452,35.13951],[129.00225,35.12743],[128.99797,35.12255],[129.00015,35.11838],[129.0152,35.115],[129.02029,35.12959],[129.02412,35.13402],[129.02081,35.13685],[129.01132,35.13819],[129.00658,35.13939]]]},"properties":{"key":"부산광역시|서구|서대신4동","code":"2614057000"}},{"type":"Feature","geometry":{"type":"Polygon","coordinates":[[[129.02021,35.10763],[129.01408,35.10503],[129.01985,35.102],[129.02155,35.10191],[129.02123,35.10331],[129.02235,35.10752],[129.02021,35.10763]]]},"properties":{"key":"부산광역시|서구|부민동","code":"2614059000"}},{"type":"Feature","geometry":{"type":"Polygon","coordinates":[[[129.01408,35.10503],[129.01051,35.10559],[129.00675,35.09909],[129.01284,35.09541],[129.01961,35.09874],[129.01985,35.102],[129.01408,35.10503]]]},"properties":{"key":"부산광역시|서구|아미동","code":"2614061500"}},{"type":"Feature","geometry":{"type":"Polygon","coordinates":[[[129.01961,35.09874],[129.01284,35.09541],[129.01425,35.0907],[129.02106,35.09317],[129.01961,35.09874]]]},"properties":{"key":"부산광역시|서구|초장동","code":"2614063000"}},{"type":"Feature","geometry":{"type":"Polygon","coordinates":[[[129.02155,35.10191],[129.01985,35.102],[129.01961,35.09874],[129.02106,35.09317],[129.02526,35.0935],[129.02621,35.09568],[129.02514,35.09807],[129.02155,35.10191]]]},"properties":{"key":"부산광역시|서구|충무동","code":"2614064000"}},{"type":"Feature","geometry":{"type":"Polygon","coordinates":[[[129.02605,35.08685],[129.02526,35.0935],[129.02106,35.09317],[129.01425,35.0907],[129.01402,35.08919],[129.01669,35.0874],[129.02202,35.08877],[129.02605,35.08685]]]},"properties":{"key":"부산광역시|서구|남부민1동","code":"2614065000"}},{"type":"Feature","geometry":{"type":"Polygon","coordinates":[[[129.02569,35.0812],[129.01832,35.08188],[129.01669,35.0874],[129.01402,35.08919],[129.01317,35.08809],[129.01136,35.07693],[129.00444,35.07844],[129.00552,35.0711],[129.01063,35.05245],[129.01586,35.05309],[129.0159,35.05693],[129.02172,35.0608],[129.02092,35.06892],[129.01602,35.07432],[129.02569,35.0812]]]},"properties":{"key":"부산광역시|서구|암남동","code":"2614068000"}},{"type":"Feature","geometry":{"type":"Polygon","coordinates":[[[129.02605,35.08685],[129.02202,35.08877],[129.01669,35.0874],[129.01832,35.08188],[129.02569,35.0812],[129.02605,35.08685]]]},"properties":{"key":"부산광역시|서구|남부민2동","code":"2614066000"}},{"type":"Feature","geometry":{"type":"Polygon","coordinates":[[[129.03963,35.11513],[129.03265,35.11599],[129.03319,35.1155],[129.0382,35.112],[129.04002,35.11142],[129.03963,35.11513]]]},"properties":{"key":"부산광역시|동구|초량1동","code":"2617051000"}},{"type":"Feature","geometry":{"type":"Polygon","coordinates":[[[129.03963,35.11513],[129.03829,35.12064],[129.02822,35.11734],[129.03265,35.11599],[129.03963,35.11513]]]},"properties":{"key":"부산광역시|동구|초량2동","code":"2617052000"}},{"type":"Feature","geometry":{"type":"Polygon","coordinates":[[[129.05,35.12353],[129.05132,35.13006],[129.04458,35.12598],[129.04274,35.12235],[129.03754,35.12429],[129.03829,35.12064],[129.03963,35.11513],[129.04002,35.11142],[129.04273,35.11072],[129.05,35.12353]]]},"properties":{"key":"부산광역시|동구|초량3동","code":"2617053000"}},{"type":"Feature","geometry":{"type":"Polygon","coordinates":[[[129.03536,35.12605],[129.03391,35.12875],[129.02512,35.13216],[129.02603,35.12912],[129.0246,35.11877],[129.02613,35.11678],[129.02822,35.11734],[129.03829,35.12064],[129.03754,35.12429],[129.03536,35.12605]]]},"properties":{"key":"부산광역시|동구|초량6동","code":"2617055000"}},{"type":"Feature","geometry":{"type":"Polygon","coordinates":[[[129.04458,35.12598],[129.03536,35.12605],[129.03754,35.12429],[129.04274,35.12235],[129.04458,35.12598]]]},"properties":{"key":"부산광역시|동구|수정1동","code":"2617056000"}},{"type":"Feature","geometry":{"type":"Polygon","coordinates":[[[129.03469,35.13728],[129.02702,35.13535],[129.03123,35.13411],[129.04458,35.12598],[129.05132,35.13006],[129.04619,35.13215],[129.04461,35.13074],[129.03469,35.13728]]]},"properties":{"key":"부산광역시|동구|수정2동","code":"2617057000"}},{"type":"Feature","geometry":{"type":"Polygon","coordinates":[[[129.04458,35.12598],[129.03123,35.13411],[129.02702,35.13535],[129.02627,35.13512],[129.02412,35.13402],[129.02512,35.13216],[129.03391,35.12875],[129.03536,35.12605],[129.04458,35.12598]]]},"properties":{"key":"부산광역시|동구|수정4동","code":"2617059000"}},{"type":"Feature","geometry":{"type":"Polygon","coordinates":[[[129.04699,35.13872],[129.03739,35.13941],[129.03469,35.13728],[129.04461,35.13074],[129.04619,35.13215],[129.04699,35.13872]]]},"properties":{"key":"부산광역시|동구|수정5동","code":"2617060000"}},{"type":"Feature","geometry":{"type":"Polygon","coordinates":[[[129.06448,35.14139],[129.05727,35.14203],[129.05703,35.136],[129.05641,35.13426],[129.06008,35.12959],[129.06533,35.12991],[129.06609,35.13698],[129.06448,35.14139]]]},"properties":{"key":"부산광역시|동구|범일2동","code":"2617066000"}},{"type":"Feature","geometry":{"type":"Polygon","coordinates":[[[129.05727,35.14203],[129.05166,35.14236],[129.04447,35.14608],[129.04089,35.14606],[129.03739,35.13941],[129.04699,35.13872],[129.05703,35.136],[129.05727,35.14203]]]},"properties":{"key":"부산광역시|동구|범일1동","code":"2617065000"}},{"type":"Feature","geometry":{"type":"Polygon","coordinates":[[[129.06533,35.12991],[129.06008,35.12959],[129.05641,35.13426],[129.05132,35.13006],[129.05,35.12353],[129.05604,35.11799],[129.06487,35.12727],[129.0653,35.12962],[129.06533,35.12991]]]},"properties":{"key":"부산광역시|동구|범일5동","code":"2617068000"}},{"type":"Feature","geometry":{"type":"Polygon","coordinates":[[[129.05703,35.136],[129.04699,35.13872],[129.04619,35.13215],[129.05132,35.13006],[129.05641,35.13426],[129.05703,35.136]]]},"properties":{"key":"부산광역시|동구|좌천동","code":"2617064500"}},{"type":"Feature","geometry":{"type":"Polygon","coordinates":[[[129.0385,35.09362],[129.03692,35.09472],[129.03677,35.09469],[129.03667,35.09466],[129.03137,35.09224],[129.03471,35.08512],[129.03854,35.08188],[129.04037,35.08748],[129.04284,35.09213],[129.0385,35.09362]]]},"properties":{"key":"부산광역시|영도구|남항동","code":"2620053000"}},{"type":"Feature","geometry":{"type":"Polygon","coordinates":[[[129.04542,35.09153],[129.04284,35.09213],[129.04037,35.08748],[129.04317,35.08649],[129.04542,35.09153]]]},"properties":{"key":"부산광역시|영도구|영선1동","code":"2620054000"}},{"type":"Feature","geometry":{"type":"Polygon","coordinates":[[[129.04317,35.08649],[129.04037,35.08748],[129.03854,35.08188],[129.05176,35.07284],[129.05589,35.08163],[129.05526,35.08218],[129.0529,35.07904],[129.04522,35.07976],[129.04317,35.08649]]]},"properties":{"key":"부산광역시|영도구|영선2동","code":"2620055000"}},{"type":"Feature","geometry":{"type":"Polygon","coordinates":[[[129.04647,35.0968],[129.0395,35.09523],[129.0393,35.0951],[129.0385,35.09362],[129.04284,35.09213],[129.04542,35.09153],[129.04629,35.09301],[129.04647,35.0968]]]},"properties":{"key":"부산광역시|영도구|봉래1동","code":"2620059000"}},{"type":"Feature","geometry":{"type":"Polygon","coordinates":[[[129.06241,35.0988],[129.05794,35.10124],[129.05143,35.09918],[129.05605,35.09291],[129.05349,35.08699],[129.05383,35.08655],[129.05966,35.09258],[129.06241,35.0988]]]},"properties":{"key":"부산광역시|영도구|청학1동","code":"2620063000"}},{"type":"Feature","geometry":{"type":"Polygon","coordinates":[[[129.06241,35.0988],[129.05966,35.09258],[129.05383,35.08655],[129.05526,35.08218],[129.05589,35.08163],[129.05717,35.08147],[129.06306,35.08335],[129.07397,35.0905],[129.06843,35.09599],[129.06241,35.0988]]]},"properties":{"key":"부산광역시|영도구|청학2동","code":"2620064000"}},{"type":"Feature","geometry":{"type":"Polygon","coordinates":[[[129.07774,35.08364],[129.07242,35.08443],[129.05938,35.0775],[129.05717,35.08147],[129.05589,35.08163],[129.05176,35.07284],[129.05687,35.0694],[129.06267,35.06949],[129.06861,35.06499],[129.0737,35.06685],[129.07676,35.07084],[129.07543,35.07544],[129.08174,35.07771],[129.07774,35.08364]]]},"properties":{"key":"부산광역시|영도구|동삼1동","code":"2620065000"}},{"type":"Feature","geometry":{"type":"Polygon","coordinates":[[[129.06861,35.06499],[129.0704,35.05959],[129.07686,35.06059],[129.08073,35.05625],[129.08282,35.05039],[129.08614,35.04928],[129.09273,35.05218],[129.0965,35.05956],[129.08708,35.0634],[129.07998,35.07138],[129.09094,35.07421],[129.09427,35.08069],[129.08333,35.07952],[129.08174,35.07771],[129.07543,35.07544],[129.07676,35.07084],[129.0737,35.06685],[129.06861,35.06499]]]},"properties":{"key":"부산광역시|영도구|동삼2동","code":"2620066000"}},{"type":"Feature","geometry":{"type":"Polygon","coordinates":[[[129.07774,35.08364],[129.07397,35.0905],[129.06306,35.08335],[129.05717,35.08147],[129.05938,35.0775],[129.07242,35.08443],[129.07774,35.08364]]]},"properties":{"key":"부산광역시|영도구|동삼3동","code":"2620067000"}},{"type":"Feature","geometry":{"type":"Polygon","coordinates":[[[129.05349,35.08699],[129.04629,35.09301],[129.04542,35.09153],[129.04317,35.08649],[129.04522,35.07976],[129.0529,35.07904],[129.05526,35.08218],[129.05383,35.08655],[129.05349,35.08699]]]},"properties":{"key":"부산광역시|영도구|신선동","code":"2620058500"}},{"type":"Feature","geometry":{"type":"Polygon","coordinates":[[[129.05349,35.08699],[129.05605,35.09291],[129.05143,35.09918],[129.04647,35.0968],[129.04629,35.09301],[129.05349,35.08699]]]},"properties":{"key":"부산광역시|영도구|봉래2동","code":"2620060500"}},{"type":"Feature","geometry":{"type":"Polygon","coordinates":[[[129.0623,35.15783],[129.05265,35.15778],[129.05059,35.15701],[129.05701,35.15055],[129.06238,35.15061],[129.0623,35.15783]]]},"properties":{"key":"부산광역시|부산진구|부전2동","code":"2623052000"}},{"type":"Feature","geometry":{"type":"Polygon","coordinates":[[[129.0575,35.17608],[129.05289,35.17691],[129.04479,35.17177],[129.04531,35.17002],[129.05315,35.16659],[129.06264,35.17152],[129.0575,35.17608]]]},"properties":{"key":"부산광역시|부산진구|연지동","code":"2623054000"}},{"type":"Feature","geometry":{"type":"Polygon","coordinates":[[[129.04387,35.19839],[129.03955,35.1995],[129.03194,35.19527],[129.0255,35.19341],[129.02114,35.18775],[129.0238,35.18304],[129.0348,35.18044],[129.03678,35.17702],[129.04479,35.17177],[129.05289,35.17691],[129.0575,35.17608],[129.06166,35.18025],[129.0612,35.18389],[129.05204,35.18478],[129.04697,35.19186],[129.04769,35.19421],[129.04387,35.19839]]]},"properties":{"key":"부산광역시|부산진구|초읍동","code":"2623055000"}},{"type":"Feature","geometry":{"type":"Polygon","coordinates":[[[129.06734,35.1769],[129.06166,35.18025],[129.0575,35.17608],[129.06264,35.17152],[129.06701,35.16787],[129.0716,35.16525],[129.07885,35.16573],[129.07929,35.16667],[129.06757,35.17479],[129.06778,35.17657],[129.06734,35.1769]]]},"properties":{"key":"부산광역시|부산진구|양정1동","code":"2623056000"}},{"type":"Feature","geometry":{"type":"Polygon","coordinates":[[[129.07503,35.17759],[129.07191,35.17959],[129.06778,35.17657],[129.06757,35.17479],[129.07929,35.16667],[129.08192,35.17174],[129.07503,35.17759]]]},"properties":{"key":"부산광역시|부산진구|양정2동","code":"2623057000"}},{"type":"Feature","geometry":{"type":"Polygon","coordinates":[[[129.07885,35.16573],[129.0716,35.16525],[129.06701,35.16787],[129.06258,35.16222],[129.0623,35.15783],[129.07303,35.15834],[129.07852,35.16242],[129.07885,35.16573]]]},"properties":{"key":"부산광역시|부산진구|전포2동","code":"2623061000"}},{"type":"Feature","geometry":{"type":"Polygon","coordinates":[[[129.05315,35.16659],[129.04531,35.17002],[129.04251,35.16614],[129.04496,35.1628],[129.04865,35.16233],[129.04941,35.15731],[129.05059,35.15701],[129.05265,35.15778],[129.05315,35.16659]]]},"properties":{"key":"부산광역시|부산진구|부암1동","code":"2623064000"}},{"type":"Feature","geometry":{"type":"Polygon","coordinates":[[[129.04479,35.17177],[129.03678,35.17702],[129.0348,35.18044],[129.0238,35.18304],[129.0215,35.17832],[129.03107,35.17374],[129.03871,35.16747],[129.04251,35.16614],[129.04531,35.17002],[129.04479,35.17177]]]},"properties":{"key":"부산광역시|부산진구|부암3동","code":"2623066000"}},{"type":"Feature","geometry":{"type":"Polygon","coordinates":[[[129.04941,35.15731],[129.04865,35.16233],[129.04496,35.1628],[129.03354,35.15954],[129.02949,35.15568],[129.03166,35.15602],[129.04594,35.15666],[129.04941,35.15731]]]},"properties":{"key":"부산광역시|부산진구|당감2동","code":"2623068000"}},{"type":"Feature","geometry":{"type":"Polygon","coordinates":[[[129.03871,35.16747],[129.03107,35.17374],[129.0215,35.17832],[129.02185,35.17394],[129.03267,35.16586],[129.03871,35.16747]]]},"properties":{"key":"부산광역시|부산진구|당감4동","code":"2623070000"}},{"type":"Feature","geometry":{"type":"Polygon","coordinates":[[[129.02627,35.13512],[129.02743,35.14376],[129.03252,35.15016],[129.03166,35.15602],[129.02949,35.15568],[129.02903,35.15559],[129.02339,35.14744],[129.02081,35.13685],[129.02412,35.13402],[129.02627,35.13512]]]},"properties":{"key":"부산광역시|부산진구|가야2동","code":"2623072000"}},{"type":"Feature","geometry":{"type":"Polygon","coordinates":[[[129.02339,35.14744],[129.02903,35.15559],[129.01667,35.15281],[129.01619,35.14825],[129.02339,35.14744]]]},"properties":{"key":"부산광역시|부산진구|개금1동","code":"2623074000"}},{"type":"Feature","geometry":{"type":"Polygon","coordinates":[[[129.02339,35.14744],[129.01619,35.14825],[129.01615,35.14224],[129.01132,35.13819],[129.02081,35.13685],[129.02339,35.14744]]]},"properties":{"key":"부산광역시|부산진구|개금2동","code":"2623075000"}},{"type":"Feature","geometry":{"type":"Polygon","coordinates":[[[129.03354,35.15954],[129.02877,35.16593],[129.01284,35.16567],[129.01064,35.16015],[129.01667,35.15281],[129.02903,35.15559],[129.02949,35.15568],[129.03354,35.15954]]]},"properties":{"key":"부산광역시|부산진구|개금3동","code":"2623076000"}},{"type":"Feature","geometry":{"type":"Polygon","coordinates":[[[129.0215,35.17832],[129.01786,35.17933],[129.01017,35.17361],[129.01009,35.17036],[129.01284,35.16567],[129.02877,35.16593],[129.03354,35.15954],[129.04496,35.1628],[129.04251,35.16614],[129.03871,35.16747],[129.03267,35.16586],[129.02185,35.17394],[129.0215,35.17832]]]},"properties":{"key":"부산광역시|부산진구|당감1동","code":"2623067000"}},{"type":"Feature","geometry":{"type":"Polygon","coordinates":[[[129.04594,35.15666],[129.03166,35.15602],[129.03252,35.15016],[129.02743,35.14376],[129.02627,35.13512],[129.02702,35.13535],[129.03469,35.13728],[129.03739,35.13941],[129.041,35.14958],[129.04567,35.15291],[129.04594,35.15666]]]},"properties":{"key":"부산광역시|부산진구|가야제1동","code":"2623071000"}},{"type":"Feature","geometry":{"type":"Polygon","coordinates":[[[129.06264,35.17152],[129.05315,35.16659],[129.05265,35.15778],[129.0623,35.15783],[129.06258,35.16222],[129.06701,35.16787],[129.06264,35.17152]]]},"properties":{"key":"부산광역시|부산진구|부전1동","code":"2623051000"}},{"type":"Feature","geometry":{"type":"Polygon","coordinates":[[[129.08203,35.15948],[129.07852,35.16242],[129.07303,35.15834],[129.0623,35.15783],[129.06238,35.15061],[129.06333,35.14869],[129.07134,35.14878],[129.07987,35.1527],[129.08293,35.15824],[129.08203,35.15948]]]},"properties":{"key":"부산광역시|부산진구|전포1동","code":"2623060000"}},{"type":"Feature","geometry":{"type":"Polygon","coordinates":[[[129.09241,35.19967],[129.08409,35.20438],[129.07845,35.20195],[129.08033,35.19927],[129.08561,35.19472],[129.09073,35.19346],[129.09543,35.19238],[129.09941,35.19175],[129.0975,35.19612],[129.09241,35.19967]]]},"properties":{"key":"부산광역시|동래구|수민동","code":"2626051000"}},{"type":"Feature","geometry":{"type":"Polygon","coordinates":[[[129.09239,35.21004],[129.08594,35.20853],[129.08409,35.20438],[129.09241,35.19967],[129.09545,35.2047],[129.09239,35.21004]]]},"properties":{"key":"부산광역시|동래구|복산동","code":"2626052000"}},{"type":"Feature","geometry":{"type":"Polygon","coordinates":[[[129.08726,35.22166],[129.07771,35.22627],[129.06653,35.2253],[129.0602,35.22622],[129.05926,35.22404],[129.07876,35.21183],[129.08494,35.21792],[129.08726,35.22166]]]},"properties":{"key":"부산광역시|동래구|온천1동","code":"2626055000"}},{"type":"Feature","geometry":{"type":"Polygon","coordinates":[[[129.07876,35.21183],[129.05926,35.22404],[129.05134,35.21324],[129.05145,35.21136],[129.06296,35.21109],[129.07885,35.20407],[129.07876,35.21183]]]},"properties":{"key":"부산광역시|동래구|온천2동","code":"2626056000"}},{"type":"Feature","geometry":{"type":"Polygon","coordinates":[[[129.07885,35.20407],[129.06296,35.21109],[129.05145,35.21136],[129.05098,35.20844],[129.05965,35.20195],[129.0654,35.20175],[129.06864,35.20045],[129.0783,35.20253],[129.07885,35.20407]]]},"properties":{"key":"부산광역시|동래구|온천3동","code":"2626057000"}},{"type":"Feature","geometry":{"type":"Polygon","coordinates":[[[129.0654,35.20175],[129.05965,35.20195],[129.06102,35.19572],[129.0642,35.1937],[129.06648,35.19416],[129.0654,35.20175]]]},"properties":{"key":"부산광역시|동래구|사직1동","code":"2626058000"}},{"type":"Feature","geometry":{"type":"Polygon","coordinates":[[[129.05965,35.20195],[129.05098,35.20844],[129.0451,35.20197],[129.04387,35.19839],[129.04769,35.19421],[129.05988,35.1913],[129.0642,35.1937],[129.06102,35.19572],[129.05965,35.20195]]]},"properties":{"key":"부산광역시|동래구|사직2동","code":"2626059000"}},{"type":"Feature","geometry":{"type":"Polygon","coordinates":[[[129.0783,35.20253],[129.06864,35.20045],[129.0654,35.20175],[129.06648,35.19416],[129.07426,35.19806],[129.08033,35.19927],[129.07845,35.20195],[129.0783,35.20253]]]},"properties":{"key":"부산광역시|동래구|사직3동","code":"2626060000"}},{"type":"Feature","geometry":{"type":"Polygon","coordinates":[[[129.09953,35.20266],[129.09545,35.2047],[129.09241,35.19967],[129.0975,35.19612],[129.09941,35.19175],[129.10062,35.19144],[129.10458,35.20072],[129.09953,35.20266]]]},"properties":{"key":"부산광역시|동래구|안락1동","code":"2626074000"}},{"type":"Feature","geometry":{"type":"Polygon","coordinates":[[[129.11638,35.20109],[129.11378,35.20177],[129.10458,35.20072],[129.10062,35.19144],[129.11052,35.18964],[129.11516,35.18318],[129.11552,35.18783],[129.11529,35.18966],[129.1142,35.19309],[129.11638,35.20109]]]},"properties":{"key":"부산광역시|동래구|안락2동","code":"2626075000"}},{"type":"Feature","geometry":{"type":"Polygon","coordinates":[[[129.11004,35.21011],[129.10507,35.21036],[129.09953,35.20266],[129.10458,35.20072],[129.11378,35.20177],[129.11004,35.21011]]]},"properties":{"key":"부산광역시|동래구|명장1동","code":"2626076100"}},{"type":"Feature","geometry":{"type":"Polygon","coordinates":[[[129.09754,35.21408],[129.09436,35.21543],[129.09399,35.21496],[129.09239,35.21004],[129.09545,35.2047],[129.09953,35.20266],[129.10507,35.21036],[129.09754,35.21408]]]},"properties":{"key":"부산광역시|동래구|명장2동","code":"2626076200"}},{"type":"Feature","geometry":{"type":"Polygon","coordinates":[[[129.09399,35.21496],[129.08494,35.21792],[129.07876,35.21183],[129.07885,35.20407],[129.0783,35.20253],[129.07845,35.20195],[129.08409,35.20438],[129.08594,35.20853],[129.09239,35.21004],[129.09399,35.21496]]]},"properties":{"key":"부산광역시|동래구|명륜동","code":"2626054500"}},{"type":"Feature","geometry":{"type":"Polygon","coordinates":[[[129.096,35.15987],[129.09482,35.16174],[129.08293,35.15824],[129.07987,35.1527],[129.08364,35.14905],[129.0912,35.14627],[129.09499,35.14203],[129.09642,35.13577],[129.0972,35.1301],[129.09872,35.12491],[129.10493,35.12649],[129.11134,35.13568],[129.10232,35.1428],[129.10164,35.15069],[129.096,35.15987]]]},"properties":{"key":"부산광역시|남구|대연3동","code":"2629053000"}},{"type":"Feature","geometry":{"type":"Polygon","coordinates":[[[129.0972,35.1301],[129.08212,35.13088],[129.08545,35.12524],[129.09035,35.12085],[129.0921,35.12414],[129.09872,35.12491],[129.0972,35.1301]]]},"properties":{"key":"부산광역시|남구|대연4동","code":"2629054000"}},{"type":"Feature","geometry":{"type":"Polygon","coordinates":[[[129.09642,35.13577],[129.09499,35.14203],[129.0912,35.14627],[129.08364,35.14905],[129.08231,35.14357],[129.08621,35.14072],[129.08798,35.13495],[129.09642,35.13577]]]},"properties":{"key":"부산광역시|남구|대연5동","code":"2629055000"}},{"type":"Feature","geometry":{"type":"Polygon","coordinates":[[[129.08798,35.13495],[129.08621,35.14072],[129.08231,35.14357],[129.07755,35.14092],[129.07895,35.13369],[129.08798,35.13495]]]},"properties":{"key":"부산광역시|남구|대연6동","code":"2629056000"}},{"type":"Feature","geometry":{"type":"Polygon","coordinates":[[[129.11181,35.13548],[129.11134,35.13568],[129.10493,35.12649],[129.10536,35.12019],[129.10277,35.11724],[129.11106,35.11638],[129.11305,35.1262],[129.11653,35.13021],[129.11181,35.13548]]]},"properties":{"key":"부산광역시|남구|용호1동","code":"2629057000"}},{"type":"Feature","geometry":{"type":"Polygon","coordinates":[[[129.12724,35.1143],[129.11106,35.11638],[129.11295,35.10299],[129.11572,35.10014],[129.1235,35.09886],[129.12793,35.11024],[129.12724,35.1143]]]},"properties":{"key":"부산광역시|남구|용호2동","code":"2629058000"}},{"type":"Feature","geometry":{"type":"Polygon","coordinates":[[[129.12724,35.1143],[129.12703,35.11981],[129.12254,35.12707],[129.12061,35.13395],[129.11653,35.13021],[129.11305,35.1262],[129.11106,35.11638],[129.12724,35.1143]]]},"properties":{"key":"부산광역시|남구|용호3동","code":"2629059000"}},{"type":"Feature","geometry":{"type":"Polygon","coordinates":[[[129.11106,35.11638],[129.10277,35.11724],[129.10696,35.10932],[129.1029,35.10269],[129.09756,35.09932],[129.10432,35.09866],[129.11295,35.10299],[129.11106,35.11638]]]},"properties":{"key":"부산광역시|남구|용호4동","code":"2629060000"}},{"type":"Feature","geometry":{"type":"Polygon","coordinates":[[[129.10493,35.12649],[129.09872,35.12491],[129.0921,35.12414],[129.09035,35.12085],[129.08825,35.11856],[129.08738,35.10714],[129.09374,35.10753],[129.0946,35.09913],[129.09756,35.09932],[129.1029,35.10269],[129.10696,35.10932],[129.10277,35.11724],[129.10536,35.12019],[129.10493,35.12649]]]},"properties":{"key":"부산광역시|남구|용당동","code":"2629061000"}},{"type":"Feature","geometry":{"type":"Polygon","coordinates":[[[129.0776,35.12081],[129.073,35.12217],[129.07378,35.11675],[129.06989,35.11384],[129.0672,35.10769],[129.07491,35.10358],[129.08759,35.10359],[129.08738,35.10714],[129.08825,35.11856],[129.0776,35.12081]]]},"properties":{"key":"부산광역시|남구|감만1동","code":"2629062000"}},{"type":"Feature","geometry":{"type":"Polygon","coordinates":[[[129.09035,35.12085],[129.08545,35.12524],[129.0776,35.12081],[129.08825,35.11856],[129.09035,35.12085]]]},"properties":{"key":"부산광역시|남구|감만2동","code":"2629063000"}},{"type":"Feature","geometry":{"type":"Polygon","coordinates":[[[129.08364,35.14905],[129.07987,35.1527],[129.07134,35.14878],[129.06705,35.13999],[129.07617,35.14341],[129.07755,35.14092],[129.08231,35.14357],[129.08364,35.14905]]]},"properties":{"key":"부산광역시|남구|문현1동","code":"2629068000"}},{"type":"Feature","geometry":{"type":"Polygon","coordinates":[[[129.06705,35.13999],[129.07134,35.14878],[129.06333,35.14869],[129.06448,35.14139],[129.06609,35.13698],[129.06789,35.13692],[129.06705,35.13999]]]},"properties":{"key":"부산광역시|남구|문현2동","code":"2629069000"}},{"type":"Feature","geometry":{"type":"Polygon","coordinates":[[[129.07755,35.14092],[129.07617,35.14341],[129.06705,35.13999],[129.06789,35.13692],[129.07895,35.13369],[129.07755,35.14092]]]},"properties":{"key":"부산광역시|남구|문현3동","code":"2629070000"}},{"type":"Feature","geometry":{"type":"Polygon","coordinates":[[[129.07895,35.13369],[129.06789,35.13692],[129.06609,35.13698],[129.06533,35.12991],[129.0653,35.12962],[129.06642,35.12759],[129.07283,35.13133],[129.07585,35.1299],[129.07895,35.13369]]]},"properties":{"key":"부산광역시|남구|문현4동","code":"2629071000"}},{"type":"Feature","geometry":{"type":"Polygon","coordinates":[[[129.0972,35.1301],[129.09642,35.13577],[129.08798,35.13495],[129.07895,35.13369],[129.07585,35.1299],[129.08212,35.13088],[129.0972,35.1301]]]},"properties":{"key":"부산광역시|남구|대연1동","code":"2629051000"}},{"type":"Feature","geometry":{"type":"Polygon","coordinates":[[[129.07585,35.1299],[129.07283,35.13133],[129.06642,35.12759],[129.06534,35.12289],[129.073,35.12217],[129.0776,35.12081],[129.08545,35.12524],[129.08212,35.13088],[129.07585,35.1299]]]},"properties":{"key":"부산광역시|남구|우암동","code":"2629064500"}},{"type":"Feature","geometry":{"type":"Polygon","coordinates":[[[129.0139,35.20535],[129.00733,35.20938],[128.99616,35.21306],[128.99434,35.20671],[129.00093,35.20622],[129.0036,35.20217],[129.01832,35.20001],[129.0139,35.20535]]]},"properties":{"key":"부산광역시|북구|구포1동","code":"2632051000"}},{"type":"Feature","geometry":{"type":"Polygon","coordinates":[[[129.0036,35.20217],[129.00093,35.20622],[128.99434,35.20671],[128.98928,35.2025],[128.98819,35.19724],[128.98795,35.1959],[128.99392,35.19526],[129.00061,35.19166],[129.00171,35.19281],[129.00505,35.19886],[129.0036,35.20217]]]},"properties":{"key":"부산광역시|북구|구포2동","code":"2632052000"}},{"type":"Feature","geometry":{"type":"Polygon","coordinates":[[[129.01832,35.20001],[129.0036,35.20217],[129.00505,35.19886],[129.00171,35.19281],[129.0077,35.1925],[129.00911,35.18881],[129.01599,35.18931],[129.02114,35.18775],[129.0255,35.19341],[129.02178,35.1994],[129.01832,35.20001]]]},"properties":{"key":"부산광역시|북구|구포3동","code":"2632052100"}},{"type":"Feature","geometry":{"type":"Polygon","coordinates":[[[129.05057,35.28006],[129.0443,35.28033],[129.03923,35.27589],[129.03009,35.27852],[129.01722,35.27543],[129.01261,35.27328],[129.01287,35.26963],[129.00994,35.259],[129.00146,35.24212],[129.0142,35.23987],[129.01711,35.24529],[129.02723,35.25557],[129.0361,35.25972],[129.04213,35.26401],[129.04258,35.26864],[129.05057,35.28006]]]},"properties":{"key":"부산광역시|북구|금곡동","code":"2632053000"}},{"type":"Feature","geometry":{"type":"Polygon","coordinates":[[[129.04881,35.23848],[129.03926,35.23942],[129.02769,35.23672],[129.02588,35.23381],[129.01768,35.23734],[129.01387,35.23445],[129.01224,35.22822],[129.0075,35.2244],[129.00821,35.2211],[129.01097,35.21789],[129.01951,35.22374],[129.02216,35.22391],[129.02601,35.22626],[129.04407,35.22849],[129.04912,35.23087],[129.04574,35.23334],[129.04881,35.23848]]]},"properties":{"key":"부산광역시|북구|화명1동","code":"2632054100"}},{"type":"Feature","geometry":{"type":"Polygon","coordinates":[[[129.02216,35.22391],[129.01951,35.22374],[129.01097,35.21789],[129.01094,35.21027],[129.02351,35.21214],[129.02504,35.21336],[129.02216,35.22391]]]},"properties":{"key":"부산광역시|북구|덕천1동","code":"2632055000"}},{"type":"Feature","geometry":{"type":"Polygon","coordinates":[[[129.00821,35.2211],[128.99688,35.22363],[128.99616,35.21306],[129.00733,35.20938],[129.0139,35.20535],[129.01094,35.21027],[129.01097,35.21789],[129.00821,35.2211]]]},"properties":{"key":"부산광역시|북구|덕천2동","code":"2632056000"}},{"type":"Feature","geometry":{"type":"Polygon","coordinates":[[[129.02178,35.1994],[129.024,35.20539],[129.02351,35.21214],[129.01094,35.21027],[129.0139,35.20535],[129.01832,35.20001],[129.02178,35.1994]]]},"properties":{"key":"부산광역시|북구|덕천3동","code":"2632056100"}},{"type":"Feature","geometry":{"type":"Polygon","coordinates":[[[129.05971,35.23002],[129.04912,35.23087],[129.04407,35.22849],[129.02601,35.22626],[129.02216,35.22391],[129.02504,35.21336],[129.0312,35.21294],[129.04233,35.21308],[129.05145,35.21136],[129.05134,35.21324],[129.05926,35.22404],[129.0602,35.22622],[129.05971,35.23002]]]},"properties":{"key":"부산광역시|북구|만덕1동","code":"2632057100"}},{"type":"Feature","geometry":{"type":"Polygon","coordinates":[[[129.05145,35.21136],[129.04233,35.21308],[129.0312,35.21294],[129.03181,35.20948],[129.02968,35.20009],[129.0255,35.19341],[129.03194,35.19527],[129.03955,35.1995],[129.04387,35.19839],[129.0451,35.20197],[129.05098,35.20844],[129.05145,35.21136]]]},"properties":{"key":"부산광역시|북구|만덕2동","code":"2632057200"}},{"type":"Feature","geometry":{"type":"Polygon","coordinates":[[[129.0312,35.21294],[129.02504,35.21336],[129.02351,35.21214],[129.024,35.20539],[129.02178,35.1994],[129.0255,35.19341],[129.02968,35.20009],[129.03181,35.20948],[129.0312,35.21294]]]},"properties":{"key":"부산광역시|북구|만덕3동","code":"2632057300"}},{"type":"Feature","geometry":{"type":"Polygon","coordinates":[[[129.04881,35.23848],[129.05107,35.24102],[129.0461,35.24627],[129.04673,35.25703],[129.0361,35.25972],[129.02723,35.25557],[129.01711,35.24529],[129.0142,35.23987],[129.01387,35.23445],[129.01768,35.23734],[129.02588,35.23381],[129.02769,35.23672],[129.03926,35.23942],[129.04881,35.23848]]]},"properties":{"key":"부산광역시|북구|화명2동","code":"2632054200"}},{"type":"Feature","geometry":{"type":"Polygon","coordinates":[[[129.0142,35.23987],[129.00146,35.24212],[128.99761,35.23439],[128.99688,35.22363],[129.00821,35.2211],[129.0075,35.2244],[129.01224,35.22822],[129.01387,35.23445],[129.0142,35.23987]]]},"properties":{"key":"부산광역시|북구|화명3동","code":"2632054300"}},{"type":"Feature","geometry":{"type":"Polygon","coordinates":[[[129.16631,35.17907],[129.16223,35.18159],[129.16266,35.186],[129.1583,35.19746],[129.15303,35.19924],[129.14577,35.19205],[129.14534,35.18078],[129.15106,35.17285],[129.14978,35.16745],[129.14464,35.16286],[129.15279,35.15735],[129.16063,35.15857],[129.16283,35.16668],[129.16631,35.17907]]]},"properties":{"key":"부산광역시|해운대구|우1동","code":"2635051000"}},{"type":"Feature","geometry":{"type":"Polygon","coordinates":[[[129.14464,35.16286],[129.14978,35.16745],[129.15106,35.17285],[129.14534,35.18078],[129.14577,35.19205],[129.14371,35.18818],[129.13224,35.17618],[129.12409,35.17341],[129.12106,35.17465],[129.1225,35.17302],[129.12658,35.16603],[129.13245,35.16171],[129.13635,35.15756],[129.13595,35.15396],[129.13032,35.14799],[129.13075,35.14771],[129.1365,35.15376],[129.13691,35.15771],[129.13408,35.16217],[129.14464,35.16286]]]},"properties":{"key":"부산광역시|해운대구|우2동","code":"2635052000"}},{"type":"Feature","geometry":{"type":"Polygon","coordinates":[[[129.17463,35.16822],[129.17121,35.17346],[129.1664,35.16708],[129.16283,35.16668],[129.16063,35.15857],[129.16857,35.15942],[129.17768,35.15492],[129.17165,35.16127],[129.17587,35.16204],[129.17463,35.16822]]]},"properties":{"key":"부산광역시|해운대구|중1동","code":"2635053000"}},{"type":"Feature","geometry":{"type":"Polygon","coordinates":[[[129.18969,35.1659],[129.18082,35.16436],[129.17587,35.16204],[129.17165,35.16127],[129.17768,35.15492],[129.18119,35.15474],[129.18779,35.15972],[129.19229,35.15984],[129.19607,35.16502],[129.18969,35.1659]]]},"properties":{"key":"부산광역시|해운대구|중2동","code":"2635054000"}},{"type":"Feature","geometry":{"type":"Polygon","coordinates":[[[129.20792,35.18194],[129.20632,35.19128],[129.20667,35.19705],[129.19945,35.20069],[129.19386,35.19811],[129.18904,35.18996],[129.18791,35.18468],[129.19091,35.17791],[129.19188,35.17302],[129.18969,35.1659],[129.19607,35.16502],[129.19887,35.17842],[129.20792,35.18194]]]},"properties":{"key":"부산광역시|해운대구|송정동","code":"2635056000"}},{"type":"Feature","geometry":{"type":"Polygon","coordinates":[[[129.14577,35.19205],[129.14522,35.19475],[129.134,35.1983],[129.12813,35.19896],[129.12241,35.19374],[129.13334,35.19426],[129.14577,35.19205]]]},"properties":{"key":"부산광역시|해운대구|반여2동","code":"2635058000"}},{"type":"Feature","geometry":{"type":"Polygon","coordinates":[[[129.15296,35.20093],[129.14557,35.20508],[129.13664,35.20748],[129.13153,35.20456],[129.12813,35.19896],[129.134,35.1983],[129.14522,35.19475],[129.14577,35.19205],[129.15303,35.19924],[129.15296,35.20093]]]},"properties":{"key":"부산광역시|해운대구|반여3동","code":"2635059000"}},{"type":"Feature","geometry":{"type":"Polygon","coordinates":[[[129.1664,35.22084],[129.16951,35.22609],[129.16735,35.22968],[129.15513,35.23701],[129.15496,35.24505],[129.14812,35.24727],[129.14429,35.25073],[129.1416,35.24259],[129.13609,35.23717],[129.14158,35.23321],[129.14253,35.22913],[129.15128,35.22987],[129.15249,35.22736],[129.16287,35.2238],[129.1664,35.22084]]]},"properties":{"key":"부산광역시|해운대구|반송2동","code":"2635062000"}},{"type":"Feature","geometry":{"type":"Polygon","coordinates":[[[129.14371,35.18818],[129.13834,35.18894],[129.13057,35.18521],[129.12871,35.18863],[129.12124,35.18779],[129.11929,35.19195],[129.11529,35.18966],[129.11552,35.18783],[129.12106,35.17465],[129.12409,35.17341],[129.13224,35.17618],[129.14371,35.18818]]]},"properties":{"key":"부산광역시|해운대구|재송1동","code":"2635065000"}},{"type":"Feature","geometry":{"type":"Polygon","coordinates":[[[129.14577,35.19205],[129.13334,35.19426],[129.12241,35.19374],[129.11929,35.19195],[129.12124,35.18779],[129.12871,35.18863],[129.13057,35.18521],[129.13834,35.18894],[129.14371,35.18818],[129.14577,35.19205]]]},"properties":{"key":"부산광역시|해운대구|재송2동","code":"2635066000"}},{"type":"Feature","geometry":{"type":"Polygon","coordinates":[[[129.18184,35.17213],[129.17887,35.17652],[129.17092,35.17661],[129.17121,35.17346],[129.17463,35.16822],[129.18184,35.17213]]]},"properties":{"key":"부산광역시|해운대구|좌1동","code":"2635055100"}},{"type":"Feature","geometry":{"type":"Polygon","coordinates":[[[129.18969,35.1659],[129.19188,35.17302],[129.19091,35.17791],[129.1831,35.17606],[129.18184,35.17213],[129.17463,35.16822],[129.17587,35.16204],[129.18082,35.16436],[129.18969,35.1659]]]},"properties":{"key":"부산광역시|해운대구|좌2동","code":"2635055200"}},{"type":"Feature","geometry":{"type":"Polygon","coordinates":[[[129.17092,35.17661],[129.16631,35.17907],[129.16283,35.16668],[129.1664,35.16708],[129.17121,35.17346],[129.17092,35.17661]]]},"properties":{"key":"부산광역시|해운대구|좌3동","code":"2635055300"}},{"type":"Feature","geometry":{"type":"Polygon","coordinates":[[[129.18904,35.18996],[129.18332,35.19072],[129.18564,35.19549],[129.17247,35.20202],[129.16937,35.20098],[129.16026,35.20629],[129.15618,35.20427],[129.15296,35.20093],[129.15303,35.19924],[129.1583,35.19746],[129.16266,35.186],[129.16223,35.18159],[129.16631,35.17907],[129.17092,35.17661],[129.17887,35.17652],[129.18184,35.17213],[129.1831,35.17606],[129.19091,35.17791],[129.18791,35.18468],[129.18904,35.18996]]]},"properties":{"key":"부산광역시|해운대구|좌4동","code":"2635055400"}},{"type":"Feature","geometry":{"type":"Polygon","coordinates":[[[129.15618,35.20427],[129.14572,35.20864],[129.14103,35.21854],[129.12872,35.2186],[129.11977,35.21481],[129.12119,35.21008],[129.11638,35.20109],[129.1142,35.19309],[129.11529,35.18966],[129.11929,35.19195],[129.12241,35.19374],[129.12813,35.19896],[129.13153,35.20456],[129.13664,35.20748],[129.14557,35.20508],[129.15296,35.20093],[129.15618,35.20427]]]},"properties":{"key":"부산광역시|해운대구|반여1동","code":"2635057000"}},{"type":"Feature","geometry":{"type":"Polygon","coordinates":[[[129.11638,35.20109],[129.12119,35.21008],[129.11977,35.21481],[129.11908,35.21459],[129.11032,35.21098],[129.11004,35.21011],[129.11378,35.20177],[129.11638,35.20109]]]},"properties":{"key":"부산광역시|해운대구|반여4동","code":"2635059500"}},{"type":"Feature","geometry":{"type":"Polygon","coordinates":[[[129.1664,35.22084],[129.16287,35.2238],[129.15249,35.22736],[129.15128,35.22987],[129.14253,35.22913],[129.14158,35.23321],[129.13609,35.23717],[129.13099,35.23524],[129.12718,35.22768],[129.11896,35.22484],[129.11735,35.22245],[129.11908,35.21459],[129.11977,35.21481],[129.12872,35.2186],[129.14103,35.21854],[129.14572,35.20864],[129.15618,35.20427],[129.16026,35.20629],[129.16045,35.21184],[129.16474,35.21494],[129.1661,35.21911],[129.1664,35.22084]]]},"properties":{"key":"부산광역시|해운대구|반송1동","code":"2635061000"}},{"type":"Feature","geometry":{"type":"Polygon","coordinates":[[[128.99308,35.09324],[128.99354,35.10547],[128.9916,35.10965],[128.98776,35.10639],[128.98677,35.09895],[128.9824,35.09431],[128.98356,35.09188],[128.99059,35.09119],[128.99308,35.09324]]]},"properties":{"key":"부산광역시|사하구|괴정1동","code":"2638051000"}},{"type":"Feature","geometry":{"type":"Polygon","coordinates":[[[129.00371,35.11067],[129.00015,35.11838],[128.99817,35.10748],[129.00024,35.09738],[129.00346,35.09697],[129.00675,35.09909],[129.01051,35.10559],[129.00371,35.11067]]]},"properties":{"key":"부산광역시|사하구|괴정2동","code":"2638052000"}},{"type":"Feature","geometry":{"type":"Polygon","coordinates":[[[129.00015,35.11838],[128.99219,35.11077],[128.9916,35.10965],[128.99354,35.10547],[128.99308,35.09324],[129.00024,35.09738],[128.99817,35.10748],[129.00015,35.11838]]]},"properties":{"key":"부산광역시|사하구|괴정3동","code":"2638053000"}},{"type":"Feature","geometry":{"type":"Polygon","coordinates":[[[128.99219,35.11077],[128.9855,35.10717],[128.98303,35.10293],[128.975,35.09653],[128.9824,35.09431],[128.98677,35.09895],[128.98776,35.10639],[128.9916,35.10965],[128.99219,35.11077]]]},"properties":{"key":"부산광역시|사하구|괴정4동","code":"2638054000"}},{"type":"Feature","geometry":{"type":"Polygon","coordinates":[[[128.99797,35.12255],[128.98769,35.12493],[128.97982,35.11675],[128.97579,35.11693],[128.97324,35.11154],[128.96831,35.10623],[128.97355,35.10351],[128.97134,35.09773],[128.975,35.09653],[128.98303,35.10293],[128.9855,35.10717],[128.99219,35.11077],[129.00015,35.11838],[128.99797,35.12255]]]},"properties":{"key":"부산광역시|사하구|당리동","code":"2638055000"}},{"type":"Feature","geometry":{"type":"Polygon","coordinates":[[[128.93686,35.10988],[128.9329,35.11028],[128.92866,35.09913],[128.92535,35.09341],[128.93852,35.0781],[128.9509,35.07802],[128.95103,35.07963],[128.95053,35.08373],[128.95344,35.08956],[128.95562,35.09921],[128.96441,35.10083],[128.97134,35.09773],[128.97355,35.10351],[128.96831,35.10623],[128.95998,35.1062],[128.93686,35.10988]]]},"properties":{"key":"부산광역시|사하구|하단1동","code":"2638056100"}},{"type":"Feature","geometry":{"type":"Polygon","coordinates":[[[128.97579,35.11693],[128.9689,35.12092],[128.95991,35.12028],[128.95688,35.12731],[128.93904,35.1129],[128.93686,35.10988],[128.95998,35.1062],[128.96831,35.10623],[128.97324,35.11154],[128.97579,35.11693]]]},"properties":{"key":"부산광역시|사하구|하단2동","code":"2638056200"}},{"type":"Feature","geometry":{"type":"Polygon","coordinates":[[[128.975,35.09653],[128.97134,35.09773],[128.96603,35.09003],[128.96775,35.08539],[128.97744,35.08512],[128.98309,35.08493],[128.98356,35.09188],[128.9824,35.09431],[128.975,35.09653]]]},"properties":{"key":"부산광역시|사하구|신평1동","code":"2638057100"}},{"type":"Feature","geometry":{"type":"Polygon","coordinates":[[[128.97134,35.09773],[128.96441,35.10083],[128.95562,35.09921],[128.95344,35.08956],[128.95053,35.08373],[128.95103,35.07963],[128.96775,35.08539],[128.96603,35.09003],[128.97134,35.09773]]]},"properties":{"key":"부산광역시|사하구|신평2동","code":"2638057200"}},{"type":"Feature","geometry":{"type":"Polygon","coordinates":[[[128.97744,35.08512],[128.96775,35.08539],[128.95103,35.07963],[128.9509,35.07802],[128.95254,35.07204],[128.95521,35.07268],[128.96912,35.0659],[128.96658,35.07337],[128.96822,35.08075],[128.97657,35.08064],[128.97744,35.08512]]]},"properties":{"key":"부산광역시|사하구|장림1동","code":"2638058000"}},{"type":"Feature","geometry":{"type":"Polygon","coordinates":[[[128.98309,35.08493],[128.97744,35.08512],[128.97657,35.08064],[128.96822,35.08075],[128.96658,35.07337],[128.96912,35.0659],[128.97063,35.06638],[128.97383,35.06566],[128.97968,35.07035],[128.98538,35.07489],[128.98309,35.08493]]]},"properties":{"key":"부산광역시|사하구|장림2동","code":"2638059000"}},{"type":"Feature","geometry":{"type":"Polygon","coordinates":[[[128.96912,35.0659],[128.95521,35.07268],[128.95254,35.07204],[128.95835,35.04796],[128.9645,35.04621],[128.9627,35.03921],[128.96568,35.03264],[128.97291,35.04347],[128.97311,35.0491],[128.98214,35.04776],[128.98285,35.05162],[128.97756,35.05692],[128.97063,35.06638],[128.96912,35.0659]]]},"properties":{"key":"부산광역시|사하구|다대1동","code":"2638060100"}},{"type":"Feature","geometry":{"type":"Polygon","coordinates":[[[128.99686,35.04845],[128.99386,35.06001],[128.98893,35.06124],[128.98734,35.06608],[128.97968,35.07035],[128.97383,35.06566],[128.97063,35.06638],[128.97756,35.05692],[128.98456,35.05969],[128.98816,35.05797],[128.99061,35.04892],[128.99686,35.04845]]]},"properties":{"key":"부산광역시|사하구|다대2동","code":"2638060200"}},{"type":"Feature","geometry":{"type":"Polygon","coordinates":[[[128.99059,35.09119],[128.98356,35.09188],[128.98309,35.08493],[128.98538,35.07489],[128.97968,35.07035],[128.98734,35.06608],[128.98893,35.06124],[128.99386,35.06001],[128.99686,35.04845],[129.0013,35.04822],[128.99533,35.06349],[128.9951,35.07569],[128.99273,35.08014],[128.99718,35.08303],[128.99669,35.0861],[128.99059,35.09119]]]},"properties":{"key":"부산광역시|사하구|구평동","code":"2638061000"}},{"type":"Feature","geometry":{"type":"Polygon","coordinates":[[[129.00346,35.09697],[129.00024,35.09738],[128.99308,35.09324],[128.99059,35.09119],[128.99669,35.0861],[128.99718,35.08303],[129.00271,35.08468],[129.00444,35.07844],[129.01136,35.07693],[129.01317,35.08809],[129.00666,35.08974],[129.00265,35.09339],[129.00346,35.09697]]]},"properties":{"key":"부산광역시|사하구|감천1동","code":"2638062000"}},{"type":"Feature","geometry":{"type":"Polygon","coordinates":[[[129.01284,35.09541],[129.00675,35.09909],[129.00346,35.09697],[129.00265,35.09339],[129.00666,35.08974],[129.01317,35.08809],[129.01402,35.08919],[129.01425,35.0907],[129.01284,35.09541]]]},"properties":{"key":"부산광역시|사하구|감천2동","code":"2638063000"}},{"type":"Feature","geometry":{"type":"Polygon","coordinates":[[[129.09966,35.21616],[129.09945,35.2222],[129.09617,35.22018],[129.09436,35.21543],[129.09754,35.21408],[129.09966,35.21616]]]},"properties":{"key":"부산광역시|금정구|서1동","code":"2641051000"}},{"type":"Feature","geometry":{"type":"Polygon","coordinates":[[[129.10842,35.21411],[129.09966,35.21616],[129.09754,35.21408],[129.10507,35.21036],[129.11004,35.21011],[129.11032,35.21098],[129.10842,35.21411]]]},"properties":{"key":"부산광역시|금정구|서2동","code":"2641052000"}},{"type":"Feature","geometry":{"type":"Polygon","coordinates":[[[129.14429,35.25073],[129.13924,35.25416],[129.13438,35.25091],[129.12799,35.24074],[129.11691,35.23819],[129.11215,35.23184],[129.10672,35.2279],[129.1054,35.22428],[129.11067,35.21902],[129.10842,35.21411],[129.11032,35.21098],[129.11908,35.21459],[129.11735,35.22245],[129.11896,35.22484],[129.12718,35.22768],[129.13099,35.23524],[129.13609,35.23717],[129.1416,35.24259],[129.14429,35.25073]]]},"properties":{"key":"부산광역시|금정구|금사회동동","code":"2641055500"}},{"type":"Feature","geometry":{"type":"Polygon","coordinates":[[[129.10358,35.22978],[129.10171,35.23049],[129.09701,35.22563],[129.08916,35.22651],[129.0878,35.22222],[129.09617,35.22018],[129.09945,35.2222],[129.10358,35.22978]]]},"properties":{"key":"부산광역시|금정구|부곡1동","code":"2641057000"}},{"type":"Feature","geometry":{"type":"Polygon","coordinates":[[[129.10171,35.23049],[129.10371,35.23374],[129.08964,35.23495],[129.08941,35.23109],[129.08916,35.22651],[129.09701,35.22563],[129.10171,35.23049]]]},"properties":{"key":"부산광역시|금정구|부곡2동","code":"2641058000"}},{"type":"Feature","geometry":{"type":"Polygon","coordinates":[[[129.13924,35.25416],[129.14104,35.25922],[129.13021,35.26005],[129.12638,35.26187],[129.12008,35.26031],[129.10492,35.2555],[129.10081,35.24753],[129.09468,35.2456],[129.08935,35.24147],[129.08964,35.23495],[129.10371,35.23374],[129.10171,35.23049],[129.10358,35.22978],[129.10672,35.2279],[129.11215,35.23184],[129.11691,35.23819],[129.12799,35.24074],[129.13438,35.25091],[129.13924,35.25416]]]},"properties":{"key":"부산광역시|금정구|부곡3동","code":"2641059000"}},{"type":"Feature","geometry":{"type":"Polygon","coordinates":[[[129.09617,35.22018],[129.0878,35.22222],[129.08726,35.22166],[129.08494,35.21792],[129.09399,35.21496],[129.09436,35.21543],[129.09617,35.22018]]]},"properties":{"key":"부산광역시|금정구|부곡4동","code":"2641059100"}},{"type":"Feature","geometry":{"type":"Polygon","coordinates":[[[129.07742,35.24568],[129.06751,35.24971],[129.06244,35.24436],[129.06228,35.23836],[129.0661,35.23941],[129.08293,35.23429],[129.08941,35.23109],[129.08964,35.23495],[129.08935,35.24147],[129.08439,35.24449],[129.07742,35.24568]]]},"properties":{"key":"부산광역시|금정구|장전1동","code":"2641060000"}},{"type":"Feature","geometry":{"type":"Polygon","coordinates":[[[129.10892,35.30507],[129.10348,35.30614],[129.097,35.30354],[129.09772,35.29664],[129.10275,35.29516],[129.10201,35.29098],[129.10549,35.28355],[129.09638,35.2792],[129.09378,35.27501],[129.09738,35.27276],[129.09539,35.26301],[129.09707,35.26141],[129.09951,35.25799],[129.10492,35.2555],[129.12008,35.26031],[129.12137,35.26959],[129.12543,35.27672],[129.12404,35.28057],[129.12983,35.29033],[129.12966,35.298],[129.12083,35.30193],[129.10892,35.30507]]]},"properties":{"key":"부산광역시|금정구|선두구동","code":"2641063500"}},{"type":"Feature","geometry":{"type":"Polygon","coordinates":[[[129.09738,35.27276],[129.09378,35.27501],[129.09638,35.2792],[129.10549,35.28355],[129.10201,35.29098],[129.10275,35.29516],[129.09772,35.29664],[129.097,35.30354],[129.09052,35.30354],[129.08621,35.30119],[129.07356,35.29007],[129.06525,35.29145],[129.06,35.29548],[129.05192,35.28804],[129.05057,35.28006],[129.06083,35.27224],[129.07605,35.27324],[129.08113,35.27627],[129.0877,35.27545],[129.09128,35.27215],[129.09738,35.27276]]]},"properties":{"key":"부산광역시|금정구|청룡노포동","code":"2641066500"}},{"type":"Feature","geometry":{"type":"Polygon","coordinates":[[[129.09738,35.27276],[129.09128,35.27215],[129.0877,35.27545],[129.08113,35.27627],[129.07605,35.27324],[129.06083,35.27224],[129.06243,35.2616],[129.06797,35.25731],[129.08479,35.26369],[129.09139,35.2598],[129.09707,35.26141],[129.09539,35.26301],[129.09738,35.27276]]]},"properties":{"key":"부산광역시|금정구|남산동","code":"2641067000"}},{"type":"Feature","geometry":{"type":"Polygon","coordinates":[[[129.10492,35.2555],[129.09951,35.25799],[129.09447,35.25531],[129.08991,35.24998],[129.08083,35.24979],[129.07742,35.24568],[129.08439,35.24449],[129.08935,35.24147],[129.09468,35.2456],[129.10081,35.24753],[129.10492,35.2555]]]},"properties":{"key":"부산광역시|금정구|구서1동","code":"2641068000"}},{"type":"Feature","geometry":{"type":"Polygon","coordinates":[[[129.09707,35.26141],[129.09139,35.2598],[129.08479,35.26369],[129.06797,35.25731],[129.06751,35.24971],[129.07742,35.24568],[129.08083,35.24979],[129.08991,35.24998],[129.09447,35.25531],[129.09951,35.25799],[129.09707,35.26141]]]},"properties":{"key":"부산광역시|금정구|구서2동","code":"2641069000"}},{"type":"Feature","geometry":{"type":"Polygon","coordinates":[[[129.06083,35.27224],[129.05057,35.28006],[129.04258,35.26864],[129.04213,35.26401],[129.0361,35.25972],[129.04673,35.25703],[129.0461,35.24627],[129.05107,35.24102],[129.04881,35.23848],[129.04574,35.23334],[129.04912,35.23087],[129.05971,35.23002],[129.06228,35.23836],[129.06244,35.24436],[129.06751,35.24971],[129.06797,35.25731],[129.06243,35.2616],[129.06083,35.27224]]]},"properties":{"key":"부산광역시|금정구|금성동","code":"2641070000"}},{"type":"Feature","geometry":{"type":"Polygon","coordinates":[[[129.10672,35.2279],[129.10358,35.22978],[129.09945,35.2222],[129.09966,35.21616],[129.10842,35.21411],[129.11067,35.21902],[129.1054,35.22428],[129.10672,35.2279]]]},"properties":{"key":"부산광역시|금정구|서3동","code":"2641053000"}},{"type":"Feature","geometry":{"type":"Polygon","coordinates":[[[128.99688,35.22363],[128.99761,35.23439],[128.98074,35.22853],[128.95246,35.22432],[128.94712,35.22668],[128.94388,35.22188],[128.94613,35.21526],[128.93873,35.2049],[128.93116,35.19755],[128.92709,35.19038],[128.934,35.19321],[128.9457,35.19171],[128.95,35.18761],[128.95719,35.19264],[128.95224,35.19851],[128.9634,35.20322],[128.96619,35.19713],[128.97248,35.19068],[128.98207,35.1965],[128.98819,35.19724],[128.98928,35.2025],[128.99434,35.20671],[128.99616,35.21306],[128.99688,35.22363]]]},"properties":{"key":"부산광역시|강서구|대저1동","code":"2644051000"}},{"type":"Feature","geometry":{"type":"Polygon","coordinates":[[[128.97248,35.19068],[128.96619,35.19713],[128.9634,35.20322],[128.95224,35.19851],[128.95719,35.19264],[128.95,35.18761],[128.9457,35.19171],[128.934,35.19321],[128.92709,35.19038],[128.92126,35.18667],[128.91607,35.17035],[128.91925,35.16493],[128.92589,35.14865],[128.92545,35.14416],[128.91821,35.13416],[128.93203,35.11784],[128.93316,35.11395],[128.93904,35.1129],[128.95688,35.12731],[128.96057,35.13718],[128.96082,35.14254],[128.95953,35.14924],[128.96242,35.16349],[128.96201,35.18198],[128.96552,35.18646],[128.97248,35.19068]]]},"properties":{"key":"부산광역시|강서구|대저2동","code":"2644052000"}},{"type":"Feature","geometry":{"type":"Polygon","coordinates":[[[128.94712,35.22668],[128.94483,35.22792],[128.93286,35.22214],[128.92349,35.21605],[128.91677,35.20704],[128.90564,35.19956],[128.90427,35.19471],[128.90609,35.18763],[128.90498,35.17161],[128.90296,35.16252],[128.90296,35.13707],[128.90378,35.13079],[128.91136,35.13398],[128.91821,35.13416],[128.92545,35.14416],[128.92589,35.14865],[128.91925,35.16493],[128.91607,35.17035],[128.92126,35.18667],[128.92709,35.19038],[128.93116,35.19755],[128.93873,35.2049],[128.94613,35.21526],[128.94388,35.22188],[128.94712,35.22668]]]},"properties":{"key":"부산광역시|강서구|강동동","code":"2644053000"}},{"type":"Feature","geometry":{"type":"Polygon","coordinates":[[[128.91821,35.13416],[128.91136,35.13398],[128.90378,35.13079],[128.90179,35.13061],[128.90064,35.11926],[128.90546,35.11806],[128.90041,35.11048],[128.89939,35.09929],[128.89627,35.089],[128.91217,35.08937],[128.92535,35.09341],[128.92866,35.09913],[128.9329,35.11028],[128.93686,35.10988],[128.93904,35.1129],[128.93316,35.11395],[128.93203,35.11784],[128.91821,35.13416]]]},"properties":{"key":"부산광역시|강서구|명지1동","code":"2644053500"}},{"type":"Feature","geometry":{"type":"Polygon","coordinates":[[[128.91239,35.22256],[128.90505,35.22007],[128.90494,35.21534],[128.8972,35.21326],[128.88642,35.21463],[128.87964,35.21016],[128.87039,35.20171],[128.87619,35.19291],[128.8765,35.18741],[128.88156,35.18294],[128.8802,35.17203],[128.89034,35.16435],[128.88708,35.15635],[128.88815,35.14568],[128.89458,35.13701],[128.90378,35.13079],[128.90296,35.13707],[128.90296,35.16252],[128.90498,35.17161],[128.90609,35.18763],[128.90427,35.19471],[128.90564,35.19956],[128.91677,35.20704],[128.92349,35.21605],[128.91663,35.21696],[128.91239,35.22256]]]},"properties":{"key":"부산광역시|강서구|가락동","code":"2644055000"}},{"type":"Feature","geometry":{"type":"Polygon","coordinates":[[[128.87195,35.08048],[128.87519,35.07936],[128.87481,35.07053],[128.86314,35.0698],[128.8603,35.06837],[128.87331,35.06155],[128.88197,35.06006],[128.88482,35.06354],[128.88688,35.07911],[128.8926,35.09396],[128.86874,35.10163],[128.86668,35.09774],[128.87098,35.08867],[128.87195,35.08048]]]},"properties":{"key":"부산광역시|강서구|신호동","code":"2644059000"}},{"type":"Feature","geometry":{"type":"Polygon","coordinates":[[[128.83247,35.08631],[128.82154,35.08585],[128.81853,35.083],[128.80949,35.08278],[128.8307,35.08045],[128.83078,35.07289],[128.80322,35.06565],[128.80562,35.05978],[128.79887,35.05745],[128.79692,35.0498],[128.80481,35.04759],[128.81201,35.04016],[128.81244,35.0366],[128.80942,35.03016],[128.815,35.02897],[128.8133,35.02421],[128.80683,35.02498],[128.80581,35.0206],[128.8182,35.01796],[128.82603,35.01378],[128.82244,35.00487],[128.82128,34.99423],[128.83506,34.99444],[128.84109,34.99714],[128.83859,35.00023],[128.8414,35.00661],[128.83582,35.01288],[128.84376,35.02868],[128.84955,35.03353],[128.85125,35.04159],[128.85023,35.05179],[128.8458,35.05962],[128.84997,35.06219],[128.85807,35.06362],[128.85494,35.069],[128.84239,35.06955],[128.83685,35.07387],[128.83476,35.08025],[128.83247,35.08631]]]},"properties":{"key":"부산광역시|강서구|가덕도동","code":"2644058000"}},{"type":"Feature","geometry":{"type":"Polygon","coordinates":[[[129.08033,35.19927],[129.07426,35.19806],[129.06648,35.19416],[129.07412,35.18859],[129.07722,35.18773],[129.08019,35.1916],[129.08362,35.19218],[129.09073,35.19346],[129.08561,35.19472],[129.08033,35.19927]]]},"properties":{"key":"부산광역시|연제구|거제1동","code":"2647061000"}},{"type":"Feature","geometry":{"type":"Polygon","coordinates":[[[129.07412,35.18859],[129.06648,35.19416],[129.0642,35.1937],[129.05988,35.1913],[129.04769,35.19421],[129.04697,35.19186],[129.05204,35.18478],[129.0612,35.18389],[129.07063,35.18552],[129.07412,35.18859]]]},"properties":{"key":"부산광역시|연제구|거제2동","code":"2647062000"}},{"type":"Feature","geometry":{"type":"Polygon","coordinates":[[[129.07722,35.18773],[129.07412,35.18859],[129.07063,35.18552],[129.06734,35.1769],[129.06778,35.17657],[129.07191,35.17959],[129.07722,35.18773]]]},"properties":{"key":"부산광역시|연제구|거제3동","code":"2647063000"}},{"type":"Feature","geometry":{"type":"Polygon","coordinates":[[[129.07063,35.18552],[129.0612,35.18389],[129.06166,35.18025],[129.06734,35.1769],[129.07063,35.18552]]]},"properties":{"key":"부산광역시|연제구|거제4동","code":"2647064000"}},{"type":"Feature","geometry":{"type":"Polygon","coordinates":[[[129.09543,35.19238],[129.09073,35.19346],[129.08362,35.19218],[129.08718,35.18385],[129.093,35.18269],[129.09543,35.19238]]]},"properties":{"key":"부산광역시|연제구|연산1동","code":"2647065000"}},{"type":"Feature","geometry":{"type":"Polygon","coordinates":[[[129.08384,35.18101],[129.07833,35.1818],[129.07503,35.17759],[129.08192,35.17174],[129.07929,35.16667],[129.07885,35.16573],[129.07852,35.16242],[129.08203,35.15948],[129.08464,35.16638],[129.08268,35.16965],[129.08443,35.17966],[129.08384,35.18101]]]},"properties":{"key":"부산광역시|연제구|연산2동","code":"2647066000"}},{"type":"Feature","geometry":{"type":"Polygon","coordinates":[[[129.09646,35.17346],[129.08773,35.17447],[129.08684,35.17002],[129.08888,35.16451],[129.08293,35.15824],[129.09482,35.16174],[129.09232,35.16617],[129.09646,35.17346]]]},"properties":{"key":"부산광역시|연제구|연산3동","code":"2647067000"}},{"type":"Feature","geometry":{"type":"Polygon","coordinates":[[[129.093,35.18269],[129.08718,35.18385],[129.08362,35.19218],[129.08019,35.1916],[129.08384,35.18101],[129.08443,35.17966],[129.096,35.18019],[129.093,35.18269]]]},"properties":{"key":"부산광역시|연제구|연산4동","code":"2647068000"}},{"type":"Feature","geometry":{"type":"Polygon","coordinates":[[[129.08384,35.18101],[129.08019,35.1916],[129.07722,35.18773],[129.07191,35.17959],[129.07503,35.17759],[129.07833,35.1818],[129.08384,35.18101]]]},"properties":{"key":"부산광역시|연제구|연산5동","code":"2647069000"}},{"type":"Feature","geometry":{"type":"Polygon","coordinates":[[[129.09742,35.17952],[129.096,35.18019],[129.08443,35.17966],[129.08268,35.16965],[129.08464,35.16638],[129.08203,35.15948],[129.08293,35.15824],[129.08888,35.16451],[129.08684,35.17002],[129.08773,35.17447],[129.09646,35.17346],[129.09742,35.17952]]]},"properties":{"key":"부산광역시|연제구|연산6동","code":"2647070000"}},{"type":"Feature","geometry":{"type":"Polygon","coordinates":[[[129.09941,35.19175],[129.09543,35.19238],[129.093,35.18269],[129.096,35.18019],[129.09742,35.17952],[129.10121,35.18769],[129.09941,35.19175]]]},"properties":{"key":"부산광역시|연제구|연산8동","code":"2647072000"}},{"type":"Feature","geometry":{"type":"Polygon","coordinates":[[[129.10062,35.19144],[129.09941,35.19175],[129.10121,35.18769],[129.09742,35.17952],[129.10357,35.18087],[129.10718,35.17811],[129.1123,35.17717],[129.11516,35.18318],[129.11052,35.18964],[129.10062,35.19144]]]},"properties":{"key":"부산광역시|연제구|연산9동","code":"2647073000"}},{"type":"Feature","geometry":{"type":"Polygon","coordinates":[[[129.11346,35.14894],[129.11119,35.15058],[129.10164,35.15069],[129.10232,35.1428],[129.11134,35.13568],[129.11181,35.13548],[129.12098,35.13772],[129.13075,35.14771],[129.13032,35.14799],[129.12075,35.13818],[129.11561,35.13955],[129.11165,35.13918],[129.11116,35.14583],[129.11346,35.14894]]]},"properties":{"key":"부산광역시|수영구|남천1동","code":"2650066000"}},{"type":"Feature","geometry":{"type":"Polygon","coordinates":[[[129.11514,35.14799],[129.11346,35.14894],[129.11116,35.14583],[129.11165,35.13918],[129.11561,35.13955],[129.11777,35.14598],[129.11514,35.14799]]]},"properties":{"key":"부산광역시|수영구|남천2동","code":"2650067000"}},{"type":"Feature","geometry":{"type":"Polygon","coordinates":[[[129.1225,35.17302],[129.11093,35.17438],[129.10954,35.17161],[129.11436,35.1679],[129.1202,35.16834],[129.12658,35.16603],[129.1225,35.17302]]]},"properties":{"key":"부산광역시|수영구|수영동","code":"2650073000"}},{"type":"Feature","geometry":{"type":"Polygon","coordinates":[[[129.10718,35.17811],[129.10357,35.18087],[129.09742,35.17952],[129.09646,35.17346],[129.09232,35.16617],[129.09482,35.16174],[129.10331,35.16369],[129.10396,35.16595],[129.10924,35.1716],[129.10718,35.17811]]]},"properties":{"key":"부산광역시|수영구|망미1동","code":"2650074000"}},{"type":"Feature","geometry":{"type":"Polygon","coordinates":[[[129.12106,35.17465],[129.11552,35.18783],[129.11516,35.18318],[129.1123,35.17717],[129.10718,35.17811],[129.10924,35.1716],[129.10954,35.17161],[129.11093,35.17438],[129.1225,35.17302],[129.12106,35.17465]]]},"properties":{"key":"부산광역시|수영구|망미2동","code":"2650075000"}},{"type":"Feature","geometry":{"type":"Polygon","coordinates":[[[129.11876,35.16485],[129.10396,35.16595],[129.10331,35.16369],[129.09482,35.16174],[129.096,35.15987],[129.10046,35.16101],[129.11354,35.15975],[129.12096,35.15865],[129.11876,35.16485]]]},"properties":{"key":"부산광역시|수영구|광안1동","code":"2650076000"}},{"type":"Feature","geometry":{"type":"Polygon","coordinates":[[[129.12096,35.15865],[129.11354,35.15975],[129.11119,35.15058],[129.11346,35.14894],[129.11514,35.14799],[129.12033,35.15398],[129.12096,35.15865]]]},"properties":{"key":"부산광역시|수영구|광안2동","code":"2650077000"}},{"type":"Feature","geometry":{"type":"Polygon","coordinates":[[[129.10924,35.1716],[129.10396,35.16595],[129.11876,35.16485],[129.1202,35.16834],[129.11436,35.1679],[129.10954,35.17161],[129.10924,35.1716]]]},"properties":{"key":"부산광역시|수영구|광안3동","code":"2650078000"}},{"type":"Feature","geometry":{"type":"Polygon","coordinates":[[[129.11354,35.15975],[129.10046,35.16101],[129.096,35.15987],[129.10164,35.15069],[129.11119,35.15058],[129.11354,35.15975]]]},"properties":{"key":"부산광역시|수영구|광안4동","code":"2650079000"}},{"type":"Feature","geometry":{"type":"Polygon","coordinates":[[[129.12658,35.16603],[129.1202,35.16834],[129.11876,35.16485],[129.12096,35.15865],[129.12033,35.15398],[129.1274,35.15245],[129.13437,35.15471],[129.13245,35.16171],[129.12658,35.16603]]]},"properties":{"key":"부산광역시|수영구|민락동","code":"2650080000"}},{"type":"Feature","geometry":{"type":"Polygon","coordinates":[[[128.98795,35.1959],[128.98819,35.19724],[128.98207,35.1965],[128.97248,35.19068],[128.96552,35.18646],[128.96201,35.18198],[128.96242,35.16349],[128.95953,35.14924],[128.96082,35.14254],[128.96752,35.14557],[128.9694,35.15308],[128.97487,35.16053],[128.97668,35.16962],[128.98038,35.1686],[128.9814,35.17252],[128.98012,35.17554],[128.98165,35.18204],[128.98357,35.19051],[128.98795,35.1959]]]},"properties":{"key":"부산광역시|사상구|삼락동","code":"2653058000"}},{"type":"Feature","geometry":{"type":"Polygon","coordinates":[[[129.00061,35.19166],[128.99392,35.19526],[128.98795,35.1959],[128.98357,35.19051],[128.98165,35.18204],[128.9913,35.18136],[129.00061,35.19166]]]},"properties":{"key":"부산광역시|사상구|모라1동","code":"2653059100"}},{"type":"Feature","geometry":{"type":"Polygon","coordinates":[[[129.02114,35.18775],[129.01599,35.18931],[129.00911,35.18881],[129.0077,35.1925],[129.00171,35.19281],[129.00061,35.19166],[128.9913,35.18136],[128.99557,35.18005],[128.99858,35.17597],[129.01017,35.17361],[129.01786,35.17933],[129.0215,35.17832],[129.0238,35.18304],[129.02114,35.18775]]]},"properties":{"key":"부산광역시|사상구|모라3동","code":"2653059300"}},{"type":"Feature","geometry":{"type":"Polygon","coordinates":[[[128.99521,35.17185],[128.9897,35.17092],[128.9814,35.17252],[128.98038,35.1686],[128.9898,35.16713],[128.99521,35.17185]]]},"properties":{"key":"부산광역시|사상구|덕포1동","code":"2653060000"}},{"type":"Feature","geometry":{"type":"Polygon","coordinates":[[[128.9913,35.18136],[128.98165,35.18204],[128.98012,35.17554],[128.9814,35.17252],[128.9897,35.17092],[128.99521,35.17185],[128.99858,35.17597],[128.99557,35.18005],[128.9913,35.18136]]]},"properties":{"key":"부산광역시|사상구|덕포2동","code":"2653061000"}},{"type":"Feature","geometry":{"type":"Polygon","coordinates":[[[129.01017,35.17361],[128.99858,35.17597],[128.99521,35.17185],[128.9898,35.16713],[128.98038,35.1686],[128.97668,35.16962],[128.97487,35.16053],[128.98575,35.15708],[128.99345,35.16141],[128.9997,35.16187],[129.00586,35.16447],[129.01009,35.17036],[129.01017,35.17361]]]},"properties":{"key":"부산광역시|사상구|괘법동","code":"2653062000"}},{"type":"Feature","geometry":{"type":"Polygon","coordinates":[[[129.00604,35.1508],[129.00512,35.15566],[129.00797,35.16351],[129.00586,35.16447],[128.9997,35.16187],[128.9929,35.15428],[128.99174,35.14965],[128.99767,35.15002],[129.00604,35.1508]]]},"properties":{"key":"부산광역시|사상구|주례1동","code":"2653065000"}},{"type":"Feature","geometry":{"type":"Polygon","coordinates":[[[129.01284,35.16567],[129.01009,35.17036],[129.00586,35.16447],[129.00797,35.16351],[129.00512,35.15566],[129.00604,35.1508],[129.00756,35.14896],[129.00658,35.13939],[129.01132,35.13819],[129.01615,35.14224],[129.01619,35.14825],[129.01667,35.15281],[129.01064,35.16015],[129.01284,35.16567]]]},"properties":{"key":"부산광역시|사상구|주례2동","code":"2653066000"}},{"type":"Feature","geometry":{"type":"Polygon","coordinates":[[[129.00658,35.13939],[129.00756,35.14896],[129.00604,35.1508],[128.99767,35.15002],[128.99408,35.14615],[128.9953,35.14059],[129.00452,35.13951],[129.00658,35.13939]]]},"properties":{"key":"부산광역시|사상구|주례3동","code":"2653066100"}},{"type":"Feature","geometry":{"type":"Polygon","coordinates":[[[128.99174,35.14965],[128.97621,35.15152],[128.97536,35.14308],[128.97253,35.1378],[128.97291,35.13347],[128.97518,35.13626],[128.98396,35.13238],[128.98769,35.12493],[128.99797,35.12255],[129.00225,35.12743],[129.00452,35.13951],[128.9953,35.14059],[128.99408,35.14615],[128.99767,35.15002],[128.99174,35.14965]]]},"properties":{"key":"부산광역시|사상구|학장동","code":"2653067000"}},{"type":"Feature","geometry":{"type":"Polygon","coordinates":[[[128.97291,35.13347],[128.9702,35.13033],[128.96453,35.13725],[128.96057,35.13718],[128.95688,35.12731],[128.95991,35.12028],[128.9689,35.12092],[128.97579,35.11693],[128.97982,35.11675],[128.98769,35.12493],[128.98396,35.13238],[128.97518,35.13626],[128.97291,35.13347]]]},"properties":{"key":"부산광역시|사상구|엄궁동","code":"2653068000"}},{"type":"Feature","geometry":{"type":"Polygon","coordinates":[[[128.9997,35.16187],[128.99345,35.16141],[128.98575,35.15708],[128.97487,35.16053],[128.9694,35.15308],[128.96752,35.14557],[128.96082,35.14254],[128.96057,35.13718],[128.96453,35.13725],[128.9702,35.13033],[128.97291,35.13347],[128.97253,35.1378],[128.97536,35.14308],[128.97621,35.15152],[128.99174,35.14965],[128.9929,35.15428],[128.9997,35.16187]]]},"properties":{"key":"부산광역시|사상구|감전동","code":"2653064500"}},{"type":"Feature","geometry":{"type":"Polygon","coordinates":[[[129.25291,35.25225],[129.2351,35.2562],[129.22566,35.25149],[129.21899,35.25791],[129.21013,35.26028],[129.20638,35.26918],[129.19598,35.26758],[129.18979,35.26397],[129.1866,35.25483],[129.18739,35.25063],[129.19168,35.24737],[129.19358,35.24223],[129.1905,35.2378],[129.18909,35.23112],[129.1828,35.22686],[129.17498,35.21947],[129.1661,35.21911],[129.16474,35.21494],[129.16045,35.21184],[129.16026,35.20629],[129.16937,35.20098],[129.17247,35.20202],[129.18564,35.19549],[129.18332,35.19072],[129.18904,35.18996],[129.19386,35.19811],[129.19945,35.20069],[129.20667,35.19705],[129.20632,35.19128],[129.20792,35.18194],[129.21281,35.18088],[129.21467,35.18655],[129.21933,35.18376],[129.22504,35.1863],[129.22382,35.18999],[129.23015,35.19573],[129.23183,35.20147],[129.23006,35.20427],[129.23323,35.21447],[129.23073,35.21925],[129.23892,35.22052],[129.24546,35.23045],[129.24574,35.23707],[129.24828,35.24331],[129.25338,35.24667],[129.25291,35.25225]]]},"properties":{"key":"부산광역시|기장군|기장읍","code":"2671025000"}},{"type":"Feature","geometry":{"type":"Polygon","coordinates":[[[129.20297,35.38787],[129.20053,35.38867],[129.19451,35.38375],[129.19936,35.37575],[129.20479,35.37078],[129.20837,35.35671],[129.20327,35.34769],[129.2033,35.34051],[129.21075,35.33611],[129.21392,35.33081],[129.22976,35.32553],[129.23007,35.31972],[129.23234,35.31586],[129.23798,35.31369],[129.24276,35.30789],[129.25294,35.30869],[129.2544,35.31309],[129.26295,35.31516],[129.26528,35.31911],[129.27713,35.3254],[129.28446,35.32638],[129.28795,35.32322],[129.28685,35.31986],[129.29904,35.31827],[129.30197,35.32769],[129.30453,35.32951],[129.30088,35.33424],[129.29318,35.33595],[129.28917,35.34021],[129.2855,35.3392],[129.27986,35.34151],[129.28377,35.34568],[129.28448,35.35227],[129.28057,35.35611],[129.28351,35.36271],[129.27971,35.36578],[129.27671,35.3724],[129.26827,35.37991],[129.26537,35.38627],[129.25039,35.38376],[129.24131,35.38558],[129.23564,35.38031],[129.2312,35.38161],[129.21736,35.37869],[129.20871,35.38117],[129.20297,35.38787]]]},"properties":{"key":"부산광역시|기장군|장안읍","code":"2671025300"}},{"type":"Feature","geometry":{"type":"Polygon","coordinates":[[[129.23007,35.31972],[129.22976,35.32553],[129.21392,35.33081],[129.21075,35.33611],[129.2033,35.34051],[129.20327,35.34769],[129.20837,35.35671],[129.20479,35.37078],[129.19936,35.37575],[129.19809,35.36922],[129.19358,35.36101],[129.18558,35.35817],[129.1784,35.3516],[129.17453,35.35147],[129.15725,35.359],[129.15279,35.36272],[129.13851,35.36608],[129.13059,35.3643],[129.12956,35.35916],[129.13471,35.35306],[129.12942,35.34852],[129.12824,35.3438],[129.13511,35.34314],[129.14625,35.33633],[129.15123,35.33618],[129.1522,35.32222],[129.15472,35.31757],[129.15405,35.30919],[129.1622,35.31239],[129.16452,35.30781],[129.16947,35.30746],[129.17459,35.30449],[129.18028,35.30521],[129.19443,35.31002],[129.21029,35.30873],[129.21738,35.31567],[129.22336,35.3141],[129.23007,35.31972]]]},"properties":{"key":"부산광역시|기장군|정관읍","code":"2671025600"}},{"type":"Feature","geometry":{"type":"Polygon","coordinates":[[[129.23007,35.31972],[129.22336,35.3141],[129.21738,35.31567],[129.21029,35.30873],[129.19443,35.31002],[129.18028,35.30521],[129.18302,35.29903],[129.17956,35.29128],[129.18187,35.28618],[129.1942,35.28032],[129.19416,35.27411],[129.19115,35.27176],[129.19598,35.26758],[129.20638,35.26918],[129.21013,35.26028],[129.21899,35.25791],[129.22566,35.25149],[129.2351,35.2562],[129.25291,35.25225],[129.25197,35.26021],[129.24421,35.26023],[129.2395,35.25751],[129.2345,35.25934],[129.23612,35.26473],[129.24371,35.26461],[129.24406,35.27086],[129.25291,35.27117],[129.25574,35.27899],[129.26047,35.28139],[129.25753,35.28758],[129.26136,35.29058],[129.26374,35.29606],[129.2606,35.29899],[129.25856,35.30603],[129.26216,35.31037],[129.26295,35.31516],[129.2544,35.31309],[129.25294,35.30869],[129.24276,35.30789],[129.23798,35.31369],[129.23234,35.31586],[129.23007,35.31972]]]},"properties":{"key":"부산광역시|기장군|일광읍","code":"2671025900"}},{"type":"Feature","geometry":{"type":"Polygon","coordinates":[[[129.18028,35.30521],[129.17459,35.30449],[129.16947,35.30746],[129.16452,35.30781],[129.1622,35.31239],[129.15405,35.30919],[129.15472,35.31757],[129.1522,35.32222],[129.15123,35.33618],[129.14625,35.33633],[129.13511,35.34314],[129.12824,35.3438],[129.12593,35.34104],[129.12626,35.33326],[129.12132,35.3294],[129.11848,35.32246],[129.11365,35.31985],[129.11165,35.30877],[129.10892,35.30507],[129.12083,35.30193],[129.12966,35.298],[129.12983,35.29033],[129.12404,35.28057],[129.12543,35.27672],[129.12137,35.26959],[129.12008,35.26031],[129.12638,35.26187],[129.13021,35.26005],[129.14104,35.25922],[129.13924,35.25416],[129.14429,35.25073],[129.14812,35.24727],[129.15496,35.24505],[129.15513,35.23701],[129.16735,35.22968],[129.16951,35.22609],[129.1664,35.22084],[129.1661,35.21911],[129.17498,35.21947],[129.1828,35.22686],[129.18909,35.23112],[129.1905,35.2378],[129.19358,35.24223],[129.19168,35.24737],[129.18739,35.25063],[129.1866,35.25483],[129.18979,35.26397],[129.19598,35.26758],[129.19115,35.27176],[129.19416,35.27411],[129.1942,35.28032],[129.18187,35.28618],[129.17956,35.29128],[129.18302,35.29903],[129.18028,35.30521]]]},"properties":{"key":"부산광역시|기장군|철마면","code":"2671033000"}},{"type":"Feature","geometry":{"type":"Polygon","coordinates":[[[129.15279,35.15735],[129.14464,35.16286],[129.13408,35.16217],[129.1423,35.15445],[129.14637,35.15337],[129.15279,35.15735]]]},"properties":{"key":"부산광역시|해운대구|우3동","code":"2635052500"}},{"type":"Feature","geometry":{"type":"Polygon","coordinates":[[[129.06333,35.14869],[129.06238,35.15061],[129.05701,35.15055],[129.05727,35.14203],[129.06448,35.14139],[129.06333,35.14869]]]},"properties":{"key":"부산광역시|부산진구|범천1동","code":"2623077000"}},{"type":"Feature","geometry":{"type":"Polygon","coordinates":[[[129.05059,35.15701],[129.04941,35.15731],[129.04594,35.15666],[129.04567,35.15291],[129.041,35.14958],[129.03739,35.13941],[129.04089,35.14606],[129.04447,35.14608],[129.05166,35.14236],[129.05727,35.14203],[129.05701,35.15055],[129.05059,35.15701]]]},"properties":{"key":"부산광역시|부산진구|범천2동","code":"2623078000"}},{"type":"Feature","geometry":{"type":"Polygon","coordinates":[[[128.89627,35.089],[128.89532,35.07914],[128.91218,35.07946],[128.91217,35.08937],[128.89627,35.089]]]},"properties":{"key":"부산광역시|강서구|명지2동","code":"2644054500"}},{"type":"Feature","geometry":{"type":"Polygon","coordinates":[[[129.08941,35.23109],[129.08293,35.23429],[129.0661,35.23941],[129.06228,35.23836],[129.05971,35.23002],[129.0602,35.22622],[129.06653,35.2253],[129.07771,35.22627],[129.08726,35.22166],[129.0878,35.22222],[129.08916,35.22651],[129.08941,35.23109]]]},"properties":{"key":"부산광역시|금정구|장전2동","code":"2641061000"}},{"type":"Feature","geometry":{"type":"Polygon","coordinates":[[[128.8926,35.09396],[128.90088,35.11823],[128.90064,35.11926],[128.90179,35.13061],[128.90378,35.13079],[128.89458,35.13701],[128.88815,35.14568],[128.88708,35.15635],[128.89034,35.16435],[128.8802,35.17203],[128.87362,35.17436],[128.87602,35.16565],[128.87926,35.16199],[128.87448,35.1598],[128.87479,35.15173],[128.87045,35.1521],[128.86545,35.15792],[128.86611,35.16684],[128.86054,35.16741],[128.84666,35.16528],[128.84336,35.15799],[128.83616,35.15907],[128.82801,35.15576],[128.81586,35.16038],[128.79362,35.15705],[128.80133,35.14674],[128.80233,35.14315],[128.81545,35.13256],[128.82029,35.13182],[128.8344,35.1263],[128.83851,35.11505],[128.84294,35.11297],[128.8431,35.10913],[128.83666,35.10199],[128.82394,35.10177],[128.82288,35.09692],[128.83222,35.08847],[128.83247,35.08631],[128.83476,35.08025],[128.87195,35.08048],[128.87098,35.08867],[128.86668,35.09774],[128.86874,35.10163],[128.8926,35.09396]]]},"properties":{"key":"부산광역시|강서구|녹산동","code":"2644056000"}}]}