{"type":"FeatureCollection","features":[{"type":"Feature","geometry":{"type":"Polygon","coordinates":[[[128.59981,35.86827],[128.59999,35.86375],[128.60962,35.86184],[128.61317,35.86548],[128.59981,35.86827]]]},"properties":{"key":"대구광역시|중구|삼덕동","code":"2711054500"}},{"type":"Feature","geometry":{"type":"Polygon","coordinates":[[[128.60136,35.8748],[128.59495,35.8753],[128.59347,35.86612],[128.59645,35.86003],[128.60073,35.8605],[128.59999,35.86375],[128.59981,35.86827],[128.60136,35.8748]]]},"properties":{"key":"대구광역시|중구|성내1동","code":"2711056500"}},{"type":"Feature","geometry":{"type":"Polygon","coordinates":[[[128.59495,35.8753],[128.58838,35.87753],[128.58725,35.87006],[128.58261,35.87059],[128.58235,35.86515],[128.59086,35.86611],[128.59347,35.86612],[128.59495,35.8753]]]},"properties":{"key":"대구광역시|중구|성내2동","code":"2711057500"}},{"type":"Feature","geometry":{"type":"Polygon","coordinates":[[[128.58017,35.87908],[128.57794,35.8795],[128.5756,35.87405],[128.57954,35.87277],[128.58261,35.87059],[128.58725,35.87006],[128.58838,35.87753],[128.58017,35.87908]]]},"properties":{"key":"대구광역시|중구|성내3동","code":"2711058500"}},{"type":"Feature","geometry":{"type":"Polygon","coordinates":[[[128.58261,35.87059],[128.57954,35.87277],[128.57938,35.87047],[128.5738,35.86535],[128.5742,35.86268],[128.58172,35.86476],[128.58235,35.86515],[128.58261,35.87059]]]},"properties":{"key":"대구광역시|중구|대신동","code":"2711059500"}},{"type":"Feature","geometry":{"type":"Polygon","coordinates":[[[128.59347,35.86612],[128.59086,35.86611],[128.59038,35.86204],[128.58779,35.85675],[128.59467,35.85658],[128.59645,35.86003],[128.59347,35.86612]]]},"properties":{"key":"대구광역시|중구|남산1동","code":"2711064000"}},{"type":"Feature","geometry":{"type":"Polygon","coordinates":[[[128.59086,35.86611],[128.58235,35.86515],[128.58172,35.86476],[128.58249,35.86221],[128.59038,35.86204],[128.59086,35.86611]]]},"properties":{"key":"대구광역시|중구|남산2동","code":"2711065000"}},{"type":"Feature","geometry":{"type":"Polygon","coordinates":[[[128.59038,35.86204],[128.58249,35.86221],[128.58286,35.85633],[128.58423,35.85643],[128.58779,35.85675],[128.59038,35.86204]]]},"properties":{"key":"대구광역시|중구|남산3동","code":"2711066000"}},{"type":"Feature","geometry":{"type":"Polygon","coordinates":[[[128.58249,35.86221],[128.58172,35.86476],[128.5742,35.86268],[128.57458,35.86006],[128.58286,35.85633],[128.58249,35.86221]]]},"properties":{"key":"대구광역시|중구|남산4동","code":"2711067000"}},{"type":"Feature","geometry":{"type":"Polygon","coordinates":[[[128.60962,35.86184],[128.59999,35.86375],[128.60073,35.8605],[128.60245,35.85527],[128.60847,35.85495],[128.60914,35.86143],[128.60962,35.86184]]]},"properties":{"key":"대구광역시|중구|대봉1동","code":"2711068000"}},{"type":"Feature","geometry":{"type":"Polygon","coordinates":[[[128.60245,35.85527],[128.60073,35.8605],[128.59645,35.86003],[128.59467,35.85658],[128.59472,35.85657],[128.60245,35.85527]]]},"properties":{"key":"대구광역시|중구|대봉2동","code":"2711069000"}},{"type":"Feature","geometry":{"type":"Polygon","coordinates":[[[128.61474,35.86818],[128.61032,35.8749],[128.60136,35.8748],[128.59981,35.86827],[128.61317,35.86548],[128.61457,35.86796],[128.61474,35.86818]]]},"properties":{"key":"대구광역시|중구|동인동","code":"2711051700"}},{"type":"Feature","geometry":{"type":"Polygon","coordinates":[[[128.62313,35.88312],[128.61989,35.89089],[128.61703,35.88879],[128.61439,35.88506],[128.61209,35.88179],[128.61408,35.88117],[128.62313,35.88312]]]},"properties":{"key":"대구광역시|동구|신암1동","code":"2714051000"}},{"type":"Feature","geometry":{"type":"Polygon","coordinates":[[[128.61408,35.88117],[128.61209,35.88179],[128.60677,35.8766],[128.61032,35.8749],[128.61658,35.87653],[128.61408,35.88117]]]},"properties":{"key":"대구광역시|동구|신암2동","code":"2714052000"}},{"type":"Feature","geometry":{"type":"Polygon","coordinates":[[[128.62698,35.87798],[128.62313,35.88312],[128.61408,35.88117],[128.61658,35.87653],[128.62666,35.87755],[128.62698,35.87798]]]},"properties":{"key":"대구광역시|동구|신암3동","code":"2714053000"}},{"type":"Feature","geometry":{"type":"Polygon","coordinates":[[[128.62806,35.88963],[128.62224,35.89247],[128.61989,35.89089],[128.62313,35.88312],[128.62698,35.87798],[128.63045,35.87849],[128.6363,35.88238],[128.63309,35.88565],[128.62806,35.88963]]]},"properties":{"key":"대구광역시|동구|신암4동","code":"2714054000"}},{"type":"Feature","geometry":{"type":"Polygon","coordinates":[[[128.64164,35.8886],[128.63192,35.89344],[128.62806,35.88963],[128.63309,35.88565],[128.64164,35.8886]]]},"properties":{"key":"대구광역시|동구|신암5동","code":"2714054100"}},{"type":"Feature","geometry":{"type":"Polygon","coordinates":[[[128.61859,35.86781],[128.62003,35.87017],[128.61658,35.87653],[128.61032,35.8749],[128.61474,35.86818],[128.61859,35.86781]]]},"properties":{"key":"대구광역시|동구|신천1·2동","code":"2714055500"}},{"type":"Feature","geometry":{"type":"Polygon","coordinates":[[[128.6271,35.86713],[128.62534,35.87473],[128.62666,35.87755],[128.61658,35.87653],[128.62003,35.87017],[128.61859,35.86781],[128.6271,35.86713]]]},"properties":{"key":"대구광역시|동구|신천3동","code":"2714057000"}},{"type":"Feature","geometry":{"type":"Polygon","coordinates":[[[128.63521,35.87213],[128.63045,35.87849],[128.62698,35.87798],[128.62666,35.87755],[128.62534,35.87473],[128.6271,35.86713],[128.62985,35.86682],[128.63521,35.87213]]]},"properties":{"key":"대구광역시|동구|신천4동","code":"2714058000"}},{"type":"Feature","geometry":{"type":"Polygon","coordinates":[[[128.65424,35.88187],[128.64196,35.88909],[128.64164,35.8886],[128.63309,35.88565],[128.6363,35.88238],[128.64215,35.88038],[128.64491,35.87662],[128.64952,35.87841],[128.65605,35.8761],[128.66022,35.87684],[128.65424,35.88187]]]},"properties":{"key":"대구광역시|동구|효목1동","code":"2714059000"}},{"type":"Feature","geometry":{"type":"Polygon","coordinates":[[[128.64491,35.87662],[128.64215,35.88038],[128.6363,35.88238],[128.63045,35.87849],[128.63521,35.87213],[128.64491,35.87662]]]},"properties":{"key":"대구광역시|동구|효목2동","code":"2714060000"}},{"type":"Feature","geometry":{"type":"Polygon","coordinates":[[[128.74108,35.93769],[128.70575,35.94388],[128.69941,35.94285],[128.69505,35.94637],[128.68689,35.94539],[128.68208,35.94737],[128.66923,35.94454],[128.66094,35.93409],[128.66055,35.92965],[128.65702,35.92787],[128.6557,35.92008],[128.64262,35.90901],[128.65126,35.90888],[128.65269,35.90759],[128.65844,35.90769],[128.65878,35.90324],[128.66988,35.90332],[128.67238,35.91298],[128.68577,35.92061],[128.69896,35.91845],[128.70288,35.91416],[128.711,35.92203],[128.71702,35.92408],[128.71938,35.92933],[128.73788,35.92983],[128.74108,35.93769]]]},"properties":{"key":"대구광역시|동구|도평동","code":"2714061500"}},{"type":"Feature","geometry":{"type":"Polygon","coordinates":[[[128.66094,35.93409],[128.65426,35.93789],[128.64284,35.93837],[128.63826,35.93371],[128.63172,35.93626],[128.6252,35.93584],[128.63054,35.92862],[128.63205,35.92596],[128.63288,35.91566],[128.62758,35.90592],[128.6283,35.90034],[128.63599,35.9016],[128.6404,35.90657],[128.65126,35.90888],[128.64262,35.90901],[128.6557,35.92008],[128.65702,35.92787],[128.66055,35.92965],[128.66094,35.93409]]]},"properties":{"key":"대구광역시|동구|불로·봉무동","code":"2714062000"}},{"type":"Feature","geometry":{"type":"Polygon","coordinates":[[[128.65269,35.90759],[128.65126,35.90888],[128.6404,35.90657],[128.63599,35.9016],[128.6283,35.90034],[128.63192,35.89344],[128.64164,35.8886],[128.64196,35.88909],[128.64765,35.9018],[128.65269,35.90759]]]},"properties":{"key":"대구광역시|동구|지저동","code":"2714064000"}},{"type":"Feature","geometry":{"type":"Polygon","coordinates":[[[128.66988,35.90332],[128.65878,35.90324],[128.65844,35.90769],[128.65269,35.90759],[128.64765,35.9018],[128.64196,35.88909],[128.65424,35.88187],[128.65839,35.88371],[128.66528,35.88971],[128.66894,35.89597],[128.66988,35.90332]]]},"properties":{"key":"대구광역시|동구|동촌동","code":"2714065500"}},{"type":"Feature","geometry":{"type":"Polygon","coordinates":[[[128.67501,35.8776],[128.65839,35.88371],[128.65424,35.88187],[128.66022,35.87684],[128.66269,35.87323],[128.67333,35.8739],[128.67501,35.8776]]]},"properties":{"key":"대구광역시|동구|방촌동","code":"2714067000"}},{"type":"Feature","geometry":{"type":"Polygon","coordinates":[[[128.70288,35.91416],[128.69896,35.91845],[128.68577,35.92061],[128.67238,35.91298],[128.66988,35.90332],[128.66894,35.89597],[128.66528,35.88971],[128.65839,35.88371],[128.67501,35.8776],[128.68474,35.87781],[128.68668,35.88235],[128.69124,35.88012],[128.69916,35.88069],[128.69815,35.88678],[128.70128,35.88964],[128.7001,35.89572],[128.70705,35.9049],[128.70787,35.9092],[128.70288,35.91416]]]},"properties":{"key":"대구광역시|동구|해안동","code":"2714068500"}},{"type":"Feature","geometry":{"type":"Polygon","coordinates":[[[128.69525,36.0163],[128.69041,36.01461],[128.66799,36.01414],[128.66422,36.01061],[128.65509,36.00973],[128.65129,36.00765],[128.64061,36.01055],[128.63883,36.00922],[128.62466,36.0077],[128.61724,36.00511],[128.60384,35.98853],[128.61323,35.98292],[128.61951,35.9742],[128.6179,35.97084],[128.62624,35.95844],[128.6234,35.94731],[128.62702,35.9457],[128.6252,35.93584],[128.63172,35.93626],[128.63826,35.93371],[128.64284,35.93837],[128.65426,35.93789],[128.66094,35.93409],[128.66923,35.94454],[128.68208,35.94737],[128.68689,35.94539],[128.69505,35.94637],[128.69941,35.94285],[128.70575,35.94388],[128.74108,35.93769],[128.74557,35.94437],[128.74179,35.94797],[128.73903,35.95532],[128.74213,35.95979],[128.74606,35.97081],[128.74495,35.97398],[128.73884,35.97631],[128.73139,35.98713],[128.73516,35.9929],[128.72895,36.0016],[128.72328,36.00595],[128.70052,36.01121],[128.69525,36.0163]]]},"properties":{"key":"대구광역시|동구|공산동","code":"2714076000"}},{"type":"Feature","geometry":{"type":"Polygon","coordinates":[[[128.70871,35.87293],[128.69749,35.87477],[128.69153,35.87072],[128.68013,35.86679],[128.68224,35.86047],[128.69188,35.85816],[128.69986,35.85785],[128.70403,35.85768],[128.70769,35.86503],[128.70871,35.87293]]]},"properties":{"key":"대구광역시|동구|안심1동","code":"2714072000"}},{"type":"Feature","geometry":{"type":"Polygon","coordinates":[[[128.73788,35.92983],[128.71938,35.92933],[128.71702,35.92408],[128.711,35.92203],[128.70288,35.91416],[128.70787,35.9092],[128.70705,35.9049],[128.7001,35.89572],[128.70128,35.88964],[128.69815,35.88678],[128.69916,35.88069],[128.69124,35.88012],[128.68668,35.88235],[128.68474,35.87781],[128.67501,35.8776],[128.67333,35.8739],[128.67606,35.87334],[128.68013,35.86679],[128.69153,35.87072],[128.69749,35.87477],[128.70871,35.87293],[128.70801,35.87755],[128.70782,35.89097],[128.71271,35.89324],[128.71785,35.90061],[128.72279,35.90018],[128.72668,35.90336],[128.73357,35.90525],[128.73765,35.90891],[128.74446,35.92192],[128.73788,35.92983]]]},"properties":{"key":"대구광역시|동구|안심2동","code":"2714073000"}},{"type":"Feature","geometry":{"type":"Polygon","coordinates":[[[128.70801,35.87755],[128.70871,35.87293],[128.70769,35.86503],[128.70403,35.85768],[128.71496,35.86239],[128.7177,35.86587],[128.73327,35.87116],[128.73427,35.87484],[128.70801,35.87755]]]},"properties":{"key":"대구광역시|동구|안심4동","code":"2714074700"}},{"type":"Feature","geometry":{"type":"Polygon","coordinates":[[[128.56771,35.86108],[128.56556,35.86622],[128.5638,35.86578],[128.55616,35.86357],[128.55725,35.85784],[128.55847,35.85825],[128.56771,35.86108]]]},"properties":{"key":"대구광역시|서구|내당1동","code":"2717051000"}},{"type":"Feature","geometry":{"type":"Polygon","coordinates":[[[128.57938,35.87047],[128.57882,35.87078],[128.56796,35.86671],[128.56556,35.86622],[128.56771,35.86108],[128.5742,35.86268],[128.5738,35.86535],[128.57938,35.87047]]]},"properties":{"key":"대구광역시|서구|내당2·3동","code":"2717052500"}},{"type":"Feature","geometry":{"type":"Polygon","coordinates":[[[128.55725,35.85784],[128.55616,35.86357],[128.55345,35.8631],[128.54365,35.86007],[128.54508,35.85607],[128.54807,35.85457],[128.54913,35.85485],[128.55725,35.85784]]]},"properties":{"key":"대구광역시|서구|내당4동","code":"2717054000"}},{"type":"Feature","geometry":{"type":"Polygon","coordinates":[[[128.57269,35.8829],[128.56617,35.88416],[128.55802,35.88139],[128.56314,35.88058],[128.56813,35.8796],[128.57145,35.87976],[128.57269,35.8829]]]},"properties":{"key":"대구광역시|서구|비산1동","code":"2717055000"}},{"type":"Feature","geometry":{"type":"Polygon","coordinates":[[[128.57794,35.8795],[128.57269,35.8829],[128.57145,35.87976],[128.57111,35.87245],[128.57882,35.87078],[128.57938,35.87047],[128.57954,35.87277],[128.5756,35.87405],[128.57794,35.8795]]]},"properties":{"key":"대구광역시|서구|비산2·3동","code":"2717056500"}},{"type":"Feature","geometry":{"type":"Polygon","coordinates":[[[128.57882,35.87078],[128.57111,35.87245],[128.56768,35.8722],[128.56796,35.86671],[128.57882,35.87078]]]},"properties":{"key":"대구광역시|서구|비산4동","code":"2717058000"}},{"type":"Feature","geometry":{"type":"Polygon","coordinates":[[[128.56853,35.88881],[128.56297,35.88962],[128.56617,35.88416],[128.57269,35.8829],[128.56853,35.88881]]]},"properties":{"key":"대구광역시|서구|비산5동","code":"2717059000"}},{"type":"Feature","geometry":{"type":"Polygon","coordinates":[[[128.57111,35.87245],[128.57145,35.87976],[128.56813,35.8796],[128.56716,35.87218],[128.56768,35.8722],[128.57111,35.87245]]]},"properties":{"key":"대구광역시|서구|비산6동","code":"2717060000"}},{"type":"Feature","geometry":{"type":"Polygon","coordinates":[[[128.55203,35.89417],[128.54275,35.89246],[128.53876,35.88931],[128.53118,35.88763],[128.53651,35.88415],[128.54264,35.88348],[128.55475,35.88264],[128.55501,35.8809],[128.55802,35.88139],[128.56617,35.88416],[128.56297,35.88962],[128.55509,35.89077],[128.55203,35.89417]]]},"properties":{"key":"대구광역시|서구|비산7동","code":"2717061000"}},{"type":"Feature","geometry":{"type":"Polygon","coordinates":[[[128.56813,35.8796],[128.56314,35.88058],[128.56289,35.87202],[128.56716,35.87218],[128.56813,35.8796]]]},"properties":{"key":"대구광역시|서구|평리1동","code":"2717062000"}},{"type":"Feature","geometry":{"type":"Polygon","coordinates":[[[128.56796,35.86671],[128.56768,35.8722],[128.56716,35.87218],[128.56289,35.87202],[128.5638,35.86578],[128.56556,35.86622],[128.56796,35.86671]]]},"properties":{"key":"대구광역시|서구|평리2동","code":"2717063000"}},{"type":"Feature","geometry":{"type":"Polygon","coordinates":[[[128.56314,35.88058],[128.55802,35.88139],[128.55501,35.8809],[128.55491,35.87556],[128.55497,35.8706],[128.56289,35.87202],[128.56314,35.88058]]]},"properties":{"key":"대구광역시|서구|평리3동","code":"2717064000"}},{"type":"Feature","geometry":{"type":"Polygon","coordinates":[[[128.5638,35.86578],[128.56289,35.87202],[128.55497,35.8706],[128.55215,35.87007],[128.55345,35.8631],[128.55616,35.86357],[128.5638,35.86578]]]},"properties":{"key":"대구광역시|서구|평리4동","code":"2717065000"}},{"type":"Feature","geometry":{"type":"Polygon","coordinates":[[[128.55497,35.8706],[128.55491,35.87556],[128.54686,35.87398],[128.54662,35.86896],[128.55215,35.87007],[128.55497,35.8706]]]},"properties":{"key":"대구광역시|서구|평리5동","code":"2717066000"}},{"type":"Feature","geometry":{"type":"Polygon","coordinates":[[[128.55501,35.8809],[128.55475,35.88264],[128.54264,35.88348],[128.54715,35.8789],[128.54686,35.87398],[128.55491,35.87556],[128.55501,35.8809]]]},"properties":{"key":"대구광역시|서구|평리6동","code":"2717066100"}},{"type":"Feature","geometry":{"type":"Polygon","coordinates":[[[128.53118,35.88763],[128.52599,35.8889],[128.51723,35.8828],[128.52121,35.87307],[128.51915,35.86958],[128.52488,35.86729],[128.5267,35.86392],[128.534,35.86233],[128.5333,35.8591],[128.53989,35.85907],[128.54508,35.85607],[128.54365,35.86007],[128.55345,35.8631],[128.55215,35.87007],[128.54662,35.86896],[128.54686,35.87398],[128.54715,35.8789],[128.54264,35.88348],[128.53651,35.88415],[128.53118,35.88763]]]},"properties":{"key":"대구광역시|서구|상중이동","code":"2717067500"}},{"type":"Feature","geometry":{"type":"Polygon","coordinates":[[[128.58208,35.88513],[128.56853,35.88881],[128.57269,35.8829],[128.57794,35.8795],[128.58017,35.87908],[128.58208,35.88513]]]},"properties":{"key":"대구광역시|서구|원대동","code":"2717069500"}},{"type":"Feature","geometry":{"type":"Polygon","coordinates":[[[128.60245,35.85527],[128.59472,35.85657],[128.59578,35.84987],[128.60647,35.84503],[128.60734,35.84937],[128.60847,35.85495],[128.60245,35.85527]]]},"properties":{"key":"대구광역시|남구|이천동","code":"2720051500"}},{"type":"Feature","geometry":{"type":"Polygon","coordinates":[[[128.60647,35.84503],[128.59578,35.84987],[128.59056,35.8478],[128.59053,35.84532],[128.60095,35.84467],[128.60667,35.84381],[128.60647,35.84503]]]},"properties":{"key":"대구광역시|남구|봉덕1동","code":"2720053000"}},{"type":"Feature","geometry":{"type":"Polygon","coordinates":[[[128.60667,35.84381],[128.60095,35.84467],[128.60188,35.83399],[128.59741,35.82628],[128.59337,35.82329],[128.58404,35.81086],[128.58562,35.80771],[128.59071,35.80977],[128.59383,35.81306],[128.60109,35.81527],[128.60746,35.82751],[128.60684,35.8391],[128.60667,35.84381]]]},"properties":{"key":"대구광역시|남구|봉덕2동","code":"2720054000"}},{"type":"Feature","geometry":{"type":"Polygon","coordinates":[[[128.60095,35.84467],[128.59053,35.84532],[128.59094,35.84131],[128.58281,35.84162],[128.58985,35.82775],[128.58675,35.82347],[128.58323,35.81387],[128.58404,35.81086],[128.59337,35.82329],[128.59741,35.82628],[128.60188,35.83399],[128.60095,35.84467]]]},"properties":{"key":"대구광역시|남구|봉덕3동","code":"2720055000"}},{"type":"Feature","geometry":{"type":"Polygon","coordinates":[[[128.58009,35.84675],[128.57851,35.84678],[128.56981,35.84405],[128.57676,35.83908],[128.58039,35.8405],[128.58009,35.84675]]]},"properties":{"key":"대구광역시|남구|대명1동","code":"2720056000"}},{"type":"Feature","geometry":{"type":"Polygon","coordinates":[[[128.59467,35.85658],[128.58779,35.85675],[128.58423,35.85643],[128.58349,35.84759],[128.59056,35.8478],[128.59578,35.84987],[128.59472,35.85657],[128.59467,35.85658]]]},"properties":{"key":"대구광역시|남구|대명2동","code":"2720057100"}},{"type":"Feature","geometry":{"type":"Polygon","coordinates":[[[128.58286,35.85633],[128.57458,35.86006],[128.57362,35.85116],[128.57851,35.84678],[128.58009,35.84675],[128.58349,35.84759],[128.58423,35.85643],[128.58286,35.85633]]]},"properties":{"key":"대구광역시|남구|대명3동","code":"2720058600"}},{"type":"Feature","geometry":{"type":"Polygon","coordinates":[[[128.57851,35.84678],[128.57362,35.85116],[128.5734,35.85099],[128.56091,35.84199],[128.56981,35.84405],[128.57851,35.84678]]]},"properties":{"key":"대구광역시|남구|대명4동","code":"2720059000"}},{"type":"Feature","geometry":{"type":"Polygon","coordinates":[[[128.59056,35.8478],[128.58349,35.84759],[128.58009,35.84675],[128.58039,35.8405],[128.58281,35.84162],[128.59094,35.84131],[128.59053,35.84532],[128.59056,35.8478]]]},"properties":{"key":"대구광역시|남구|대명5동","code":"2720060000"}},{"type":"Feature","geometry":{"type":"Polygon","coordinates":[[[128.57141,35.8394],[128.56081,35.83837],[128.56485,35.8349],[128.56824,35.82435],[128.57114,35.81947],[128.5774,35.81813],[128.57782,35.82055],[128.57359,35.83036],[128.57138,35.83143],[128.57141,35.8394]]]},"properties":{"key":"대구광역시|남구|대명6동","code":"2720061000"}},{"type":"Feature","geometry":{"type":"Polygon","coordinates":[[[128.58323,35.81387],[128.58675,35.82347],[128.58985,35.82775],[128.58281,35.84162],[128.58039,35.8405],[128.57676,35.83908],[128.57141,35.8394],[128.57138,35.83143],[128.57359,35.83036],[128.57782,35.82055],[128.5774,35.81813],[128.5809,35.81149],[128.58323,35.81387]]]},"properties":{"key":"대구광역시|남구|대명9동","code":"2720064000"}},{"type":"Feature","geometry":{"type":"Polygon","coordinates":[[[128.57676,35.83908],[128.56981,35.84405],[128.56091,35.84199],[128.55746,35.83759],[128.56081,35.83837],[128.57141,35.8394],[128.57676,35.83908]]]},"properties":{"key":"대구광역시|남구|대명10동","code":"2720065000"}},{"type":"Feature","geometry":{"type":"Polygon","coordinates":[[[128.56824,35.82435],[128.56485,35.8349],[128.56081,35.83837],[128.55746,35.83759],[128.55542,35.83446],[128.56169,35.8272],[128.56824,35.82435]]]},"properties":{"key":"대구광역시|남구|대명11동","code":"2720066000"}},{"type":"Feature","geometry":{"type":"Polygon","coordinates":[[[128.58462,35.88459],[128.58208,35.88513],[128.58017,35.87908],[128.58838,35.87753],[128.59024,35.8834],[128.58462,35.88459]]]},"properties":{"key":"대구광역시|북구|고성동","code":"2723051000"}},{"type":"Feature","geometry":{"type":"Polygon","coordinates":[[[128.59092,35.8857],[128.58462,35.88459],[128.59024,35.8834],[128.58838,35.87753],[128.59495,35.8753],[128.60136,35.8748],[128.61032,35.8749],[128.60677,35.8766],[128.60312,35.88067],[128.60215,35.88585],[128.5972,35.88175],[128.59092,35.8857]]]},"properties":{"key":"대구광역시|북구|칠성동","code":"2723052600"}},{"type":"Feature","geometry":{"type":"Polygon","coordinates":[[[128.59317,35.90575],[128.58002,35.90611],[128.57882,35.90381],[128.57756,35.89325],[128.58356,35.88995],[128.58808,35.90053],[128.59306,35.90103],[128.59358,35.90114],[128.59317,35.90575]]]},"properties":{"key":"대구광역시|북구|침산1동","code":"2723055000"}},{"type":"Feature","geometry":{"type":"Polygon","coordinates":[[[128.59933,35.89052],[128.59338,35.89314],[128.58976,35.89191],[128.59092,35.8857],[128.5972,35.88175],[128.60215,35.88585],[128.60204,35.88787],[128.59933,35.89052]]]},"properties":{"key":"대구광역시|북구|침산2동","code":"2723056000"}},{"type":"Feature","geometry":{"type":"Polygon","coordinates":[[[128.59338,35.89314],[128.59306,35.90103],[128.58808,35.90053],[128.58356,35.88995],[128.58208,35.88513],[128.58462,35.88459],[128.59092,35.8857],[128.58976,35.89191],[128.59338,35.89314]]]},"properties":{"key":"대구광역시|북구|침산3동","code":"2723057000"}},{"type":"Feature","geometry":{"type":"Polygon","coordinates":[[[128.6062,35.90213],[128.59358,35.90114],[128.59306,35.90103],[128.59338,35.89314],[128.59933,35.89052],[128.59982,35.89643],[128.6062,35.90213]]]},"properties":{"key":"대구광역시|북구|산격1동","code":"2723061000"}},{"type":"Feature","geometry":{"type":"Polygon","coordinates":[[[128.60705,35.91563],[128.60204,35.91239],[128.60041,35.90734],[128.59317,35.90575],[128.59358,35.90114],[128.6062,35.90213],[128.60922,35.90034],[128.61509,35.89776],[128.61911,35.90615],[128.61462,35.9126],[128.60705,35.91563]]]},"properties":{"key":"대구광역시|북구|산격2동","code":"2723062000"}},{"type":"Feature","geometry":{"type":"Polygon","coordinates":[[[128.61509,35.89776],[128.60922,35.90034],[128.60529,35.89683],[128.60387,35.88843],[128.61439,35.88506],[128.61703,35.88879],[128.61316,35.89592],[128.61513,35.89761],[128.61509,35.89776]]]},"properties":{"key":"대구광역시|북구|산격3동","code":"2723063000"}},{"type":"Feature","geometry":{"type":"Polygon","coordinates":[[[128.60922,35.90034],[128.6062,35.90213],[128.59982,35.89643],[128.59933,35.89052],[128.60204,35.88787],[128.60387,35.88843],[128.60529,35.89683],[128.60922,35.90034]]]},"properties":{"key":"대구광역시|북구|산격4동","code":"2723063100"}},{"type":"Feature","geometry":{"type":"Polygon","coordinates":[[[128.62224,35.89247],[128.61513,35.89761],[128.61316,35.89592],[128.61703,35.88879],[128.61989,35.89089],[128.62224,35.89247]]]},"properties":{"key":"대구광역시|북구|복현1동","code":"2723067100"}},{"type":"Feature","geometry":{"type":"Polygon","coordinates":[[[128.62758,35.90592],[128.61911,35.90615],[128.61509,35.89776],[128.61513,35.89761],[128.62224,35.89247],[128.62806,35.88963],[128.63192,35.89344],[128.6283,35.90034],[128.62758,35.90592]]]},"properties":{"key":"대구광역시|북구|복현2동","code":"2723067200"}},{"type":"Feature","geometry":{"type":"Polygon","coordinates":[[[128.62758,35.90592],[128.63288,35.91566],[128.63205,35.92596],[128.63054,35.92862],[128.6239,35.92793],[128.61111,35.92027],[128.60705,35.91563],[128.61462,35.9126],[128.61911,35.90615],[128.62758,35.90592]]]},"properties":{"key":"대구광역시|북구|검단동","code":"2723068000"}},{"type":"Feature","geometry":{"type":"Polygon","coordinates":[[[128.6252,35.93584],[128.62702,35.9457],[128.6234,35.94731],[128.62624,35.95844],[128.6179,35.97084],[128.61951,35.9742],[128.61323,35.98292],[128.60384,35.98853],[128.60302,35.98616],[128.60238,35.97613],[128.60338,35.96547],[128.59958,35.9575],[128.60596,35.95283],[128.60436,35.94577],[128.59823,35.94527],[128.59232,35.94012],[128.58532,35.93771],[128.58161,35.93399],[128.57283,35.92495],[128.57019,35.9257],[128.56832,35.91026],[128.57281,35.90368],[128.57882,35.90381],[128.58002,35.90611],[128.59317,35.90575],[128.60041,35.90734],[128.60204,35.91239],[128.60705,35.91563],[128.61111,35.92027],[128.6239,35.92793],[128.63054,35.92862],[128.6252,35.93584]]]},"properties":{"key":"대구광역시|북구|무태조야동","code":"2723069500"}},{"type":"Feature","geometry":{"type":"Polygon","coordinates":[[[128.55416,35.9321],[128.54851,35.93296],[128.5485,35.93287],[128.54645,35.92029],[128.54293,35.91365],[128.54748,35.90827],[128.55225,35.91053],[128.55877,35.91821],[128.55668,35.92268],[128.55063,35.92531],[128.55456,35.93206],[128.55416,35.9321]]]},"properties":{"key":"대구광역시|북구|태전2동","code":"2723073500"}},{"type":"Feature","geometry":{"type":"Polygon","coordinates":[[[128.57019,35.9257],[128.55877,35.91821],[128.55225,35.91053],[128.54748,35.90827],[128.54293,35.91365],[128.53734,35.91724],[128.53429,35.9254],[128.52966,35.92358],[128.52586,35.92235],[128.5233,35.91775],[128.51789,35.91324],[128.51128,35.91065],[128.50517,35.903],[128.50415,35.89059],[128.51221,35.89309],[128.52599,35.8889],[128.53118,35.88763],[128.53876,35.88931],[128.54275,35.89246],[128.55203,35.89417],[128.56094,35.89696],[128.57281,35.90368],[128.56832,35.91026],[128.57019,35.9257]]]},"properties":{"key":"대구광역시|북구|관문동","code":"2723071500"}},{"type":"Feature","geometry":{"type":"Polygon","coordinates":[[[128.55285,35.96074],[128.54615,35.96599],[128.54235,35.97475],[128.53688,35.97799],[128.52879,35.98045],[128.52701,35.97583],[128.53045,35.96249],[128.53463,35.95844],[128.54239,35.95705],[128.54559,35.9511],[128.5478,35.94127],[128.55012,35.94026],[128.54851,35.93296],[128.55416,35.9321],[128.55731,35.9397],[128.55505,35.94612],[128.55779,35.9493],[128.55285,35.96074]]]},"properties":{"key":"대구광역시|북구|읍내동","code":"2723077000"}},{"type":"Feature","geometry":{"type":"Polygon","coordinates":[[[128.54851,35.93296],[128.55012,35.94026],[128.5478,35.94127],[128.54559,35.9511],[128.54239,35.95705],[128.53463,35.95844],[128.53268,35.95215],[128.53506,35.93875],[128.5338,35.93466],[128.5485,35.93287],[128.54851,35.93296]]]},"properties":{"key":"대구광역시|북구|관음동","code":"2723075000"}},{"type":"Feature","geometry":{"type":"Polygon","coordinates":[[[128.5485,35.93287],[128.5338,35.93466],[128.52952,35.92841],[128.52966,35.92358],[128.53429,35.9254],[128.53734,35.91724],[128.54293,35.91365],[128.54645,35.92029],[128.5485,35.93287]]]},"properties":{"key":"대구광역시|북구|태전1동","code":"2723072500"}},{"type":"Feature","geometry":{"type":"Polygon","coordinates":[[[128.58161,35.93399],[128.57822,35.93802],[128.57949,35.94542],[128.57333,35.94316],[128.56387,35.94415],[128.56142,35.93147],[128.55456,35.93206],[128.55063,35.92531],[128.55668,35.92268],[128.55877,35.91821],[128.57019,35.9257],[128.57283,35.92495],[128.58161,35.93399]]]},"properties":{"key":"대구광역시|북구|구암동","code":"2723074500"}},{"type":"Feature","geometry":{"type":"Polygon","coordinates":[[[128.58356,35.88995],[128.57756,35.89325],[128.57882,35.90381],[128.57281,35.90368],[128.56094,35.89696],[128.55203,35.89417],[128.55509,35.89077],[128.56297,35.88962],[128.56853,35.88881],[128.58208,35.88513],[128.58356,35.88995]]]},"properties":{"key":"대구광역시|북구|노원동","code":"2723079000"}},{"type":"Feature","geometry":{"type":"Polygon","coordinates":[[[128.56387,35.94415],[128.55505,35.94612],[128.55731,35.9397],[128.55416,35.9321],[128.55456,35.93206],[128.56142,35.93147],[128.56387,35.94415]]]},"properties":{"key":"대구광역시|북구|동천동","code":"2723078000"}},{"type":"Feature","geometry":{"type":"Polygon","coordinates":[[[128.58161,35.93399],[128.58532,35.93771],[128.59232,35.94012],[128.59823,35.94527],[128.60436,35.94577],[128.60596,35.95283],[128.59958,35.9575],[128.60338,35.96547],[128.60238,35.97613],[128.60302,35.98616],[128.59364,35.98276],[128.59092,35.97911],[128.58318,35.97735],[128.57196,35.97771],[128.56417,35.97287],[128.55624,35.97059],[128.55603,35.96571],[128.55285,35.96074],[128.55779,35.9493],[128.55505,35.94612],[128.56387,35.94415],[128.57333,35.94316],[128.57949,35.94542],[128.57822,35.93802],[128.58161,35.93399]]]},"properties":{"key":"대구광역시|북구|국우동","code":"2723080000"}},{"type":"Feature","geometry":{"type":"Polygon","coordinates":[[[128.61439,35.88506],[128.60387,35.88843],[128.60204,35.88787],[128.60215,35.88585],[128.60312,35.88067],[128.60677,35.8766],[128.61209,35.88179],[128.61439,35.88506]]]},"properties":{"key":"대구광역시|북구|대현동","code":"2723064500"}},{"type":"Feature","geometry":{"type":"Polygon","coordinates":[[[128.62245,35.85955],[128.62145,35.85963],[128.62065,35.85065],[128.63008,35.8473],[128.63306,35.85053],[128.63254,35.85893],[128.62657,35.85939],[128.62245,35.85955]]]},"properties":{"key":"대구광역시|수성구|범어1동","code":"2726051000"}},{"type":"Feature","geometry":{"type":"Polygon","coordinates":[[[128.63905,35.86625],[128.62985,35.86682],[128.6271,35.86713],[128.62657,35.85939],[128.63254,35.85893],[128.64041,35.859],[128.63905,35.86625]]]},"properties":{"key":"대구광역시|수성구|범어2동","code":"2726052000"}},{"type":"Feature","geometry":{"type":"Polygon","coordinates":[[[128.61859,35.86781],[128.61474,35.86818],[128.61457,35.86796],[128.62228,35.86225],[128.62245,35.85955],[128.62657,35.85939],[128.6271,35.86713],[128.61859,35.86781]]]},"properties":{"key":"대구광역시|수성구|범어3동","code":"2726053000"}},{"type":"Feature","geometry":{"type":"Polygon","coordinates":[[[128.64336,35.84805],[128.64475,35.8558],[128.64279,35.85902],[128.64041,35.859],[128.63254,35.85893],[128.63306,35.85053],[128.63936,35.84709],[128.64336,35.84805]]]},"properties":{"key":"대구광역시|수성구|범어4동","code":"2726054000"}},{"type":"Feature","geometry":{"type":"Polygon","coordinates":[[[128.66022,35.87684],[128.65605,35.8761],[128.64952,35.87841],[128.64491,35.87662],[128.63521,35.87213],[128.62985,35.86682],[128.63905,35.86625],[128.64898,35.87009],[128.65004,35.86574],[128.6622,35.86591],[128.66269,35.87323],[128.66022,35.87684]]]},"properties":{"key":"대구광역시|수성구|만촌1동","code":"2726055000"}},{"type":"Feature","geometry":{"type":"Polygon","coordinates":[[[128.6622,35.86591],[128.65004,35.86574],[128.64898,35.87009],[128.63905,35.86625],[128.64041,35.859],[128.64279,35.85902],[128.64814,35.85801],[128.66077,35.85299],[128.65702,35.8606],[128.6622,35.86591]]]},"properties":{"key":"대구광역시|수성구|만촌2동","code":"2726056000"}},{"type":"Feature","geometry":{"type":"Polygon","coordinates":[[[128.66077,35.85299],[128.64814,35.85801],[128.64279,35.85902],[128.64475,35.8558],[128.64336,35.84805],[128.64651,35.8415],[128.65077,35.84297],[128.65864,35.84898],[128.66077,35.85299]]]},"properties":{"key":"대구광역시|수성구|만촌3동","code":"2726056100"}},{"type":"Feature","geometry":{"type":"Polygon","coordinates":[[[128.61406,35.85997],[128.60914,35.86143],[128.60847,35.85495],[128.60734,35.84937],[128.61329,35.85112],[128.61406,35.85997]]]},"properties":{"key":"대구광역시|수성구|수성1가동","code":"2726057000"}},{"type":"Feature","geometry":{"type":"Polygon","coordinates":[[[128.62145,35.85963],[128.61406,35.85997],[128.61329,35.85112],[128.61685,35.85091],[128.62065,35.85065],[128.62145,35.85963]]]},"properties":{"key":"대구광역시|수성구|수성2·3가동","code":"2726058000"}},{"type":"Feature","geometry":{"type":"Polygon","coordinates":[[[128.62245,35.85955],[128.62228,35.86225],[128.61457,35.86796],[128.61317,35.86548],[128.60962,35.86184],[128.60914,35.86143],[128.61406,35.85997],[128.62145,35.85963],[128.62245,35.85955]]]},"properties":{"key":"대구광역시|수성구|수성4가동","code":"2726059000"}},{"type":"Feature","geometry":{"type":"Polygon","coordinates":[[[128.64336,35.84805],[128.63936,35.84709],[128.63306,35.85053],[128.63008,35.8473],[128.62721,35.83915],[128.63196,35.8343],[128.63615,35.83558],[128.64056,35.83034],[128.64762,35.83642],[128.64651,35.8415],[128.64336,35.84805]]]},"properties":{"key":"대구광역시|수성구|황금1동","code":"2726060100"}},{"type":"Feature","geometry":{"type":"Polygon","coordinates":[[[128.62065,35.85065],[128.61685,35.85091],[128.61673,35.84051],[128.6243,35.83996],[128.62721,35.83915],[128.63008,35.8473],[128.62065,35.85065]]]},"properties":{"key":"대구광역시|수성구|황금2동","code":"2726060200"}},{"type":"Feature","geometry":{"type":"Polygon","coordinates":[[[128.61685,35.85091],[128.61329,35.85112],[128.60734,35.84937],[128.60647,35.84503],[128.60667,35.84381],[128.60684,35.8391],[128.61673,35.84051],[128.61685,35.85091]]]},"properties":{"key":"대구광역시|수성구|중동","code":"2726061000"}},{"type":"Feature","geometry":{"type":"Polygon","coordinates":[[[128.61673,35.84051],[128.60684,35.8391],[128.60746,35.82751],[128.61163,35.82585],[128.61672,35.82978],[128.61673,35.84051]]]},"properties":{"key":"대구광역시|수성구|상동","code":"2726062000"}},{"type":"Feature","geometry":{"type":"Polygon","coordinates":[[[128.60746,35.82751],[128.60109,35.81527],[128.59383,35.81306],[128.59071,35.80977],[128.59453,35.80766],[128.61623,35.8042],[128.62486,35.80773],[128.63586,35.80609],[128.63585,35.80895],[128.62468,35.81614],[128.61875,35.82214],[128.61163,35.82585],[128.60746,35.82751]]]},"properties":{"key":"대구광역시|수성구|파동","code":"2726063000"}},{"type":"Feature","geometry":{"type":"Polygon","coordinates":[[[128.6243,35.83996],[128.61673,35.84051],[128.61672,35.82978],[128.61163,35.82585],[128.61875,35.82214],[128.62468,35.81614],[128.62435,35.82116],[128.62707,35.82723],[128.62355,35.83017],[128.6243,35.83996]]]},"properties":{"key":"대구광역시|수성구|두산동","code":"2726064000"}},{"type":"Feature","geometry":{"type":"Polygon","coordinates":[[[128.62721,35.83915],[128.6243,35.83996],[128.62355,35.83017],[128.62707,35.82723],[128.63974,35.8212],[128.65041,35.82614],[128.65419,35.8259],[128.65347,35.83098],[128.64762,35.83642],[128.64056,35.83034],[128.63615,35.83558],[128.63196,35.8343],[128.62721,35.83915]]]},"properties":{"key":"대구광역시|수성구|지산1동","code":"2726065100"}},{"type":"Feature","geometry":{"type":"Polygon","coordinates":[[[128.63974,35.8212],[128.62707,35.82723],[128.62435,35.82116],[128.62468,35.81614],[128.63585,35.80895],[128.63877,35.81055],[128.63657,35.82037],[128.63974,35.8212]]]},"properties":{"key":"대구광역시|수성구|지산2동","code":"2726065200"}},{"type":"Feature","geometry":{"type":"Polygon","coordinates":[[[128.65419,35.8259],[128.65041,35.82614],[128.63974,35.8212],[128.64567,35.81638],[128.65036,35.81486],[128.65223,35.80629],[128.65086,35.80286],[128.65314,35.79976],[128.66654,35.79783],[128.6772,35.79412],[128.67758,35.80264],[128.67057,35.80684],[128.67329,35.8147],[128.66895,35.81806],[128.65564,35.82129],[128.65419,35.8259]]]},"properties":{"key":"대구광역시|수성구|범물1동","code":"2726066100"}},{"type":"Feature","geometry":{"type":"Polygon","coordinates":[[[128.65086,35.80286],[128.65223,35.80629],[128.65036,35.81486],[128.64567,35.81638],[128.63974,35.8212],[128.63657,35.82037],[128.63877,35.81055],[128.63585,35.80895],[128.63586,35.80609],[128.64039,35.80223],[128.65086,35.80286]]]},"properties":{"key":"대구광역시|수성구|범물2동","code":"2726066200"}},{"type":"Feature","geometry":{"type":"Polygon","coordinates":[[[128.7233,35.83529],[128.71364,35.8375],[128.7035,35.84125],[128.70381,35.83372],[128.7002,35.82218],[128.69727,35.82077],[128.69486,35.81469],[128.67758,35.80264],[128.6772,35.79412],[128.68258,35.7899],[128.68913,35.79241],[128.69428,35.79662],[128.69737,35.79415],[128.71126,35.8051],[128.71769,35.80671],[128.71317,35.81787],[128.70973,35.82069],[128.70883,35.82668],[128.71252,35.83053],[128.71888,35.83565],[128.7233,35.83529]]]},"properties":{"key":"대구광역시|수성구|고산1동","code":"2726067000"}},{"type":"Feature","geometry":{"type":"Polygon","coordinates":[[[128.68013,35.86679],[128.67606,35.87334],[128.67333,35.8739],[128.66269,35.87323],[128.6622,35.86591],[128.65702,35.8606],[128.66077,35.85299],[128.65864,35.84898],[128.65077,35.84297],[128.64651,35.8415],[128.64762,35.83642],[128.65347,35.83098],[128.65419,35.8259],[128.65564,35.82129],[128.66895,35.81806],[128.67329,35.8147],[128.67057,35.80684],[128.67758,35.80264],[128.69486,35.81469],[128.69727,35.82077],[128.7002,35.82218],[128.70381,35.83372],[128.7035,35.84125],[128.70344,35.84809],[128.69868,35.85036],[128.70206,35.85532],[128.69986,35.85785],[128.69188,35.85816],[128.68224,35.86047],[128.68013,35.86679]]]},"properties":{"key":"대구광역시|수성구|고산2동","code":"2726068000"}},{"type":"Feature","geometry":{"type":"Polygon","coordinates":[[[128.72613,35.85712],[128.72401,35.86013],[128.71496,35.86239],[128.70403,35.85768],[128.69986,35.85785],[128.70206,35.85532],[128.69868,35.85036],[128.70344,35.84809],[128.7035,35.84125],[128.71364,35.8375],[128.7233,35.83529],[128.72618,35.84423],[128.72613,35.85712]]]},"properties":{"key":"대구광역시|수성구|고산3동","code":"2726069000"}},{"type":"Feature","geometry":{"type":"Polygon","coordinates":[[[128.56337,35.85179],[128.55847,35.85825],[128.55725,35.85784],[128.54913,35.85485],[128.54736,35.85036],[128.55414,35.8461],[128.56262,35.84958],[128.56337,35.85179]]]},"properties":{"key":"대구광역시|달서구|두류3동","code":"2729055000"}},{"type":"Feature","geometry":{"type":"Polygon","coordinates":[[[128.54876,35.83718],[128.54883,35.8411],[128.54483,35.84347],[128.53607,35.84353],[128.52753,35.84146],[128.52761,35.8371],[128.52861,35.83716],[128.54876,35.83718]]]},"properties":{"key":"대구광역시|달서구|본리동","code":"2729059000"}},{"type":"Feature","geometry":{"type":"Polygon","coordinates":[[[128.54736,35.85036],[128.54913,35.85485],[128.54807,35.85457],[128.53725,35.85024],[128.5334,35.84987],[128.53067,35.84909],[128.53607,35.84353],[128.54483,35.84347],[128.54736,35.85036]]]},"properties":{"key":"대구광역시|달서구|감삼동","code":"2729055500"}},{"type":"Feature","geometry":{"type":"Polygon","coordinates":[[[128.54508,35.85607],[128.53989,35.85907],[128.5333,35.8591],[128.5334,35.84987],[128.53725,35.85024],[128.54807,35.85457],[128.54508,35.85607]]]},"properties":{"key":"대구광역시|달서구|죽전동","code":"2729056300"}},{"type":"Feature","geometry":{"type":"Polygon","coordinates":[[[128.52183,35.84977],[128.51636,35.85055],[128.50731,35.84402],[128.50737,35.83557],[128.52761,35.8371],[128.52753,35.84146],[128.53607,35.84353],[128.53067,35.84909],[128.52183,35.84977]]]},"properties":{"key":"대구광역시|달서구|장기동","code":"2729056800"}},{"type":"Feature","geometry":{"type":"Polygon","coordinates":[[[128.51561,35.86811],[128.50762,35.86621],[128.50731,35.84402],[128.51636,35.85055],[128.51547,35.85898],[128.5175,35.86318],[128.51561,35.86811]]]},"properties":{"key":"대구광역시|달서구|이곡1동","code":"2729057600"}},{"type":"Feature","geometry":{"type":"Polygon","coordinates":[[[128.49889,35.86435],[128.48587,35.86816],[128.48234,35.86781],[128.47706,35.8619],[128.47385,35.86142],[128.47078,35.84381],[128.47064,35.833],[128.47719,35.82751],[128.48541,35.8327],[128.5,35.83529],[128.49998,35.85918],[128.49889,35.86435]]]},"properties":{"key":"대구광역시|달서구|신당동","code":"2729058500"}},{"type":"Feature","geometry":{"type":"Polygon","coordinates":[[[128.53578,35.83142],[128.53386,35.83551],[128.52861,35.83716],[128.52761,35.8371],[128.50737,35.83557],[128.5,35.83529],[128.48541,35.8327],[128.47719,35.82751],[128.48074,35.82224],[128.48043,35.81775],[128.49236,35.81612],[128.50008,35.81653],[128.50535,35.81454],[128.51503,35.82385],[128.52376,35.83235],[128.52984,35.82618],[128.53578,35.83142]]]},"properties":{"key":"대구광역시|달서구|월성2동","code":"2729060200"}},{"type":"Feature","geometry":{"type":"Polygon","coordinates":[[[128.54508,35.82331],[128.54002,35.82526],[128.53011,35.82002],[128.53265,35.81722],[128.53782,35.81876],[128.54464,35.8123],[128.54976,35.81556],[128.55133,35.82007],[128.54508,35.82331]]]},"properties":{"key":"대구광역시|달서구|상인1동","code":"2729062400"}},{"type":"Feature","geometry":{"type":"Polygon","coordinates":[[[128.54464,35.8123],[128.53782,35.81876],[128.53265,35.81722],[128.53316,35.80976],[128.5486,35.80828],[128.54464,35.8123]]]},"properties":{"key":"대구광역시|달서구|상인2동","code":"2729062500"}},{"type":"Feature","geometry":{"type":"Polygon","coordinates":[[[128.57114,35.81947],[128.56532,35.81594],[128.55133,35.82007],[128.54976,35.81556],[128.54464,35.8123],[128.5486,35.80828],[128.55239,35.80736],[128.56996,35.80782],[128.57546,35.80644],[128.5809,35.81149],[128.5774,35.81813],[128.57114,35.81947]]]},"properties":{"key":"대구광역시|달서구|상인3동","code":"2729062600"}},{"type":"Feature","geometry":{"type":"Polygon","coordinates":[[[128.58404,35.81086],[128.58323,35.81387],[128.5809,35.81149],[128.57546,35.80644],[128.56996,35.80782],[128.55239,35.80736],[128.5486,35.80828],[128.53316,35.80976],[128.52705,35.80892],[128.53341,35.80265],[128.54172,35.79798],[128.54156,35.78787],[128.55182,35.77925],[128.55417,35.77293],[128.56562,35.7748],[128.57061,35.78016],[128.56853,35.79237],[128.56962,35.79768],[128.57882,35.79652],[128.5854,35.7993],[128.58562,35.80771],[128.58404,35.81086]]]},"properties":{"key":"대구광역시|달서구|도원동","code":"2729062800"}},{"type":"Feature","geometry":{"type":"Polygon","coordinates":[[[128.56824,35.82435],[128.56169,35.8272],[128.55542,35.83446],[128.54508,35.82331],[128.55133,35.82007],[128.56532,35.81594],[128.57114,35.81947],[128.56824,35.82435]]]},"properties":{"key":"대구광역시|달서구|송현1동","code":"2729063000"}},{"type":"Feature","geometry":{"type":"Polygon","coordinates":[[[128.55542,35.83446],[128.55746,35.83759],[128.54876,35.83718],[128.54466,35.83394],[128.5407,35.82538],[128.54002,35.82526],[128.54508,35.82331],[128.55542,35.83446]]]},"properties":{"key":"대구광역시|달서구|송현2동","code":"2729064000"}},{"type":"Feature","geometry":{"type":"Polygon","coordinates":[[[128.54876,35.83718],[128.52861,35.83716],[128.53386,35.83551],[128.53578,35.83142],[128.5407,35.82538],[128.54466,35.83394],[128.54876,35.83718]]]},"properties":{"key":"대구광역시|달서구|본동","code":"2729065000"}},{"type":"Feature","geometry":{"type":"Polygon","coordinates":[[[128.5333,35.8591],[128.534,35.86233],[128.5267,35.86392],[128.52183,35.84977],[128.53067,35.84909],[128.5334,35.84987],[128.5333,35.8591]]]},"properties":{"key":"대구광역시|달서구|용산1동","code":"2729057100"}},{"type":"Feature","geometry":{"type":"Polygon","coordinates":[[[128.5267,35.86392],[128.52488,35.86729],[128.51915,35.86958],[128.51561,35.86811],[128.5175,35.86318],[128.51547,35.85898],[128.51636,35.85055],[128.52183,35.84977],[128.5267,35.86392]]]},"properties":{"key":"대구광역시|달서구|용산2동","code":"2729057200"}},{"type":"Feature","geometry":{"type":"Polygon","coordinates":[[[128.50731,35.84402],[128.50762,35.86621],[128.49889,35.86435],[128.49998,35.85918],[128.5,35.83529],[128.50737,35.83557],[128.50731,35.84402]]]},"properties":{"key":"대구광역시|달서구|이곡2동","code":"2729057700"}},{"type":"Feature","geometry":{"type":"Polygon","coordinates":[[[128.5734,35.85099],[128.56337,35.85179],[128.56262,35.84958],[128.55414,35.8461],[128.54736,35.85036],[128.54483,35.84347],[128.54883,35.8411],[128.54876,35.83718],[128.55746,35.83759],[128.56091,35.84199],[128.5734,35.85099]]]},"properties":{"key":"대구광역시|달서구|성당동","code":"2729051500"}},{"type":"Feature","geometry":{"type":"Polygon","coordinates":[[[128.57458,35.86006],[128.5742,35.86268],[128.56771,35.86108],[128.55847,35.85825],[128.56337,35.85179],[128.5734,35.85099],[128.57362,35.85116],[128.57458,35.86006]]]},"properties":{"key":"대구광역시|달서구|두류1,2동","code":"2729053500"}},{"type":"Feature","geometry":{"type":"Polygon","coordinates":[[[128.50535,35.81454],[128.50008,35.81653],[128.49236,35.81612],[128.48043,35.81775],[128.47818,35.81376],[128.47226,35.80953],[128.4789,35.78749],[128.48282,35.78593],[128.48495,35.78116],[128.50029,35.7738],[128.50387,35.77022],[128.52461,35.76365],[128.52601,35.75852],[128.53524,35.75335],[128.55069,35.76081],[128.54932,35.76789],[128.55417,35.77293],[128.55182,35.77925],[128.54156,35.78787],[128.53278,35.78652],[128.52816,35.78808],[128.52523,35.7924],[128.51626,35.79915],[128.51392,35.80382],[128.50827,35.80581],[128.51348,35.80994],[128.50535,35.81454]]]},"properties":{"key":"대구광역시|달성군|화원읍","code":"2771025000"}},{"type":"Feature","geometry":{"type":"Polygon","coordinates":[[[128.49311,35.72511],[128.48709,35.73608],[128.48218,35.73846],[128.48133,35.74761],[128.47319,35.75063],[128.47065,35.75643],[128.46317,35.7624],[128.44898,35.76951],[128.44153,35.76858],[128.43152,35.77885],[128.42797,35.78099],[128.42078,35.79009],[128.42073,35.79453],[128.41094,35.80028],[128.40742,35.79653],[128.40229,35.78437],[128.39403,35.77148],[128.38644,35.76335],[128.38603,35.75503],[128.39264,35.74553],[128.4062,35.73895],[128.41656,35.73663],[128.42875,35.72925],[128.4325,35.72538],[128.4341,35.71881],[128.44591,35.71911],[128.45318,35.71278],[128.4571,35.7156],[128.46848,35.72216],[128.4838,35.72666],[128.49311,35.72511]]]},"properties":{"key":"대구광역시|달성군|논공읍","code":"2771025300"}},{"type":"Feature","geometry":{"type":"Polygon","coordinates":[[[128.50415,35.89059],[128.49975,35.88848],[128.4946,35.8913],[128.49264,35.89627],[128.48787,35.89796],[128.4842,35.89476],[128.47821,35.89776],[128.47539,35.89522],[128.46795,35.89982],[128.46137,35.89949],[128.4441,35.88854],[128.43708,35.8865],[128.42472,35.87789],[128.42367,35.87316],[128.41794,35.87176],[128.41952,35.86242],[128.41787,35.85504],[128.42132,35.85139],[128.45631,35.843],[128.46012,35.84126],[128.47064,35.833],[128.47078,35.84381],[128.47385,35.86142],[128.47706,35.8619],[128.48234,35.86781],[128.48587,35.86816],[128.49889,35.86435],[128.50762,35.86621],[128.51561,35.86811],[128.51915,35.86958],[128.52121,35.87307],[128.51723,35.8828],[128.52599,35.8889],[128.51221,35.89309],[128.50415,35.89059]]]},"properties":{"key":"대구광역시|달성군|다사읍","code":"2771025600"}},{"type":"Feature","geometry":{"type":"Polygon","coordinates":[[[128.63586,35.80609],[128.62486,35.80773],[128.61623,35.8042],[128.59453,35.80766],[128.59071,35.80977],[128.58562,35.80771],[128.5854,35.7993],[128.57882,35.79652],[128.56962,35.79768],[128.56853,35.79237],[128.57061,35.78016],[128.56562,35.7748],[128.55417,35.77293],[128.54932,35.76789],[128.55069,35.76081],[128.53524,35.75335],[128.54014,35.73801],[128.53154,35.7354],[128.52702,35.72894],[128.52651,35.72272],[128.52314,35.71888],[128.52714,35.71361],[128.54408,35.71928],[128.55239,35.7262],[128.55946,35.72865],[128.56615,35.73647],[128.57166,35.7346],[128.58191,35.7388],[128.58931,35.73187],[128.59618,35.73708],[128.60658,35.73895],[128.61666,35.73712],[128.6154,35.73044],[128.61029,35.72535],[128.61643,35.71976],[128.61397,35.7106],[128.62068,35.70428],[128.62307,35.7034],[128.63084,35.707],[128.63769,35.70585],[128.64623,35.70843],[128.65817,35.71852],[128.66375,35.72055],[128.68339,35.72176],[128.68302,35.72551],[128.69179,35.73233],[128.68952,35.73987],[128.69438,35.74388],[128.69262,35.74802],[128.69619,35.75659],[128.69247,35.75993],[128.69187,35.76521],[128.68871,35.7694],[128.68656,35.77839],[128.68127,35.7856],[128.68258,35.7899],[128.6772,35.79412],[128.66654,35.79783],[128.65314,35.79976],[128.65086,35.80286],[128.64039,35.80223],[128.63586,35.80609]]]},"properties":{"key":"대구광역시|달성군|가창면","code":"2771031000"}},{"type":"Feature","geometry":{"type":"Polygon","coordinates":[[[128.46795,35.89982],[128.46686,35.90716],[128.47398,35.91714],[128.47322,35.92285],[128.47656,35.93192],[128.47568,35.936],[128.46875,35.93845],[128.46255,35.9378],[128.45377,35.94313],[128.45276,35.93631],[128.44117,35.93482],[128.43702,35.93161],[128.43145,35.93097],[128.42492,35.92791],[128.42347,35.92275],[128.4181,35.92125],[128.41771,35.91617],[128.41048,35.90674],[128.40334,35.8891],[128.39826,35.8843],[128.39371,35.88304],[128.38727,35.87147],[128.38548,35.86524],[128.38662,35.85852],[128.39009,35.85037],[128.39819,35.84944],[128.42132,35.85139],[128.41787,35.85504],[128.41952,35.86242],[128.41794,35.87176],[128.42367,35.87316],[128.42472,35.87789],[128.43708,35.8865],[128.4441,35.88854],[128.46137,35.89949],[128.46795,35.89982]]]},"properties":{"key":"대구광역시|달성군|하빈면","code":"2771033000"}},{"type":"Feature","geometry":{"type":"Polygon","coordinates":[[[128.53524,35.75335],[128.52601,35.75852],[128.52461,35.76365],[128.50387,35.77022],[128.50029,35.7738],[128.48495,35.78116],[128.48282,35.78593],[128.4789,35.78749],[128.47226,35.80953],[128.46913,35.80844],[128.4527,35.80936],[128.43987,35.80848],[128.42028,35.80936],[128.41094,35.80028],[128.42073,35.79453],[128.42078,35.79009],[128.42797,35.78099],[128.43152,35.77885],[128.44153,35.76858],[128.44898,35.76951],[128.46317,35.7624],[128.47065,35.75643],[128.47319,35.75063],[128.48133,35.74761],[128.48218,35.73846],[128.48709,35.73608],[128.49311,35.72511],[128.50751,35.72793],[128.51838,35.72287],[128.52314,35.71888],[128.52651,35.72272],[128.52702,35.72894],[128.53154,35.7354],[128.54014,35.73801],[128.53524,35.75335]]]},"properties":{"key":"대구광역시|달성군|옥포읍","code":"2771026200"}},{"type":"Feature","geometry":{"type":"Polygon","coordinates":[[[128.4571,35.7156],[128.45318,35.71278],[128.44591,35.71911],[128.4341,35.71881],[128.43482,35.70666],[128.43317,35.70302],[128.42241,35.695],[128.41784,35.69312],[128.40993,35.69417],[128.39492,35.69792],[128.3878,35.70107],[128.37517,35.70249],[128.37688,35.69996],[128.37555,35.69123],[128.38316,35.6872],[128.38806,35.67922],[128.39595,35.68075],[128.41391,35.67545],[128.41599,35.67404],[128.41952,35.66388],[128.42286,35.66053],[128.42771,35.66081],[128.44039,35.65585],[128.44674,35.66531],[128.44569,35.66848],[128.44866,35.67313],[128.44645,35.67927],[128.44756,35.68435],[128.45782,35.68931],[128.4578,35.70032],[128.45923,35.7056],[128.4571,35.7156]]]},"properties":{"key":"대구광역시|달성군|현풍읍","code":"2771026500"}},{"type":"Feature","geometry":{"type":"Polygon","coordinates":[[[128.52314,35.71888],[128.51838,35.72287],[128.50751,35.72793],[128.49311,35.72511],[128.4838,35.72666],[128.46848,35.72216],[128.4571,35.7156],[128.45923,35.7056],[128.4578,35.70032],[128.45782,35.68931],[128.44756,35.68435],[128.44645,35.67927],[128.44866,35.67313],[128.44874,35.66558],[128.45267,35.65881],[128.45189,35.65264],[128.46113,35.64061],[128.46981,35.63634],[128.47765,35.64043],[128.48286,35.63574],[128.48624,35.63558],[128.4978,35.63899],[128.50621,35.63959],[128.51061,35.64657],[128.50681,35.65015],[128.50926,35.66895],[128.50913,35.67458],[128.51582,35.67574],[128.5191,35.67963],[128.52641,35.68238],[128.53349,35.68208],[128.53152,35.68815],[128.53514,35.69402],[128.53152,35.69683],[128.53241,35.70549],[128.52714,35.71361],[128.52314,35.71888]]]},"properties":{"key":"대구광역시|달성군|유가읍","code":"2771025900"}},{"type":"Feature","geometry":{"type":"Polygon","coordinates":[[[128.37517,35.70249],[128.35965,35.7075],[128.35104,35.70288],[128.35069,35.69416],[128.35407,35.68378],[128.35877,35.67691],[128.36348,35.67104],[128.38161,35.65529],[128.39631,35.64811],[128.40294,35.64192],[128.40168,35.63207],[128.39635,35.62803],[128.3861,35.61241],[128.38102,35.61099],[128.37077,35.61116],[128.3729,35.60843],[128.38167,35.60677],[128.39565,35.61426],[128.39939,35.61592],[128.411,35.61534],[128.41763,35.62175],[128.42352,35.62046],[128.4266,35.62354],[128.43191,35.62358],[128.43794,35.6313],[128.4462,35.63819],[128.45018,35.63803],[128.45428,35.63723],[128.46113,35.64061],[128.45189,35.65264],[128.45267,35.65881],[128.44874,35.66558],[128.44866,35.67313],[128.44569,35.66848],[128.44674,35.66531],[128.44039,35.65585],[128.42771,35.66081],[128.42286,35.66053],[128.41952,35.66388],[128.41599,35.67404],[128.41391,35.67545],[128.39595,35.68075],[128.38806,35.67922],[128.38316,35.6872],[128.37555,35.69123],[128.37688,35.69996],[128.37517,35.70249]]]},"properties":{"key":"대구광역시|달성군|구지면","code":"2771038000"}},{"type":"Feature","geometry":{"type":"Polygon","coordinates":[[[128.54553,36.29162],[128.53871,36.29441],[128.52926,36.29387],[128.52917,36.28681],[128.52718,36.27941],[128.53269,36.27751],[128.53554,36.27304],[128.53076,36.27038],[128.5269,36.26238],[128.52388,36.25231],[128.52023,36.24849],[128.52218,36.24072],[128.52118,36.23658],[128.52914,36.22956],[128.53729,36.22475],[128.53121,36.22101],[128.53085,36.21278],[128.52857,36.20767],[128.52287,36.20069],[128.53895,36.19367],[128.54587,36.18169],[128.54909,36.17815],[128.55745,36.17805],[128.56361,36.17495],[128.57144,36.17452],[128.57711,36.18291],[128.58369,36.18629],[128.57954,36.18939],[128.57874,36.19495],[128.58228,36.20818],[128.58446,36.21229],[128.58995,36.21436],[128.59545,36.20834],[128.60063,36.20892],[128.61179,36.21492],[128.61934,36.22116],[128.62885,36.22556],[128.63589,36.2242],[128.63667,36.23308],[128.63105,36.23878],[128.63267,36.24382],[128.63821,36.24708],[128.64067,36.25757],[128.63637,36.26118],[128.62402,36.26677],[128.61683,36.26767],[128.60695,36.27124],[128.59848,36.27077],[128.59552,36.27707],[128.57636,36.27964],[128.57147,36.27501],[128.56691,36.27421],[128.56265,36.27682],[128.55681,36.27363],[128.5519,36.27491],[128.54909,36.2857],[128.54553,36.29162]]]},"properties":{"key":"대구광역시|군위군|군위읍","code":"2772025000"}},{"type":"Feature","geometry":{"type":"Polygon","coordinates":[[[128.45555,36.32673],[128.45164,36.32702],[128.43922,36.31225],[128.43886,36.30591],[128.43448,36.30573],[128.42776,36.29913],[128.41704,36.29901],[128.41307,36.29386],[128.41125,36.28751],[128.41402,36.28312],[128.42368,36.27889],[128.42652,36.27367],[128.42152,36.26862],[128.42112,36.26153],[128.41657,36.25763],[128.42139,36.2506],[128.41932,36.2457],[128.42378,36.24036],[128.42382,36.23665],[128.43359,36.23516],[128.43827,36.22662],[128.43758,36.22239],[128.44078,36.21801],[128.45292,36.22333],[128.46199,36.22844],[128.47023,36.2293],[128.47797,36.23395],[128.48483,36.23407],[128.48609,36.23122],[128.47955,36.22448],[128.48629,36.22391],[128.48958,36.21869],[128.48876,36.21338],[128.49449,36.20528],[128.49472,36.19771],[128.50357,36.19277],[128.50435,36.18499],[128.51257,36.1912],[128.51802,36.20054],[128.52287,36.20069],[128.52857,36.20767],[128.53085,36.21278],[128.53121,36.22101],[128.53729,36.22475],[128.52914,36.22956],[128.52118,36.23658],[128.52218,36.24072],[128.52023,36.24849],[128.52388,36.25231],[128.5269,36.26238],[128.53076,36.27038],[128.53554,36.27304],[128.53269,36.27751],[128.52718,36.27941],[128.52917,36.28681],[128.52926,36.29387],[128.52482,36.29997],[128.51515,36.30203],[128.51068,36.30073],[128.5062,36.30342],[128.49788,36.30337],[128.48759,36.30821],[128.47321,36.31212],[128.47288,36.31835],[128.46688,36.32197],[128.45602,36.3251],[128.45555,36.32673]]]},"properties":{"key":"대구광역시|군위군|소보면","code":"2772031000"}},{"type":"Feature","geometry":{"type":"Polygon","coordinates":[[[128.63589,36.2242],[128.62885,36.22556],[128.61934,36.22116],[128.61179,36.21492],[128.60063,36.20892],[128.59545,36.20834],[128.58995,36.21436],[128.58446,36.21229],[128.58228,36.20818],[128.57874,36.19495],[128.57954,36.18939],[128.58369,36.18629],[128.57711,36.18291],[128.57144,36.17452],[128.56361,36.17495],[128.55745,36.17805],[128.55429,36.17341],[128.55363,36.1653],[128.54436,36.16611],[128.54048,36.16156],[128.5425,36.15479],[128.55047,36.15074],[128.54833,36.14789],[128.54815,36.14096],[128.55257,36.13847],[128.54864,36.13098],[128.55286,36.12836],[128.55492,36.12129],[128.56193,36.11931],[128.5631,36.11168],[128.56484,36.10986],[128.56353,36.10221],[128.56702,36.0968],[128.56874,36.08978],[128.56345,36.07261],[128.56918,36.06068],[128.57648,36.06381],[128.57995,36.06782],[128.59471,36.07309],[128.59785,36.07577],[128.60985,36.07615],[128.61437,36.07901],[128.62267,36.07951],[128.62411,36.08163],[128.62333,36.08509],[128.62549,36.09225],[128.63153,36.09513],[128.63463,36.10083],[128.64014,36.10467],[128.63852,36.10953],[128.64703,36.11246],[128.66404,36.12295],[128.6601,36.12884],[128.6505,36.13467],[128.64498,36.13497],[128.6367,36.14066],[128.63156,36.14071],[128.62628,36.14361],[128.6196,36.15464],[128.61643,36.16273],[128.61008,36.165],[128.61239,36.16959],[128.61102,36.18114],[128.61788,36.18956],[128.62174,36.19037],[128.62601,36.19824],[128.62999,36.2],[128.6376,36.19968],[128.64091,36.20457],[128.63992,36.20809],[128.63387,36.20936],[128.63175,36.21623],[128.63589,36.2242]]]},"properties":{"key":"대구광역시|군위군|효령면","code":"2772032000"}},{"type":"Feature","geometry":{"type":"Polygon","coordinates":[[[128.68207,36.11639],[128.6724,36.11833],[128.67273,36.12138],[128.66825,36.12494],[128.66404,36.12295],[128.64703,36.11246],[128.63852,36.10953],[128.64014,36.10467],[128.63463,36.10083],[128.63153,36.09513],[128.62549,36.09225],[128.62333,36.08509],[128.62411,36.08163],[128.63035,36.07736],[128.62778,36.06819],[128.62935,36.05124],[128.62636,36.04224],[128.62305,36.03708],[128.62129,36.02582],[128.62575,36.022],[128.63715,36.01715],[128.64061,36.01055],[128.65129,36.00765],[128.65509,36.00973],[128.66422,36.01061],[128.66799,36.01414],[128.69041,36.01461],[128.69525,36.0163],[128.6993,36.02203],[128.70037,36.03132],[128.69684,36.03537],[128.6927,36.03631],[128.67952,36.04827],[128.68168,36.05186],[128.68885,36.05583],[128.68898,36.06106],[128.69285,36.06854],[128.69342,36.07506],[128.69877,36.07942],[128.69783,36.08543],[128.70234,36.09218],[128.69062,36.09109],[128.6908,36.09702],[128.68537,36.10533],[128.67898,36.10566],[128.67754,36.10981],[128.68207,36.11639]]]},"properties":{"key":"대구광역시|군위군|부계면","code":"2772033000"}},{"type":"Feature","geometry":{"type":"Polygon","coordinates":[[[128.69985,36.20876],[128.69439,36.2141],[128.68276,36.21508],[128.66936,36.20918],[128.66339,36.22144],[128.64936,36.21769],[128.6424,36.21206],[128.63992,36.20809],[128.64091,36.20457],[128.6376,36.19968],[128.62999,36.2],[128.62601,36.19824],[128.62174,36.19037],[128.61788,36.18956],[128.61102,36.18114],[128.61239,36.16959],[128.61008,36.165],[128.61643,36.16273],[128.6196,36.15464],[128.62628,36.14361],[128.63156,36.14071],[128.6367,36.14066],[128.64498,36.13497],[128.6505,36.13467],[128.6601,36.12884],[128.66404,36.12295],[128.66825,36.12494],[128.67273,36.12138],[128.6724,36.11833],[128.68207,36.11639],[128.68683,36.12298],[128.69315,36.12753],[128.6973,36.13325],[128.69801,36.13988],[128.70646,36.14242],[128.70719,36.1504],[128.70623,36.15473],[128.69679,36.15536],[128.68794,36.16095],[128.68598,36.164],[128.67671,36.16574],[128.67983,36.17526],[128.6828,36.17861],[128.69095,36.18136],[128.69156,36.18896],[128.69729,36.19598],[128.69668,36.20239],[128.69985,36.20876]]]},"properties":{"key":"대구광역시|군위군|우보면","code":"2772034000"}},{"type":"Feature","geometry":{"type":"Polygon","coordinates":[[[128.79049,36.19486],[128.78363,36.19392],[128.77427,36.19498],[128.77004,36.19347],[128.75891,36.20044],[128.7527,36.20267],[128.74944,36.19591],[128.74568,36.19461],[128.74056,36.19917],[128.7277,36.20077],[128.72139,36.19805],[128.71895,36.20006],[128.70872,36.19857],[128.69668,36.20239],[128.69729,36.19598],[128.69156,36.18896],[128.69095,36.18136],[128.6828,36.17861],[128.67983,36.17526],[128.67671,36.16574],[128.68598,36.164],[128.68794,36.16095],[128.69679,36.15536],[128.70623,36.15473],[128.70719,36.1504],[128.71949,36.15183],[128.72144,36.14796],[128.72837,36.14252],[128.72838,36.13087],[128.73866,36.12223],[128.7471,36.12904],[128.74926,36.13287],[128.74834,36.13974],[128.76297,36.13795],[128.76294,36.1444],[128.7678,36.15394],[128.77671,36.15444],[128.78208,36.15261],[128.7888,36.16273],[128.7935,36.1787],[128.78971,36.19281],[128.79049,36.19486]]]},"properties":{"key":"대구광역시|군위군|의흥면","code":"2772035000"}},{"type":"Feature","geometry":{"type":"Polygon","coordinates":[[[128.73866,36.12223],[128.72838,36.13087],[128.72837,36.14252],[128.72144,36.14796],[128.71949,36.15183],[128.70719,36.1504],[128.70646,36.14242],[128.69801,36.13988],[128.6973,36.13325],[128.69315,36.12753],[128.68683,36.12298],[128.68207,36.11639],[128.67754,36.10981],[128.67898,36.10566],[128.68537,36.10533],[128.6908,36.09702],[128.69062,36.09109],[128.70234,36.09218],[128.69783,36.08543],[128.69877,36.07942],[128.69342,36.07506],[128.69285,36.06854],[128.68898,36.06106],[128.68885,36.05583],[128.68168,36.05186],[128.67952,36.04827],[128.6927,36.03631],[128.69684,36.03537],[128.7047,36.04566],[128.70256,36.05562],[128.70921,36.0641],[128.71139,36.07365],[128.71402,36.07559],[128.72375,36.07353],[128.72941,36.08104],[128.7252,36.09038],[128.73373,36.09462],[128.74394,36.10284],[128.74509,36.10915],[128.73918,36.11762],[128.73866,36.12223]]]},"properties":{"key":"대구광역시|군위군|산성면","code":"2772036000"}},{"type":"Feature","geometry":{"type":"Polygon","coordinates":[[[128.88246,36.199],[128.87315,36.19975],[128.87071,36.20367],[128.85856,36.20801],[128.85186,36.21488],[128.84122,36.21751],[128.83469,36.21537],[128.83004,36.21764],[128.82259,36.21583],[128.8141,36.21097],[128.80392,36.20996],[128.80308,36.20077],[128.79597,36.1938],[128.79049,36.19486],[128.78971,36.19281],[128.7935,36.1787],[128.7888,36.16273],[128.78208,36.15261],[128.77671,36.15444],[128.7678,36.15394],[128.76294,36.1444],[128.76297,36.13795],[128.74834,36.13974],[128.74926,36.13287],[128.7471,36.12904],[128.73866,36.12223],[128.73918,36.11762],[128.74509,36.10915],[128.75159,36.10363],[128.75206,36.09289],[128.76448,36.10051],[128.76844,36.09953],[128.77064,36.09524],[128.77681,36.09483],[128.79102,36.08673],[128.79847,36.08497],[128.81048,36.0888],[128.81636,36.09228],[128.81807,36.09719],[128.82226,36.10054],[128.83085,36.10262],[128.83568,36.10583],[128.83758,36.11245],[128.85017,36.11887],[128.85297,36.12775],[128.85099,36.13843],[128.8591,36.14531],[128.86839,36.14515],[128.87633,36.14235],[128.89151,36.14339],[128.89019,36.14724],[128.8925,36.15554],[128.90009,36.16255],[128.89418,36.16953],[128.89605,36.17344],[128.89125,36.17654],[128.89021,36.18217],[128.88524,36.18395],[128.88121,36.19013],[128.88246,36.199]]]},"properties":{"key":"대구광역시|군위군|삼국유사면","code":"2772037000"}},{"type":"Feature","geometry":{"type":"Polygon","coordinates":[[[128.73427,35.87484],[128.73327,35.87116],[128.7177,35.86587],[128.71496,35.86239],[128.72401,35.86013],[128.72613,35.85712],[128.73577,35.85091],[128.74073,35.85173],[128.74657,35.85655],[128.75162,35.85755],[128.75394,35.86402],[128.76004,35.86546],[128.75858,35.87055],[128.75998,35.87472],[128.74899,35.87059],[128.7441,35.8708],[128.73427,35.87484]]]},"properties":{"key":"대구광역시|동구|안심3동","code":"2714074200"}},{"type":"Feature","geometry":{"type":"Polygon","coordinates":[[[128.73427,35.87484],[128.7441,35.8708],[128.74899,35.87059],[128.75998,35.87472],[128.75822,35.8782],[128.76194,35.88322],[128.75763,35.89589],[128.75717,35.90458],[128.76045,35.90698],[128.75661,35.91485],[128.74446,35.92192],[128.73765,35.90891],[128.73357,35.90525],[128.72668,35.90336],[128.72279,35.90018],[128.71785,35.90061],[128.71271,35.89324],[128.70782,35.89097],[128.70801,35.87755],[128.73427,35.87484]]]},"properties":{"key":"대구광역시|동구|혁신동","code":"2714075500"}},{"type":"Feature","geometry":{"type":"Polygon","coordinates":[[[128.5231,35.81607],[128.53011,35.82002],[128.54002,35.82526],[128.5407,35.82538],[128.53578,35.83142],[128.52984,35.82618],[128.52376,35.83235],[128.51503,35.82385],[128.52174,35.81924],[128.5231,35.81607]]]},"properties":{"key":"대구광역시|달서구|월성1동","code":"2729060100"}},{"type":"Feature","geometry":{"type":"Polygon","coordinates":[[[128.51348,35.80994],[128.50827,35.80581],[128.51392,35.80382],[128.51626,35.79915],[128.52523,35.7924],[128.52816,35.78808],[128.53278,35.78652],[128.54156,35.78787],[128.54172,35.79798],[128.53341,35.80265],[128.52705,35.80892],[128.53316,35.80976],[128.53265,35.81722],[128.53011,35.82002],[128.5231,35.81607],[128.51348,35.80994]]]},"properties":{"key":"대구광역시|달서구|진천동","code":"2729061500"}},{"type":"Feature","geometry":{"type":"Polygon","coordinates":[[[128.51348,35.80994],[128.5231,35.81607],[128.52174,35.81924],[128.51503,35.82385],[128.50535,35.81454],[128.51348,35.80994]]]},"properties":{"key":"대구광역시|달서구|유천동","code":"2729061700"}}]}