{"type":"FeatureCollection","features":[{"type":"Feature","geometry":{"type":"Polygon","coordinates":[[[126.61984,37.46191],[126.61219,37.46243],[126.60336,37.46016],[126.60483,37.46455],[126.59967,37.4655],[126.59317,37.46372],[126.59634,37.45118],[126.59288,37.4506],[126.59294,37.44132],[126.60099,37.43837],[126.60814,37.44063],[126.61419,37.43773],[126.61321,37.43458],[126.61734,37.43809],[126.63024,37.4583],[126.61984,37.46191]]]},"properties":{"code":"2812552000","name":"연안동","parent":"28125"}},{"type":"Feature","geometry":{"type":"Polygon","coordinates":[[[126.62263,37.47551],[126.61583,37.47465],[126.61625,37.46992],[126.61441,37.46399],[126.61984,37.46191],[126.63024,37.4583],[126.63078,37.4702],[126.63119,37.47096],[126.62263,37.47551]]]},"properties":{"code":"2812551000","name":"신포동","parent":"28125"}},{"type":"Feature","geometry":{"type":"Polygon","coordinates":[[[126.63669,37.46799],[126.63078,37.4702],[126.63024,37.4583],[126.61734,37.43809],[126.61321,37.43458],[126.61087,37.42992],[126.63497,37.43003],[126.63468,37.431],[126.63262,37.44153],[126.62918,37.45203],[126.63552,37.45727],[126.63758,37.45993],[126.64027,37.4641],[126.63669,37.46799]]]},"properties":{"code":"2812553000","name":"신흥동","parent":"28125"}},{"type":"Feature","geometry":{"type":"Polygon","coordinates":[[[126.64279,37.46849],[126.63919,37.47029],[126.63669,37.46799],[126.64027,37.4641],[126.64279,37.46849]]]},"properties":{"code":"2812554000","name":"도원동","parent":"28125"}},{"type":"Feature","geometry":{"type":"Polygon","coordinates":[[[126.63919,37.47029],[126.63618,37.47222],[126.63119,37.47096],[126.63078,37.4702],[126.63669,37.46799],[126.63919,37.47029]]]},"properties":{"code":"2812555000","name":"율목동","parent":"28125"}},{"type":"Feature","geometry":{"type":"Polygon","coordinates":[[[126.62797,37.47923],[126.62263,37.47551],[126.63119,37.47096],[126.63618,37.47222],[126.63463,37.47367],[126.63142,37.4768],[126.62802,37.47943],[126.62797,37.47923]]]},"properties":{"code":"2812556000","name":"동인천동","parent":"28125"}},{"type":"Feature","geometry":{"type":"Polygon","coordinates":[[[126.50616,37.46394],[126.50735,37.46581],[126.52115,37.46914],[126.53731,37.47583],[126.55037,37.47639],[126.55895,37.4783],[126.55804,37.48301],[126.5461,37.4831],[126.54363,37.48731],[126.55342,37.49647],[126.56216,37.50177],[126.57453,37.50504],[126.56911,37.5078],[126.56433,37.51446],[126.54389,37.52361],[126.52634,37.52737],[126.52091,37.53393],[126.51378,37.53498],[126.49839,37.53185],[126.49535,37.52647],[126.49407,37.5162],[126.49046,37.5099],[126.49757,37.50691],[126.50004,37.50144],[126.50532,37.50493],[126.5101,37.50344],[126.50958,37.49962],[126.51726,37.49119],[126.51502,37.48488],[126.51048,37.48084],[126.50594,37.48348],[126.49963,37.47907],[126.50432,37.47565],[126.50709,37.46858],[126.50616,37.46394]]]},"properties":{"code":"2815551000","name":"영종동","parent":"28155"}},{"type":"Feature","geometry":{"type":"MultiPolygon","coordinates":[[[[126.39066,37.39581],[126.39725,37.40241],[126.39329,37.40499],[126.38918,37.40216],[126.39066,37.39581]]],[[[126.41412,37.40909],[126.40725,37.41321],[126.40238,37.40969],[126.40446,37.40672],[126.40111,37.4026],[126.40059,37.39657],[126.40735,37.38812],[126.40912,37.37651],[126.40714,37.3726],[126.41322,37.36625],[126.41794,37.36531],[126.42799,37.3683],[126.43368,37.36859],[126.43352,37.37419],[126.43947,37.37574],[126.44104,37.38564],[126.43166,37.3899],[126.42314,37.39808],[126.42217,37.40165],[126.41461,37.40349],[126.41412,37.40909]]],[[[126.37342,37.47213],[126.36472,37.47469],[126.35913,37.47293],[126.35625,37.46957],[126.35628,37.46305],[126.36106,37.45726],[126.36772,37.45694],[126.37228,37.44515],[126.38049,37.43902],[126.38969,37.44076],[126.39529,37.44609],[126.4,37.44371],[126.41558,37.43247],[126.41944,37.42197],[126.4277,37.42295],[126.42279,37.42557],[126.42717,37.43225],[126.43317,37.43651],[126.43195,37.44143],[126.4339,37.44635],[126.42074,37.45211],[126.4113,37.46007],[126.39567,37.46636],[126.39705,37.45736],[126.38787,37.45484],[126.37843,37.45996],[126.37487,37.46553],[126.37342,37.47213]]]]},"properties":{"code":"2815556000","name":"용유동","parent":"28155"}},{"type":"Feature","geometry":{"type":"Polygon","coordinates":[[[126.50532,37.50493],[126.50004,37.50144],[126.49757,37.50691],[126.49046,37.5099],[126.48299,37.5042],[126.4701,37.50287],[126.46454,37.49947],[126.45761,37.49975],[126.43217,37.50392],[126.42747,37.50185],[126.37342,37.47213],[126.37487,37.46553],[126.37843,37.45996],[126.38787,37.45484],[126.39705,37.45736],[126.39567,37.46636],[126.4113,37.46007],[126.42074,37.45211],[126.4339,37.44635],[126.43195,37.44143],[126.43317,37.43651],[126.42717,37.43225],[126.42279,37.42557],[126.4277,37.42295],[126.44181,37.42089],[126.47791,37.44084],[126.49616,37.44821],[126.50028,37.45469],[126.48968,37.45686],[126.48566,37.4725],[126.48558,37.47826],[126.48895,37.48551],[126.49908,37.49934],[126.50532,37.50493]]]},"properties":{"code":"2815554000","name":"운서1동","parent":"28155"}},{"type":"Feature","geometry":{"type":"Polygon","coordinates":[[[126.62689,37.49061],[126.62628,37.49254],[126.60982,37.4874],[126.61162,37.48349],[126.61677,37.48359],[126.62035,37.48066],[126.62797,37.47923],[126.62802,37.47943],[126.62832,37.48374],[126.62526,37.48701],[126.62689,37.49061]]]},"properties":{"code":"2812558000","name":"만석동","parent":"28125"}},{"type":"Feature","geometry":{"type":"Polygon","coordinates":[[[126.63359,37.47905],[126.62832,37.48374],[126.62802,37.47943],[126.63142,37.4768],[126.63359,37.47905]]]},"properties":{"code":"2812559000","name":"화수1·화평동","parent":"28125"}},{"type":"Feature","geometry":{"type":"Polygon","coordinates":[[[126.63205,37.4877],[126.62689,37.49061],[126.62526,37.48701],[126.62832,37.48374],[126.63359,37.47905],[126.63753,37.48204],[126.63205,37.4877]]]},"properties":{"code":"2812560000","name":"화수2동","parent":"28125"}},{"type":"Feature","geometry":{"type":"Polygon","coordinates":[[[126.6399,37.47819],[126.63753,37.48204],[126.63359,37.47905],[126.63142,37.4768],[126.63463,37.47367],[126.6353,37.47429],[126.6399,37.47819]]]},"properties":{"code":"2812561000","name":"송현1·2동","parent":"28125"}},{"type":"Feature","geometry":{"type":"Polygon","coordinates":[[[126.65536,37.48816],[126.64076,37.49587],[126.62745,37.49325],[126.63205,37.4877],[126.63753,37.48204],[126.6399,37.47819],[126.641,37.47807],[126.64534,37.47968],[126.64525,37.48392],[126.64882,37.48732],[126.65264,37.48502],[126.65536,37.48816]]]},"properties":{"code":"2812562000","name":"송현3동","parent":"28125"}},{"type":"Feature","geometry":{"type":"Polygon","coordinates":[[[126.6399,37.47819],[126.6353,37.47429],[126.64189,37.47397],[126.641,37.47807],[126.6399,37.47819]]]},"properties":{"code":"2812563000","name":"송림1동","parent":"28125"}},{"type":"Feature","geometry":{"type":"Polygon","coordinates":[[[126.64477,37.47578],[126.64534,37.47968],[126.641,37.47807],[126.64189,37.47397],[126.6436,37.47324],[126.64477,37.47578]]]},"properties":{"code":"2812564000","name":"송림2동","parent":"28125"}},{"type":"Feature","geometry":{"type":"Polygon","coordinates":[[[126.65223,37.47582],[126.64964,37.47739],[126.64477,37.47578],[126.6436,37.47324],[126.64555,37.46995],[126.65029,37.46951],[126.65223,37.47582]]]},"properties":{"code":"2812565000","name":"송림3·5동","parent":"28125"}},{"type":"Feature","geometry":{"type":"Polygon","coordinates":[[[126.67048,37.47685],[126.66476,37.48246],[126.65536,37.48816],[126.65264,37.48502],[126.64964,37.47739],[126.65223,37.47582],[126.65496,37.48406],[126.67048,37.47685]]]},"properties":{"code":"2812566000","name":"송림4동","parent":"28125"}},{"type":"Feature","geometry":{"type":"Polygon","coordinates":[[[126.65264,37.48502],[126.64882,37.48732],[126.64525,37.48392],[126.64534,37.47968],[126.64477,37.47578],[126.64964,37.47739],[126.65264,37.48502]]]},"properties":{"code":"2812567000","name":"송림6동","parent":"28125"}},{"type":"Feature","geometry":{"type":"Polygon","coordinates":[[[126.64189,37.47397],[126.6353,37.47429],[126.63463,37.47367],[126.63618,37.47222],[126.63919,37.47029],[126.64279,37.46849],[126.64555,37.46995],[126.6436,37.47324],[126.64189,37.47397]]]},"properties":{"code":"2812568000","name":"금창동","parent":"28125"}},{"type":"Feature","geometry":{"type":"Polygon","coordinates":[[[126.65324,37.45961],[126.64998,37.46505],[126.64285,37.46225],[126.64594,37.45786],[126.64922,37.45808],[126.65324,37.45961]]]},"properties":{"code":"2817751000","name":"숭의2동","parent":"28177"}},{"type":"Feature","geometry":{"type":"Polygon","coordinates":[[[126.65617,37.46622],[126.64998,37.46505],[126.65324,37.45961],[126.65709,37.45895],[126.6625,37.45866],[126.6643,37.46097],[126.65617,37.46622]]]},"properties":{"code":"2817753000","name":"숭의4동","parent":"28177"}},{"type":"Feature","geometry":{"type":"Polygon","coordinates":[[[126.64594,37.45786],[126.63758,37.45993],[126.63552,37.45727],[126.64811,37.45219],[126.64922,37.45808],[126.64594,37.45786]]]},"properties":{"code":"2817755000","name":"용현2동","parent":"28177"}},{"type":"Feature","geometry":{"type":"Polygon","coordinates":[[[126.65709,37.45895],[126.65324,37.45961],[126.64922,37.45808],[126.64811,37.45219],[126.65837,37.45383],[126.65709,37.45895]]]},"properties":{"code":"2817756000","name":"용현3동","parent":"28177"}},{"type":"Feature","geometry":{"type":"Polygon","coordinates":[[[126.64811,37.45219],[126.63552,37.45727],[126.62918,37.45203],[126.63262,37.44153],[126.65039,37.44616],[126.64811,37.45219]]]},"properties":{"code":"2817757000","name":"용현5동","parent":"28177"}},{"type":"Feature","geometry":{"type":"Polygon","coordinates":[[[126.66029,37.44709],[126.65039,37.44616],[126.63262,37.44153],[126.63468,37.431],[126.64059,37.43046],[126.64813,37.43512],[126.65637,37.43528],[126.66054,37.43549],[126.67512,37.43028],[126.67707,37.4315],[126.67659,37.43797],[126.66424,37.44293],[126.66029,37.44709]]]},"properties":{"code":"2817758000","name":"학익1동","parent":"28177"}},{"type":"Feature","geometry":{"type":"Polygon","coordinates":[[[126.66793,37.44782],[126.66029,37.44709],[126.66424,37.44293],[126.67659,37.43797],[126.67854,37.44193],[126.67541,37.44413],[126.66793,37.44782]]]},"properties":{"code":"2817759000","name":"학익2동","parent":"28177"}},{"type":"Feature","geometry":{"type":"Polygon","coordinates":[[[126.67372,37.46568],[126.65619,37.46679],[126.65617,37.46622],[126.6643,37.46097],[126.66871,37.45749],[126.67621,37.45872],[126.67695,37.4627],[126.67372,37.46568]]]},"properties":{"code":"2817760000","name":"도화1동","parent":"28177"}},{"type":"Feature","geometry":{"type":"Polygon","coordinates":[[[126.68607,37.46449],[126.67372,37.46568],[126.67695,37.4627],[126.67621,37.45872],[126.68009,37.45848],[126.68579,37.45813],[126.68607,37.46449]]]},"properties":{"code":"2817762000","name":"주안1동","parent":"28177"}},{"type":"Feature","geometry":{"type":"Polygon","coordinates":[[[126.67621,37.45872],[126.66871,37.45749],[126.6643,37.46097],[126.6625,37.45866],[126.66753,37.45226],[126.67468,37.45174],[126.6798,37.45141],[126.68009,37.45848],[126.67621,37.45872]]]},"properties":{"code":"2817763000","name":"주안2동","parent":"28177"}},{"type":"Feature","geometry":{"type":"Polygon","coordinates":[[[126.67468,37.45174],[126.66753,37.45226],[126.66793,37.44782],[126.67541,37.44413],[126.67468,37.45174]]]},"properties":{"code":"2817764000","name":"주안3동","parent":"28177"}},{"type":"Feature","geometry":{"type":"Polygon","coordinates":[[[126.68579,37.45813],[126.68009,37.45848],[126.6798,37.45141],[126.69261,37.45054],[126.69504,37.45566],[126.69453,37.45598],[126.68579,37.45813]]]},"properties":{"code":"2817765000","name":"주안4동","parent":"28177"}},{"type":"Feature","geometry":{"type":"Polygon","coordinates":[[[126.68404,37.47335],[126.67438,37.47551],[126.67372,37.46568],[126.68607,37.46449],[126.69294,37.46472],[126.6868,37.46621],[126.68605,37.47202],[126.68404,37.47335]]]},"properties":{"code":"2817766000","name":"주안5동","parent":"28177"}},{"type":"Feature","geometry":{"type":"Polygon","coordinates":[[[126.69724,37.46129],[126.69294,37.46472],[126.68607,37.46449],[126.68579,37.45813],[126.69453,37.45598],[126.69724,37.46129]]]},"properties":{"code":"2817767000","name":"주안6동","parent":"28177"}},{"type":"Feature","geometry":{"type":"Polygon","coordinates":[[[126.6798,37.45141],[126.67468,37.45174],[126.67541,37.44413],[126.67854,37.44193],[126.68083,37.44194],[126.6798,37.45141]]]},"properties":{"code":"2817768000","name":"주안7동","parent":"28177"}},{"type":"Feature","geometry":{"type":"Polygon","coordinates":[[[126.69261,37.45054],[126.6798,37.45141],[126.68083,37.44194],[126.68506,37.44228],[126.68752,37.44673],[126.69288,37.44823],[126.69261,37.45054]]]},"properties":{"code":"2817769000","name":"주안8동","parent":"28177"}},{"type":"Feature","geometry":{"type":"Polygon","coordinates":[[[126.70018,37.44362],[126.69288,37.44823],[126.68752,37.44673],[126.68506,37.44228],[126.69493,37.43877],[126.70236,37.43887],[126.70018,37.44362]]]},"properties":{"code":"2817770000","name":"관교동","parent":"28177"}},{"type":"Feature","geometry":{"type":"Polygon","coordinates":[[[126.69493,37.43877],[126.68506,37.44228],[126.68083,37.44194],[126.67854,37.44193],[126.67659,37.43797],[126.67707,37.4315],[126.68559,37.43019],[126.68717,37.43318],[126.69669,37.4334],[126.69493,37.43877]]]},"properties":{"code":"2817771000","name":"문학동","parent":"28177"}},{"type":"Feature","geometry":{"type":"Polygon","coordinates":[[[126.65029,37.46951],[126.64555,37.46995],[126.64279,37.46849],[126.64027,37.4641],[126.63758,37.45993],[126.64594,37.45786],[126.64285,37.46225],[126.64998,37.46505],[126.65617,37.46622],[126.65619,37.46679],[126.65029,37.46951]]]},"properties":{"code":"2817752000","name":"숭의1·3동","parent":"28177"}},{"type":"Feature","geometry":{"type":"Polygon","coordinates":[[[126.6625,37.45866],[126.65709,37.45895],[126.65837,37.45383],[126.64811,37.45219],[126.65039,37.44616],[126.66029,37.44709],[126.66793,37.44782],[126.66753,37.45226],[126.6625,37.45866]]]},"properties":{"code":"2817754000","name":"용현1·4동","parent":"28177"}},{"type":"Feature","geometry":{"type":"Polygon","coordinates":[[[126.67048,37.47685],[126.65496,37.48406],[126.65223,37.47582],[126.65029,37.46951],[126.65619,37.46679],[126.67372,37.46568],[126.67438,37.47551],[126.67048,37.47685]]]},"properties":{"code":"2817761000","name":"도화2·3동","parent":"28177"}},{"type":"Feature","geometry":{"type":"Polygon","coordinates":[[[126.66051,37.42719],[126.65484,37.4283],[126.65213,37.42459],[126.64474,37.42432],[126.63729,37.42153],[126.64112,37.41301],[126.64813,37.41313],[126.66128,37.41753],[126.6592,37.42331],[126.66051,37.42719]]]},"properties":{"code":"2818563000","name":"옥련1동","parent":"28185"}},{"type":"Feature","geometry":{"type":"Polygon","coordinates":[[[126.70236,37.43887],[126.69493,37.43877],[126.69669,37.4334],[126.68717,37.43318],[126.68559,37.43019],[126.69149,37.42294],[126.69464,37.41877],[126.69534,37.4171],[126.70412,37.42492],[126.7062,37.43415],[126.70236,37.43887]]]},"properties":{"code":"2818575000","name":"선학동","parent":"28185"}},{"type":"Feature","geometry":{"type":"Polygon","coordinates":[[[126.68559,37.43019],[126.67707,37.4315],[126.67512,37.43028],[126.67128,37.42584],[126.67304,37.42134],[126.67776,37.41846],[126.67953,37.41781],[126.68641,37.42389],[126.69149,37.42294],[126.68559,37.43019]]]},"properties":{"code":"2818576100","name":"연수1동","parent":"28185"}},{"type":"Feature","geometry":{"type":"Polygon","coordinates":[[[126.69534,37.4171],[126.69464,37.41877],[126.68499,37.41411],[126.67953,37.41781],[126.67776,37.41846],[126.67563,37.41365],[126.68552,37.40657],[126.6871,37.41063],[126.69534,37.4171]]]},"properties":{"code":"2818576200","name":"연수2동","parent":"28185"}},{"type":"Feature","geometry":{"type":"Polygon","coordinates":[[[126.69149,37.42294],[126.68641,37.42389],[126.67953,37.41781],[126.68499,37.41411],[126.69464,37.41877],[126.69149,37.42294]]]},"properties":{"code":"2818576300","name":"연수3동","parent":"28185"}},{"type":"Feature","geometry":{"type":"Polygon","coordinates":[[[126.67512,37.43028],[126.66054,37.43549],[126.65637,37.43528],[126.66051,37.42719],[126.6592,37.42331],[126.66128,37.41753],[126.66743,37.41562],[126.67262,37.41693],[126.67563,37.41365],[126.67776,37.41846],[126.67304,37.42134],[126.67128,37.42584],[126.67512,37.43028]]]},"properties":{"code":"2818576600","name":"청학동","parent":"28185"}},{"type":"Feature","geometry":{"type":"Polygon","coordinates":[[[126.67563,37.41365],[126.67262,37.41693],[126.66743,37.41562],[126.66128,37.41753],[126.64813,37.41313],[126.64112,37.41301],[126.64629,37.40837],[126.65509,37.40064],[126.66331,37.39507],[126.67079,37.40912],[126.67563,37.41365]]]},"properties":{"code":"2818578000","name":"동춘1동","parent":"28185"}},{"type":"Feature","geometry":{"type":"Polygon","coordinates":[[[126.68027,37.40278],[126.67079,37.40912],[126.66331,37.39507],[126.66699,37.39276],[126.66778,37.3923],[126.68027,37.40278]]]},"properties":{"code":"2818579000","name":"동춘2동","parent":"28185"}},{"type":"Feature","geometry":{"type":"Polygon","coordinates":[[[126.68552,37.40657],[126.67563,37.41365],[126.67079,37.40912],[126.68027,37.40278],[126.68552,37.40657]]]},"properties":{"code":"2818579500","name":"동춘3동","parent":"28185"}},{"type":"Feature","geometry":{"type":"Polygon","coordinates":[[[126.65637,37.43528],[126.64813,37.43512],[126.64059,37.43046],[126.63468,37.431],[126.63497,37.43003],[126.63729,37.42153],[126.64474,37.42432],[126.65213,37.42459],[126.65484,37.4283],[126.66051,37.42719],[126.65637,37.43528]]]},"properties":{"code":"2818564000","name":"옥련2동","parent":"28185"}},{"type":"Feature","geometry":{"type":"Polygon","coordinates":[[[126.60977,37.40657],[126.60987,37.38716],[126.61607,37.37925],[126.62473,37.37415],[126.62676,37.37401],[126.63958,37.38588],[126.6248,37.40912],[126.60977,37.40657]]]},"properties":{"code":"2818585000","name":"송도4동","parent":"28185"}},{"type":"Feature","geometry":{"type":"Polygon","coordinates":[[[126.66331,37.39507],[126.65509,37.40064],[126.63958,37.38588],[126.62676,37.37401],[126.63603,37.36798],[126.64132,37.36604],[126.66699,37.39276],[126.66331,37.39507]]]},"properties":{"code":"2818582000","name":"송도1동","parent":"28185"}},{"type":"Feature","geometry":{"type":"Polygon","coordinates":[[[126.66778,37.3923],[126.66699,37.39276],[126.64132,37.36604],[126.63603,37.36798],[126.62676,37.37401],[126.62473,37.37415],[126.61191,37.35531],[126.58453,37.35466],[126.58461,37.34738],[126.61727,37.34732],[126.61731,37.34285],[126.66107,37.34325],[126.71593,37.37907],[126.71771,37.38111],[126.71026,37.38316],[126.6745,37.38911],[126.66778,37.3923]]]},"properties":{"code":"2818584000","name":"송도3동","parent":"28185"}},{"type":"Feature","geometry":{"type":"Polygon","coordinates":[[[126.71897,37.45224],[126.70811,37.45304],[126.70867,37.45698],[126.70185,37.45474],[126.70018,37.44362],[126.70236,37.43887],[126.7062,37.43415],[126.71776,37.44079],[126.71897,37.45224]]]},"properties":{"code":"2820051000","name":"구월1동","parent":"28200"}},{"type":"Feature","geometry":{"type":"Polygon","coordinates":[[[126.72182,37.46068],[126.72007,37.46109],[126.7125,37.46065],[126.70867,37.45698],[126.70811,37.45304],[126.71897,37.45224],[126.72163,37.45574],[126.72182,37.46068]]]},"properties":{"code":"2820052000","name":"구월2동","parent":"28200"}},{"type":"Feature","geometry":{"type":"Polygon","coordinates":[[[126.70185,37.45474],[126.69504,37.45566],[126.69261,37.45054],[126.69288,37.44823],[126.70018,37.44362],[126.70185,37.45474]]]},"properties":{"code":"2820052100","name":"구월3동","parent":"28200"}},{"type":"Feature","geometry":{"type":"Polygon","coordinates":[[[126.72163,37.45574],[126.71897,37.45224],[126.71776,37.44079],[126.72774,37.44464],[126.72974,37.44784],[126.72595,37.45187],[126.72163,37.45574]]]},"properties":{"code":"2820052200","name":"구월4동","parent":"28200"}},{"type":"Feature","geometry":{"type":"Polygon","coordinates":[[[126.70795,37.46684],[126.69724,37.46129],[126.69453,37.45598],[126.69504,37.45566],[126.70185,37.45474],[126.70867,37.45698],[126.70795,37.46684]]]},"properties":{"code":"2820053000","name":"간석1동","parent":"28200"}},{"type":"Feature","geometry":{"type":"Polygon","coordinates":[[[126.70867,37.45698],[126.7125,37.46065],[126.72007,37.46109],[126.70797,37.46715],[126.70795,37.46684],[126.70867,37.45698]]]},"properties":{"code":"2820054000","name":"간석2동","parent":"28200"}},{"type":"Feature","geometry":{"type":"Polygon","coordinates":[[[126.72285,37.47027],[126.71094,37.47962],[126.70961,37.47589],[126.70798,37.46933],[126.70797,37.46715],[126.72007,37.46109],[126.72182,37.46068],[126.72285,37.47027]]]},"properties":{"code":"2820055000","name":"간석3동","parent":"28200"}},{"type":"Feature","geometry":{"type":"Polygon","coordinates":[[[126.69339,37.46994],[126.68605,37.47202],[126.6868,37.46621],[126.69294,37.46472],[126.69724,37.46129],[126.70795,37.46684],[126.70797,37.46715],[126.70798,37.46933],[126.69761,37.46809],[126.69339,37.46994]]]},"properties":{"code":"2820055100","name":"간석4동","parent":"28200"}},{"type":"Feature","geometry":{"type":"Polygon","coordinates":[[[126.73334,37.45488],[126.72595,37.45187],[126.72974,37.44784],[126.74023,37.44802],[126.74272,37.45068],[126.73334,37.45488]]]},"properties":{"code":"2820056000","name":"만수1동","parent":"28200"}},{"type":"Feature","geometry":{"type":"Polygon","coordinates":[[[126.74514,37.46537],[126.73847,37.4709],[126.73229,37.47159],[126.73127,37.46448],[126.72726,37.45903],[126.7307,37.45661],[126.73558,37.46169],[126.74263,37.46007],[126.74514,37.46537]]]},"properties":{"code":"2820057000","name":"만수2동","parent":"28200"}},{"type":"Feature","geometry":{"type":"Polygon","coordinates":[[[126.73118,37.47244],[126.72285,37.47027],[126.72182,37.46068],[126.72726,37.45903],[126.73127,37.46448],[126.73229,37.47159],[126.73118,37.47244]]]},"properties":{"code":"2820058000","name":"만수3동","parent":"28200"}},{"type":"Feature","geometry":{"type":"Polygon","coordinates":[[[126.74263,37.46007],[126.73558,37.46169],[126.7307,37.45661],[126.73334,37.45488],[126.74272,37.45068],[126.74263,37.46007]]]},"properties":{"code":"2820058100","name":"만수4동","parent":"28200"}},{"type":"Feature","geometry":{"type":"Polygon","coordinates":[[[126.72726,37.45903],[126.72182,37.46068],[126.72163,37.45574],[126.72595,37.45187],[126.73334,37.45488],[126.7307,37.45661],[126.72726,37.45903]]]},"properties":{"code":"2820058200","name":"만수5동","parent":"28200"}},{"type":"Feature","geometry":{"type":"Polygon","coordinates":[[[126.74023,37.44802],[126.72974,37.44784],[126.73633,37.43773],[126.73568,37.43301],[126.74179,37.43285],[126.74346,37.43833],[126.74928,37.44182],[126.75025,37.44514],[126.74023,37.44802]]]},"properties":{"code":"2820058300","name":"만수6동","parent":"28200"}},{"type":"Feature","geometry":{"type":"Polygon","coordinates":[[[126.74179,37.43285],[126.73568,37.43301],[126.74002,37.4207],[126.74748,37.41959],[126.75329,37.41692],[126.75369,37.42254],[126.76098,37.42629],[126.75915,37.43221],[126.74179,37.43285]]]},"properties":{"code":"2820065500","name":"서창2동","parent":"28200"}},{"type":"Feature","geometry":{"type":"Polygon","coordinates":[[[126.73568,37.43301],[126.73633,37.43773],[126.72974,37.44784],[126.72774,37.44464],[126.71776,37.44079],[126.7062,37.43415],[126.70412,37.42492],[126.69534,37.4171],[126.70882,37.41031],[126.71342,37.41285],[126.71844,37.40838],[126.72401,37.41022],[126.73134,37.41162],[126.74002,37.4207],[126.73568,37.43301]]]},"properties":{"code":"2820066000","name":"남촌도림동","parent":"28200"}},{"type":"Feature","geometry":{"type":"Polygon","coordinates":[[[126.75329,37.41692],[126.74748,37.41959],[126.74002,37.4207],[126.73134,37.41162],[126.72401,37.41022],[126.72442,37.40103],[126.7315,37.40183],[126.73836,37.39652],[126.74384,37.40037],[126.75058,37.40761],[126.75329,37.41692]]]},"properties":{"code":"2820069000","name":"논현1동","parent":"28200"}},{"type":"Feature","geometry":{"type":"Polygon","coordinates":[[[126.72401,37.41022],[126.71844,37.40838],[126.71342,37.41285],[126.70882,37.41031],[126.69534,37.4171],[126.6871,37.41063],[126.68953,37.41127],[126.70302,37.40306],[126.71232,37.39903],[126.72442,37.40103],[126.72401,37.41022]]]},"properties":{"code":"2820070000","name":"논현2동","parent":"28200"}},{"type":"Feature","geometry":{"type":"Polygon","coordinates":[[[126.72442,37.40103],[126.71232,37.39903],[126.70302,37.40306],[126.68953,37.41127],[126.6871,37.41063],[126.68552,37.40657],[126.68027,37.40278],[126.66778,37.3923],[126.6745,37.38911],[126.71026,37.38316],[126.71771,37.38111],[126.72091,37.38114],[126.73654,37.39543],[126.73836,37.39652],[126.7315,37.40183],[126.72442,37.40103]]]},"properties":{"code":"2820071000","name":"논현고잔동","parent":"28200"}},{"type":"Feature","geometry":{"type":"Polygon","coordinates":[[[126.72298,37.49398],[126.72104,37.50662],[126.72071,37.5065],[126.71513,37.50359],[126.71619,37.49782],[126.71636,37.49108],[126.71726,37.48947],[126.72156,37.48962],[126.7295,37.4891],[126.72298,37.49398]]]},"properties":{"code":"2823751000","name":"부평1동","parent":"28237"}},{"type":"Feature","geometry":{"type":"Polygon","coordinates":[[[126.73035,37.47918],[126.72333,37.48137],[126.72156,37.48962],[126.71726,37.48947],[126.7127,37.48546],[126.71094,37.47962],[126.72285,37.47027],[126.73118,37.47244],[126.73246,37.47754],[126.73035,37.47918]]]},"properties":{"code":"2823752000","name":"부평2동","parent":"28237"}},{"type":"Feature","geometry":{"type":"Polygon","coordinates":[[[126.71726,37.48947],[126.71636,37.49108],[126.7122,37.49089],[126.70712,37.48706],[126.70154,37.48661],[126.70135,37.4851],[126.70456,37.48094],[126.70961,37.47589],[126.71094,37.47962],[126.7127,37.48546],[126.71726,37.48947]]]},"properties":{"code":"2823753000","name":"부평3동","parent":"28237"}},{"type":"Feature","geometry":{"type":"Polygon","coordinates":[[[126.73122,37.50702],[126.7208,37.50736],[126.72104,37.50662],[126.72298,37.49398],[126.73041,37.49812],[126.73113,37.50529],[126.73122,37.50702]]]},"properties":{"code":"2823754000","name":"부평4동","parent":"28237"}},{"type":"Feature","geometry":{"type":"Polygon","coordinates":[[[126.73379,37.4979],[126.73427,37.50274],[126.73113,37.50529],[126.73041,37.49812],[126.72298,37.49398],[126.7295,37.4891],[126.73232,37.48898],[126.73379,37.4979]]]},"properties":{"code":"2823755000","name":"부평5동","parent":"28237"}},{"type":"Feature","geometry":{"type":"Polygon","coordinates":[[[126.7295,37.4891],[126.72156,37.48962],[126.72333,37.48137],[126.73035,37.47918],[126.73232,37.48898],[126.7295,37.4891]]]},"properties":{"code":"2823756000","name":"부평6동","parent":"28237"}},{"type":"Feature","geometry":{"type":"Polygon","coordinates":[[[126.70392,37.51302],[126.69326,37.51376],[126.6883,37.50844],[126.68845,37.50521],[126.691,37.50379],[126.68997,37.49944],[126.69284,37.49536],[126.69483,37.4917],[126.70258,37.49625],[126.69965,37.50455],[126.70317,37.50436],[126.70371,37.5105],[126.70392,37.51302]]]},"properties":{"code":"2823757000","name":"산곡1동","parent":"28237"}},{"type":"Feature","geometry":{"type":"Polygon","coordinates":[[[126.70891,37.50614],[126.70928,37.51019],[126.70371,37.5105],[126.70317,37.50436],[126.69965,37.50455],[126.70258,37.49625],[126.70906,37.49882],[126.70891,37.50614]]]},"properties":{"code":"2823758000","name":"산곡2동","parent":"28237"}},{"type":"Feature","geometry":{"type":"Polygon","coordinates":[[[126.71619,37.49782],[126.70906,37.49882],[126.70258,37.49625],[126.69483,37.4917],[126.70154,37.48661],[126.70712,37.48706],[126.7122,37.49089],[126.71636,37.49108],[126.71619,37.49782]]]},"properties":{"code":"2823758100","name":"산곡3동","parent":"28237"}},{"type":"Feature","geometry":{"type":"Polygon","coordinates":[[[126.71513,37.50359],[126.70891,37.50614],[126.70906,37.49882],[126.71619,37.49782],[126.71513,37.50359]]]},"properties":{"code":"2823758200","name":"산곡4동","parent":"28237"}},{"type":"Feature","geometry":{"type":"Polygon","coordinates":[[[126.70497,37.52363],[126.68916,37.52356],[126.68913,37.52347],[126.68322,37.517],[126.68328,37.51466],[126.6883,37.50844],[126.69326,37.51376],[126.70392,37.51302],[126.70497,37.52363]]]},"properties":{"code":"2823759100","name":"청천1동","parent":"28237"}},{"type":"Feature","geometry":{"type":"Polygon","coordinates":[[[126.72071,37.5065],[126.72213,37.52381],[126.71916,37.52377],[126.70497,37.52363],[126.70392,37.51302],[126.70371,37.5105],[126.70928,37.51019],[126.70891,37.50614],[126.71513,37.50359],[126.72071,37.5065]]]},"properties":{"code":"2823759200","name":"청천2동","parent":"28237"}},{"type":"Feature","geometry":{"type":"Polygon","coordinates":[[[126.72589,37.5238],[126.72213,37.52381],[126.72071,37.5065],[126.72104,37.50662],[126.7208,37.50736],[126.7255,37.51462],[126.73198,37.51479],[126.73228,37.51765],[126.73299,37.52386],[126.72589,37.5238]]]},"properties":{"code":"2823764100","name":"갈산1동","parent":"28237"}},{"type":"Feature","geometry":{"type":"Polygon","coordinates":[[[126.73122,37.50702],[126.73198,37.51479],[126.7255,37.51462],[126.7208,37.50736],[126.73122,37.50702]]]},"properties":{"code":"2823764200","name":"갈산2동","parent":"28237"}},{"type":"Feature","geometry":{"type":"Polygon","coordinates":[[[126.76034,37.5241],[126.73299,37.52386],[126.73228,37.51765],[126.752,37.51641],[126.75957,37.51556],[126.761,37.51798],[126.76034,37.5241]]]},"properties":{"code":"2823764600","name":"삼산1동","parent":"28237"}},{"type":"Feature","geometry":{"type":"Polygon","coordinates":[[[126.74242,37.48843],[126.73232,37.48898],[126.73035,37.47918],[126.73246,37.47754],[126.74184,37.48409],[126.7426,37.48665],[126.74242,37.48843]]]},"properties":{"code":"2823765000","name":"부개1동","parent":"28237"}},{"type":"Feature","geometry":{"type":"Polygon","coordinates":[[[126.74256,37.49722],[126.73379,37.4979],[126.73232,37.48898],[126.74242,37.48843],[126.74242,37.48849],[126.74256,37.49722]]]},"properties":{"code":"2823766000","name":"부개2동","parent":"28237"}},{"type":"Feature","geometry":{"type":"Polygon","coordinates":[[[126.74216,37.50645],[126.73122,37.50702],[126.73113,37.50529],[126.73427,37.50274],[126.73379,37.4979],[126.74256,37.49722],[126.74216,37.50645]]]},"properties":{"code":"2823766100","name":"부개3동","parent":"28237"}},{"type":"Feature","geometry":{"type":"Polygon","coordinates":[[[126.76179,37.47633],[126.75525,37.48082],[126.75452,37.4837],[126.7426,37.48665],[126.74184,37.48409],[126.73246,37.47754],[126.73118,37.47244],[126.73229,37.47159],[126.73847,37.4709],[126.74514,37.46537],[126.75452,37.46573],[126.75694,37.46917],[126.76774,37.47176],[126.76179,37.47633]]]},"properties":{"code":"2823767000","name":"일신동","parent":"28237"}},{"type":"Feature","geometry":{"type":"Polygon","coordinates":[[[126.70135,37.4851],[126.69263,37.48535],[126.69065,37.47908],[126.68742,37.47631],[126.68404,37.47335],[126.68605,37.47202],[126.69339,37.46994],[126.70456,37.48094],[126.70135,37.4851]]]},"properties":{"code":"2823768000","name":"십정1동","parent":"28237"}},{"type":"Feature","geometry":{"type":"Polygon","coordinates":[[[126.70961,37.47589],[126.70456,37.48094],[126.69339,37.46994],[126.69761,37.46809],[126.70798,37.46933],[126.70961,37.47589]]]},"properties":{"code":"2823769000","name":"십정2동","parent":"28237"}},{"type":"Feature","geometry":{"type":"Polygon","coordinates":[[[126.752,37.51641],[126.73228,37.51765],[126.73198,37.51479],[126.73122,37.50702],[126.74216,37.50645],[126.7451,37.51408],[126.752,37.51641]]]},"properties":{"code":"2823764800","name":"삼산2동","parent":"28237"}},{"type":"Feature","geometry":{"type":"Polygon","coordinates":[[[126.71732,37.53629],[126.71123,37.54002],[126.70366,37.54176],[126.69928,37.54043],[126.70241,37.52778],[126.71837,37.52792],[126.71732,37.53629]]]},"properties":{"code":"2824560100","name":"효성1동","parent":"28245"}},{"type":"Feature","geometry":{"type":"Polygon","coordinates":[[[126.69928,37.54043],[126.69267,37.54115],[126.69142,37.53598],[126.68361,37.5352],[126.68692,37.53074],[126.68916,37.52356],[126.70497,37.52363],[126.71916,37.52377],[126.71837,37.52792],[126.70241,37.52778],[126.69928,37.54043]]]},"properties":{"code":"2824560200","name":"효성2동","parent":"28245"}},{"type":"Feature","geometry":{"type":"Polygon","coordinates":[[[126.72899,37.54325],[126.71469,37.54404],[126.7085,37.54651],[126.70366,37.54176],[126.71123,37.54002],[126.71732,37.53629],[126.72799,37.53629],[126.72899,37.54325]]]},"properties":{"code":"2824561100","name":"계산1동","parent":"28245"}},{"type":"Feature","geometry":{"type":"Polygon","coordinates":[[[126.72334,37.55251],[126.71213,37.55256],[126.7085,37.54651],[126.71469,37.54404],[126.72899,37.54325],[126.7341,37.54299],[126.72334,37.55251]]]},"properties":{"code":"2824561200","name":"계산2동","parent":"28245"}},{"type":"Feature","geometry":{"type":"Polygon","coordinates":[[[126.7341,37.54299],[126.72899,37.54325],[126.72799,37.53629],[126.73416,37.53519],[126.73687,37.5429],[126.7341,37.54299]]]},"properties":{"code":"2824561300","name":"계산3동","parent":"28245"}},{"type":"Feature","geometry":{"type":"Polygon","coordinates":[[[126.73416,37.53519],[126.72799,37.53629],[126.72513,37.5299],[126.72589,37.5238],[126.73299,37.52386],[126.73405,37.5341],[126.73416,37.53519]]]},"properties":{"code":"2824562100","name":"작전1동","parent":"28245"}},{"type":"Feature","geometry":{"type":"Polygon","coordinates":[[[126.72799,37.53629],[126.71732,37.53629],[126.71837,37.52792],[126.71916,37.52377],[126.72213,37.52381],[126.72589,37.5238],[126.72513,37.5299],[126.72799,37.53629]]]},"properties":{"code":"2824562200","name":"작전2동","parent":"28245"}},{"type":"Feature","geometry":{"type":"Polygon","coordinates":[[[126.76095,37.53786],[126.74463,37.53824],[126.74364,37.53348],[126.73405,37.5341],[126.73299,37.52386],[126.76034,37.5241],[126.76068,37.53556],[126.76095,37.53786]]]},"properties":{"code":"2824564000","name":"작전서운동","parent":"28245"}},{"type":"Feature","geometry":{"type":"Polygon","coordinates":[[[126.7616,37.54023],[126.75446,37.54422],[126.75267,37.55099],[126.74467,37.5526],[126.73946,37.55591],[126.7363,37.56059],[126.72578,37.55813],[126.72334,37.55251],[126.7341,37.54299],[126.73687,37.5429],[126.74567,37.5445],[126.74463,37.53824],[126.76095,37.53786],[126.7616,37.54023]]]},"properties":{"code":"2824572000","name":"계양2동","parent":"28245"}},{"type":"Feature","geometry":{"type":"Polygon","coordinates":[[[126.74463,37.53824],[126.74567,37.5445],[126.73687,37.5429],[126.73416,37.53519],[126.73405,37.5341],[126.74364,37.53348],[126.74463,37.53824]]]},"properties":{"code":"2824561400","name":"계산4동","parent":"28245"}},{"type":"Feature","geometry":{"type":"Polygon","coordinates":[[[126.76308,37.58489],[126.7577,37.58479],[126.75474,37.58043],[126.74646,37.58686],[126.74362,37.59335],[126.73705,37.59318],[126.73502,37.59047],[126.72901,37.59294],[126.72513,37.592],[126.71777,37.58533],[126.71774,37.5815],[126.7133,37.57769],[126.70367,37.58032],[126.6933,37.58225],[126.69206,37.58243],[126.69079,37.58269],[126.68711,37.58371],[126.68681,37.58382],[126.68309,37.58146],[126.68245,37.57722],[126.69906,37.57338],[126.70029,37.57204],[126.70014,37.56559],[126.70338,37.56387],[126.70235,37.56075],[126.69951,37.55889],[126.70657,37.55706],[126.71213,37.55256],[126.72334,37.55251],[126.72578,37.55813],[126.7363,37.56059],[126.73946,37.55591],[126.74467,37.5526],[126.75267,37.55099],[126.75446,37.54422],[126.7616,37.54023],[126.76351,37.54675],[126.7566,37.54877],[126.75818,37.55239],[126.75047,37.55583],[126.74227,37.56596],[126.73836,37.57334],[126.75644,37.57388],[126.76134,37.57622],[126.76308,37.58489]]]},"properties":{"code":"2824571000","name":"계양1동","parent":"28245"}},{"type":"Feature","geometry":{"type":"Polygon","coordinates":[[[126.79367,37.5816],[126.78705,37.58555],[126.78411,37.58259],[126.77336,37.58512],[126.76731,37.58803],[126.76308,37.58489],[126.76134,37.57622],[126.75644,37.57388],[126.73836,37.57334],[126.74227,37.56596],[126.75047,37.55583],[126.75818,37.55239],[126.7566,37.54877],[126.76351,37.54675],[126.7662,37.55413],[126.7666,37.55667],[126.77563,37.5618],[126.77696,37.56634],[126.78757,37.5756],[126.79367,37.5816]]]},"properties":{"code":"2824573000","name":"계양3동","parent":"28245"}},{"type":"Feature","geometry":{"type":"Polygon","coordinates":[[[126.69951,37.55889],[126.69117,37.55812],[126.68635,37.56216],[126.68209,37.5621],[126.67746,37.55623],[126.67062,37.55375],[126.66549,37.55317],[126.66289,37.55189],[126.65613,37.54925],[126.65012,37.54361],[126.64995,37.54029],[126.65935,37.54093],[126.66327,37.53865],[126.66605,37.54012],[126.67652,37.53853],[126.68361,37.5352],[126.69142,37.53598],[126.69267,37.54115],[126.69928,37.54043],[126.70366,37.54176],[126.7085,37.54651],[126.71213,37.55256],[126.70657,37.55706],[126.69951,37.55889]]]},"properties":{"code":"2827553000","name":"연희동","parent":"28275"}},{"type":"Feature","geometry":{"type":"Polygon","coordinates":[[[126.67652,37.53853],[126.66605,37.54012],[126.66327,37.53865],[126.66264,37.5255],[126.66929,37.52496],[126.67323,37.52242],[126.67269,37.51342],[126.67663,37.51327],[126.68011,37.52095],[126.6772,37.52238],[126.67652,37.53853]]]},"properties":{"code":"2827554200","name":"가정1동","parent":"28275"}},{"type":"Feature","geometry":{"type":"Polygon","coordinates":[[[126.68361,37.5352],[126.67652,37.53853],[126.6772,37.52238],[126.68011,37.52095],[126.68913,37.52347],[126.68916,37.52356],[126.68692,37.53074],[126.68361,37.5352]]]},"properties":{"code":"2827554300","name":"가정2동","parent":"28275"}},{"type":"Feature","geometry":{"type":"Polygon","coordinates":[[[126.68328,37.51466],[126.68322,37.517],[126.68913,37.52347],[126.68011,37.52095],[126.67663,37.51327],[126.68328,37.51466]]]},"properties":{"code":"2827554400","name":"가정3동","parent":"28275"}},{"type":"Feature","geometry":{"type":"Polygon","coordinates":[[[126.67269,37.51342],[126.66501,37.51372],[126.66059,37.50924],[126.66181,37.50686],[126.67621,37.50624],[126.67663,37.51327],[126.67269,37.51342]]]},"properties":{"code":"2827555000","name":"석남1동","parent":"28275"}},{"type":"Feature","geometry":{"type":"Polygon","coordinates":[[[126.67621,37.50624],[126.66181,37.50686],[126.66059,37.50924],[126.65258,37.50662],[126.64261,37.50668],[126.64111,37.50498],[126.64101,37.49916],[126.6758,37.49921],[126.67621,37.50624]]]},"properties":{"code":"2827556000","name":"석남2동","parent":"28275"}},{"type":"Feature","geometry":{"type":"Polygon","coordinates":[[[126.6883,37.50844],[126.68328,37.51466],[126.67663,37.51327],[126.67621,37.50624],[126.6758,37.49921],[126.68417,37.50011],[126.68845,37.50521],[126.6883,37.50844]]]},"properties":{"code":"2827556100","name":"석남3동","parent":"28275"}},{"type":"Feature","geometry":{"type":"Polygon","coordinates":[[[126.6758,37.49921],[126.64101,37.49916],[126.64076,37.49587],[126.65536,37.48816],[126.66476,37.48246],[126.67048,37.47685],[126.67438,37.47551],[126.6758,37.49921]]]},"properties":{"code":"2827558000","name":"가좌1동","parent":"28275"}},{"type":"Feature","geometry":{"type":"Polygon","coordinates":[[[126.69284,37.49536],[126.68997,37.49944],[126.691,37.50379],[126.68038,37.49312],[126.68002,37.487],[126.68924,37.49482],[126.69284,37.49536]]]},"properties":{"code":"2827559000","name":"가좌2동","parent":"28275"}},{"type":"Feature","geometry":{"type":"Polygon","coordinates":[[[126.68845,37.50521],[126.68417,37.50011],[126.6758,37.49921],[126.67438,37.47551],[126.68404,37.47335],[126.68742,37.47631],[126.67675,37.48418],[126.68002,37.487],[126.68038,37.49312],[126.691,37.50379],[126.68845,37.50521]]]},"properties":{"code":"2827560000","name":"가좌3동","parent":"28275"}},{"type":"Feature","geometry":{"type":"Polygon","coordinates":[[[126.69483,37.4917],[126.69284,37.49536],[126.68924,37.49482],[126.68002,37.487],[126.67675,37.48418],[126.68742,37.47631],[126.69065,37.47908],[126.69263,37.48535],[126.70135,37.4851],[126.70154,37.48661],[126.69483,37.4917]]]},"properties":{"code":"2827561000","name":"가좌4동","parent":"28275"}},{"type":"Feature","geometry":{"type":"Polygon","coordinates":[[[126.65944,37.63823],[126.65601,37.63801],[126.65169,37.63517],[126.64758,37.62874],[126.66108,37.61631],[126.67769,37.61078],[126.67969,37.60657],[126.6765,37.60387],[126.67581,37.59868],[126.67931,37.59658],[126.68952,37.59722],[126.69401,37.59955],[126.69632,37.60407],[126.70425,37.60555],[126.70416,37.61255],[126.69863,37.61746],[126.68519,37.6242],[126.67931,37.62989],[126.67517,37.62995],[126.67094,37.63436],[126.65944,37.63823]]]},"properties":{"code":"2829052000","name":"불로대곡동","parent":"28290"}},{"type":"Feature","geometry":{"type":"Polygon","coordinates":[[[126.70456,37.60264],[126.70451,37.60265],[126.70425,37.60555],[126.69632,37.60407],[126.69401,37.59955],[126.68952,37.59722],[126.68843,37.5946],[126.68878,37.58807],[126.69455,37.58493],[126.6933,37.58225],[126.70367,37.58032],[126.70095,37.58212],[126.70395,37.59044],[126.70247,37.59314],[126.70202,37.59533],[126.70527,37.59655],[126.70281,37.59747],[126.70376,37.59969],[126.70327,37.60046],[126.70393,37.60073],[126.70404,37.60157],[126.70456,37.60264]]]},"properties":{"code":"2829053000","name":"원당동","parent":"28290"}},{"type":"Feature","geometry":{"type":"Polygon","coordinates":[[[126.66264,37.5255],[126.65909,37.52278],[126.65134,37.52078],[126.64893,37.51634],[126.63617,37.52],[126.63266,37.51598],[126.61741,37.51118],[126.61094,37.51291],[126.60413,37.51006],[126.60439,37.49681],[126.62679,37.49722],[126.62971,37.50238],[126.64111,37.50498],[126.64261,37.50668],[126.65258,37.50662],[126.66059,37.50924],[126.66501,37.51372],[126.67269,37.51342],[126.67323,37.52242],[126.66929,37.52496],[126.66264,37.5255]]]},"properties":{"code":"2827557500","name":"신현원창동","parent":"28275"}},{"type":"Feature","geometry":{"type":"Polygon","coordinates":[[[126.66327,37.53865],[126.65935,37.54093],[126.64995,37.54029],[126.64893,37.51634],[126.65134,37.52078],[126.65909,37.52278],[126.66264,37.5255],[126.66327,37.53865]]]},"properties":{"code":"2827553600","name":"청라1동","parent":"28275"}},{"type":"Feature","geometry":{"type":"Polygon","coordinates":[[[126.65012,37.54361],[126.64094,37.54814],[126.63216,37.55035],[126.63189,37.5298],[126.63617,37.52],[126.64893,37.51634],[126.64995,37.54029],[126.65012,37.54361]]]},"properties":{"code":"2827553700","name":"청라2동","parent":"28275"}},{"type":"Feature","geometry":{"type":"Polygon","coordinates":[[[126.67581,37.59868],[126.6765,37.60387],[126.67969,37.60657],[126.67769,37.61078],[126.66108,37.61631],[126.64758,37.62874],[126.64492,37.6286],[126.63695,37.62603],[126.62929,37.61096],[126.62769,37.60597],[126.6346,37.60633],[126.65614,37.60273],[126.6639,37.59914],[126.67581,37.59868]]]},"properties":{"code":"2829051000","name":"검단동","parent":"28290"}},{"type":"Feature","geometry":{"type":"Polygon","coordinates":[[[126.52602,37.73809],[126.5269,37.74783],[126.52245,37.75178],[126.51239,37.76354],[126.51424,37.7713],[126.51076,37.77513],[126.50804,37.7833],[126.4983,37.788],[126.48751,37.79151],[126.48428,37.77706],[126.48706,37.77077],[126.48317,37.76856],[126.48019,37.76304],[126.48142,37.75631],[126.47324,37.75992],[126.46731,37.75108],[126.45703,37.74811],[126.45079,37.74897],[126.4406,37.74446],[126.43747,37.74398],[126.44204,37.73297],[126.4419,37.72871],[126.44868,37.73273],[126.45275,37.7315],[126.45901,37.73622],[126.4679,37.73691],[126.46855,37.73201],[126.47638,37.72937],[126.48811,37.73644],[126.49314,37.73805],[126.50782,37.73135],[126.51715,37.73261],[126.52237,37.73127],[126.52602,37.73809]]]},"properties":{"code":"2871025000","name":"강화읍","parent":"28710"}},{"type":"Feature","geometry":{"type":"Polygon","coordinates":[[[126.52237,37.73127],[126.51715,37.73261],[126.50782,37.73135],[126.49314,37.73805],[126.48811,37.73644],[126.47638,37.72937],[126.46855,37.73201],[126.4679,37.73691],[126.45901,37.73622],[126.45275,37.7315],[126.44868,37.73273],[126.4419,37.72871],[126.43733,37.72651],[126.44014,37.72032],[126.45697,37.71801],[126.46249,37.71429],[126.46712,37.70841],[126.46668,37.70162],[126.48779,37.6995],[126.49042,37.69792],[126.511,37.69634],[126.51973,37.6908],[126.5255,37.69012],[126.52728,37.70314],[126.51851,37.71273],[126.51846,37.7216],[126.52237,37.73127]]]},"properties":{"code":"2871031000","name":"선원면","parent":"28710"}},{"type":"Feature","geometry":{"type":"Polygon","coordinates":[[[126.5255,37.69012],[126.51973,37.6908],[126.511,37.69634],[126.49042,37.69792],[126.48779,37.6995],[126.46668,37.70162],[126.46712,37.70841],[126.46249,37.71429],[126.45697,37.71801],[126.44014,37.72032],[126.43185,37.71549],[126.4268,37.71073],[126.43193,37.70657],[126.43964,37.69655],[126.44262,37.69032],[126.4419,37.68508],[126.44731,37.6813],[126.45834,37.68011],[126.46256,37.67788],[126.47596,37.67384],[126.49066,37.6699],[126.49271,37.66697],[126.49302,37.65508],[126.50312,37.6527],[126.50775,37.6475],[126.50726,37.64319],[126.51742,37.64347],[126.52138,37.64581],[126.52935,37.646],[126.52896,37.65297],[126.53446,37.65914],[126.5353,37.66633],[126.52411,37.67318],[126.52298,37.67652],[126.52545,37.68741],[126.5255,37.69012]]]},"properties":{"code":"2871032000","name":"불은면","parent":"28710"}},{"type":"Feature","geometry":{"type":"Polygon","coordinates":[[[126.52935,37.646],[126.52138,37.64581],[126.51742,37.64347],[126.50726,37.64319],[126.50775,37.6475],[126.50312,37.6527],[126.49302,37.65508],[126.49271,37.66697],[126.49066,37.6699],[126.47596,37.67384],[126.47193,37.6677],[126.4728,37.66019],[126.47137,37.64934],[126.46732,37.64532],[126.46713,37.63889],[126.46409,37.63702],[126.47072,37.62111],[126.46636,37.62027],[126.472,37.60778],[126.47334,37.59749],[126.4803,37.58358],[126.49264,37.58864],[126.50324,37.58964],[126.51196,37.58124],[126.51861,37.57995],[126.52651,37.58474],[126.525,37.58987],[126.51852,37.59344],[126.52395,37.59647],[126.54112,37.60168],[126.54743,37.60482],[126.54282,37.62258],[126.53547,37.63024],[126.53053,37.63855],[126.52935,37.646]]]},"properties":{"code":"2871033000","name":"길상면","parent":"28710"}},{"type":"Feature","geometry":{"type":"Polygon","coordinates":[[[126.46409,37.63702],[126.45805,37.63743],[126.45091,37.64063],[126.43111,37.64107],[126.42909,37.6449],[126.42086,37.64747],[126.41815,37.65015],[126.41224,37.64801],[126.405,37.65078],[126.40283,37.64728],[126.39529,37.64187],[126.3902,37.64152],[126.37411,37.63727],[126.36598,37.63745],[126.36441,37.63411],[126.372,37.63304],[126.37432,37.6278],[126.37721,37.61568],[126.37243,37.61429],[126.37772,37.60951],[126.38552,37.60765],[126.38611,37.60396],[126.39385,37.60071],[126.40372,37.5941],[126.43571,37.59263],[126.44664,37.59449],[126.45529,37.59335],[126.46266,37.5894],[126.46592,37.59551],[126.47334,37.59749],[126.472,37.60778],[126.46636,37.62027],[126.47072,37.62111],[126.46409,37.63702]]]},"properties":{"code":"2871034000","name":"화도면","parent":"28710"}},{"type":"Feature","geometry":{"type":"Polygon","coordinates":[[[126.4268,37.71073],[126.4195,37.70865],[126.40245,37.70669],[126.39962,37.70251],[126.39712,37.69018],[126.38587,37.69087],[126.39328,37.67784],[126.3957,37.66457],[126.38851,37.65639],[126.405,37.65078],[126.41224,37.64801],[126.41815,37.65015],[126.42086,37.64747],[126.42909,37.6449],[126.43111,37.64107],[126.45091,37.64063],[126.45805,37.63743],[126.46409,37.63702],[126.46713,37.63889],[126.46732,37.64532],[126.47137,37.64934],[126.4728,37.66019],[126.47193,37.6677],[126.47596,37.67384],[126.46256,37.67788],[126.45834,37.68011],[126.44731,37.6813],[126.4419,37.68508],[126.44262,37.69032],[126.43964,37.69655],[126.43193,37.70657],[126.4268,37.71073]]]},"properties":{"code":"2871035000","name":"양도면","parent":"28710"}},{"type":"Feature","geometry":{"type":"Polygon","coordinates":[[[126.3535,37.74359],[126.35205,37.74533],[126.34148,37.74837],[126.3414,37.73854],[126.34318,37.7206],[126.35237,37.70581],[126.37749,37.69639],[126.38587,37.69087],[126.39712,37.69018],[126.39962,37.70251],[126.40245,37.70669],[126.4195,37.70865],[126.4268,37.71073],[126.43185,37.71549],[126.44014,37.72032],[126.43733,37.72651],[126.4419,37.72871],[126.44204,37.73297],[126.43747,37.74398],[126.42928,37.74503],[126.4213,37.74132],[126.40454,37.7381],[126.39997,37.73957],[126.38886,37.73988],[126.37966,37.73768],[126.37059,37.74029],[126.35472,37.74097],[126.3535,37.74359]]]},"properties":{"code":"2871036000","name":"내가면","parent":"28710"}},{"type":"Feature","geometry":{"type":"Polygon","coordinates":[[[126.4406,37.74446],[126.44361,37.75279],[126.44347,37.76253],[126.44563,37.76475],[126.44182,37.77085],[126.44323,37.77829],[126.44263,37.78807],[126.43464,37.78863],[126.42976,37.79217],[126.42818,37.78967],[126.41667,37.78374],[126.4106,37.78763],[126.4012,37.78924],[126.39907,37.78626],[126.39007,37.7812],[126.38224,37.77965],[126.37621,37.77442],[126.37197,37.77366],[126.36065,37.77864],[126.35396,37.77879],[126.35333,37.77653],[126.35481,37.7564],[126.3535,37.74359],[126.35472,37.74097],[126.37059,37.74029],[126.37966,37.73768],[126.38886,37.73988],[126.39997,37.73957],[126.40454,37.7381],[126.4213,37.74132],[126.42928,37.74503],[126.43747,37.74398],[126.4406,37.74446]]]},"properties":{"code":"2871037000","name":"하점면","parent":"28710"}},{"type":"Feature","geometry":{"type":"Polygon","coordinates":[[[126.45356,37.81382],[126.44775,37.81933],[126.44642,37.82344],[126.43926,37.82713],[126.43663,37.83123],[126.42689,37.83337],[126.419,37.82652],[126.41366,37.82469],[126.39387,37.82549],[126.39016,37.82316],[126.37196,37.80547],[126.35749,37.79574],[126.34893,37.79197],[126.3506,37.77869],[126.35396,37.77879],[126.36065,37.77864],[126.37197,37.77366],[126.37621,37.77442],[126.38224,37.77965],[126.39007,37.7812],[126.39907,37.78626],[126.4012,37.78924],[126.4106,37.78763],[126.41667,37.78374],[126.42818,37.78967],[126.42976,37.79217],[126.43079,37.79706],[126.43831,37.80156],[126.45356,37.81382]]]},"properties":{"code":"2871038000","name":"양사면","parent":"28710"}},{"type":"Feature","geometry":{"type":"Polygon","coordinates":[[[126.48751,37.79151],[126.47394,37.79888],[126.46473,37.80496],[126.45356,37.81382],[126.43831,37.80156],[126.43079,37.79706],[126.42976,37.79217],[126.43464,37.78863],[126.44263,37.78807],[126.44323,37.77829],[126.44182,37.77085],[126.44563,37.76475],[126.44347,37.76253],[126.44361,37.75279],[126.4406,37.74446],[126.45079,37.74897],[126.45703,37.74811],[126.46731,37.75108],[126.47324,37.75992],[126.48142,37.75631],[126.48019,37.76304],[126.48317,37.76856],[126.48706,37.77077],[126.48428,37.77706],[126.48751,37.79151]]]},"properties":{"code":"2871039000","name":"송해면","parent":"28710"}},{"type":"Feature","geometry":{"type":"Polygon","coordinates":[[[126.26807,37.81569],[126.26326,37.81829],[126.25681,37.81465],[126.23698,37.81641],[126.23292,37.81104],[126.22318,37.80541],[126.22349,37.8],[126.21852,37.79608],[126.22216,37.79092],[126.21599,37.77838],[126.20919,37.77411],[126.20355,37.77295],[126.20728,37.76833],[126.2268,37.75298],[126.23206,37.75114],[126.23964,37.75708],[126.24148,37.76226],[126.24785,37.76545],[126.25899,37.76456],[126.2705,37.76748],[126.2728,37.76975],[126.28687,37.76603],[126.29014,37.76276],[126.30521,37.77059],[126.31496,37.77369],[126.3224,37.78112],[126.3256,37.78642],[126.33032,37.7892],[126.33023,37.79354],[126.33461,37.79918],[126.32846,37.80393],[126.32151,37.805],[126.31433,37.80279],[126.30567,37.80262],[126.30137,37.80447],[126.29702,37.80253],[126.28275,37.80821],[126.27341,37.81404],[126.26807,37.81569]]]},"properties":{"code":"2871040000","name":"교동면","parent":"28710"}},{"type":"Feature","geometry":{"type":"MultiPolygon","coordinates":[[[[126.23621,37.72903],[126.23044,37.73275],[126.21811,37.71908],[126.23188,37.71593],[126.24723,37.71726],[126.2405,37.72214],[126.23621,37.72903]]],[[[126.2695,37.72536],[126.26664,37.73352],[126.2627,37.73624],[126.25738,37.73344],[126.25679,37.7255],[126.26593,37.72394],[126.2695,37.72536]]],[[[126.33045,37.74681],[126.33056,37.74901],[126.32395,37.75428],[126.31767,37.75292],[126.30377,37.74652],[126.29399,37.74622],[126.28892,37.74403],[126.28688,37.72781],[126.28478,37.71766],[126.28217,37.71319],[126.27156,37.71271],[126.26994,37.70829],[126.28335,37.70008],[126.28514,37.69623],[126.29626,37.69041],[126.31332,37.68461],[126.3173,37.68174],[126.32374,37.669],[126.32695,37.66659],[126.32682,37.66203],[126.32339,37.65911],[126.32258,37.64454],[126.32503,37.64144],[126.34281,37.64358],[126.35193,37.64867],[126.37661,37.66793],[126.37696,37.67532],[126.37959,37.6822],[126.37577,37.68764],[126.37533,37.69225],[126.37193,37.69523],[126.34639,37.69916],[126.33948,37.70266],[126.33822,37.70736],[126.33173,37.709],[126.32965,37.71541],[126.3206,37.71611],[126.32302,37.73187],[126.33045,37.74681]]]]},"properties":{"code":"2871041000","name":"삼산면","parent":"28710"}},{"type":"Feature","geometry":{"type":"MultiPolygon","coordinates":[[[[126.27431,37.63199],[126.27598,37.63822],[126.27445,37.64417],[126.27625,37.65072],[126.26985,37.65648],[126.26586,37.64834],[126.26879,37.63739],[126.27431,37.63199]]],[[[126.24399,37.65277],[126.23668,37.65393],[126.23294,37.65648],[126.22541,37.64888],[126.23381,37.63793],[126.24588,37.63099],[126.25937,37.62755],[126.25954,37.63082],[126.25427,37.63238],[126.25141,37.63758],[126.25145,37.6431],[126.25719,37.65268],[126.25314,37.65441],[126.24399,37.65277]]],[[[126.23504,37.66218],[126.22384,37.6663],[126.22139,37.66292],[126.22438,37.65789],[126.23504,37.66218]]],[[[126.19631,37.68493],[126.192,37.68881],[126.18822,37.68488],[126.1722,37.67668],[126.16676,37.67991],[126.16113,37.67889],[126.15473,37.67267],[126.16856,37.66837],[126.17769,37.66955],[126.18911,37.66404],[126.1941,37.65839],[126.20477,37.65625],[126.2061,37.66075],[126.21124,37.66701],[126.20531,37.66979],[126.19615,37.68168],[126.19631,37.68493]]],[[[126.1286,37.69173],[126.1219,37.69011],[126.12657,37.68156],[126.13171,37.68264],[126.13802,37.68091],[126.14424,37.68138],[126.14388,37.68587],[126.13366,37.68891],[126.1286,37.69173]]]]},"properties":{"code":"2871042000","name":"서도면","parent":"28710"}},{"type":"Feature","geometry":{"type":"MultiPolygon","coordinates":[[[[126.41111,37.52609],[126.414,37.54022],[126.40372,37.53579],[126.40113,37.53137],[126.40471,37.52743],[126.41111,37.52609]]],[[[126.47251,37.53755],[126.46623,37.53907],[126.4614,37.54446],[126.45698,37.54453],[126.45487,37.5381],[126.44904,37.53352],[126.44364,37.53406],[126.43246,37.52451],[126.42927,37.51837],[126.43678,37.5147],[126.45091,37.51891],[126.45838,37.51725],[126.46383,37.51101],[126.47064,37.51178],[126.46855,37.51633],[126.47077,37.52229],[126.46689,37.52475],[126.47389,37.5287],[126.47251,37.53755]]],[[[126.43202,37.54539],[126.42792,37.54839],[126.42398,37.54666],[126.42018,37.5378],[126.42194,37.53299],[126.41616,37.522],[126.42221,37.52276],[126.43163,37.53101],[126.4351,37.53983],[126.43202,37.54539]]],[[[126.32976,37.55067],[126.31972,37.55615],[126.30989,37.56022],[126.30898,37.55609],[126.31487,37.5509],[126.32739,37.54262],[126.32968,37.53555],[126.32783,37.53096],[126.3298,37.52551],[126.33985,37.52677],[126.36067,37.53067],[126.37915,37.5286],[126.384,37.53076],[126.38446,37.53858],[126.36485,37.53489],[126.35303,37.53557],[126.34353,37.53955],[126.33746,37.55177],[126.32976,37.55067]]]]},"properties":{"code":"2872031000","name":"북도면","parent":"28720"}},{"type":"Feature","geometry":{"type":"MultiPolygon","coordinates":[[[[125.72004,37.60474],[125.72099,37.61398],[125.71338,37.61557],[125.70578,37.61187],[125.71117,37.60685],[125.72004,37.60474]]],[[[125.7158,37.68011],[125.70412,37.68123],[125.69207,37.67738],[125.68704,37.67792],[125.68349,37.68123],[125.6768,37.67962],[125.67764,37.67401],[125.68382,37.67093],[125.68493,37.66473],[125.68118,37.66269],[125.68292,37.65368],[125.69267,37.6518],[125.71042,37.66625],[125.71196,37.67086],[125.71723,37.67531],[125.7158,37.68011]]]]},"properties":{"code":"2872038000","name":"연평면","parent":"28720"}},{"type":"Feature","geometry":{"type":"Polygon","coordinates":[[[124.70666,37.9834],[124.69582,37.98276],[124.69107,37.97964],[124.68307,37.98205],[124.67858,37.97948],[124.67418,37.9819],[124.66778,37.97741],[124.65507,37.97304],[124.64743,37.97341],[124.64255,37.96909],[124.63822,37.96913],[124.62341,37.97672],[124.6156,37.97809],[124.60979,37.97006],[124.61123,37.96094],[124.61821,37.95848],[124.62419,37.95428],[124.62231,37.94709],[124.63034,37.93741],[124.63342,37.92954],[124.63863,37.92252],[124.6495,37.92234],[124.65558,37.92067],[124.66511,37.92248],[124.67147,37.91927],[124.67985,37.92196],[124.68969,37.91449],[124.69633,37.91702],[124.69963,37.92099],[124.69856,37.92515],[124.70443,37.9307],[124.70387,37.93817],[124.708,37.9441],[124.71708,37.94822],[124.72364,37.95338],[124.72779,37.95415],[124.73491,37.95137],[124.73553,37.95688],[124.74626,37.95873],[124.73291,37.96569],[124.72952,37.97826],[124.72158,37.98199],[124.70666,37.9834]]]},"properties":{"code":"2872033000","name":"백령면","parent":"28720"}},{"type":"Feature","geometry":{"type":"MultiPolygon","coordinates":[[[[124.76943,37.77966],[124.76154,37.77798],[124.7511,37.7777],[124.742,37.77572],[124.74101,37.77251],[124.73431,37.77089],[124.732,37.76449],[124.7383,37.76156],[124.74069,37.76573],[124.75273,37.76976],[124.76447,37.76557],[124.77206,37.77738],[124.76943,37.77966]]],[[[124.70687,37.84678],[124.69998,37.84032],[124.69167,37.83864],[124.68071,37.82744],[124.67932,37.82216],[124.6718,37.81729],[124.67677,37.81325],[124.68375,37.81279],[124.68428,37.80637],[124.67914,37.80191],[124.68094,37.79876],[124.68883,37.80595],[124.69707,37.80854],[124.7013,37.8045],[124.71166,37.80699],[124.71718,37.81132],[124.72055,37.81644],[124.71819,37.8265],[124.71393,37.8295],[124.71844,37.83579],[124.72863,37.83916],[124.71796,37.84674],[124.70885,37.84518],[124.70687,37.84678]]]]},"properties":{"code":"2872034000","name":"대청면","parent":"28720"}},{"type":"Feature","geometry":{"type":"MultiPolygon","coordinates":[[[[125.98258,37.03986],[125.97898,37.03374],[125.98314,37.02421],[125.99041,37.02345],[125.99668,37.01811],[126.00177,37.01876],[126.01399,37.02417],[126.00518,37.02598],[126.00211,37.02476],[125.99501,37.02704],[125.99235,37.0326],[125.99455,37.03476],[125.98684,37.04061],[125.98258,37.03986]]],[[[126.0153,37.07738],[126.01698,37.07292],[126.01209,37.0652],[126.02066,37.06809],[126.02134,37.07683],[126.0153,37.07738]]],[[[125.95468,37.08929],[125.94881,37.08842],[125.9448,37.07881],[125.95288,37.07085],[125.95593,37.07556],[125.95181,37.08163],[125.95313,37.0853],[125.95872,37.08428],[125.96465,37.08089],[125.9672,37.08742],[125.96198,37.08986],[125.95468,37.08929]]],[[[125.91463,37.10823],[125.91739,37.11399],[125.91104,37.11557],[125.91078,37.11046],[125.91463,37.10823]]],[[[125.88078,37.17506],[125.86801,37.17474],[125.86926,37.16895],[125.87837,37.17112],[125.88078,37.17506]]],[[[126.09702,37.18733],[126.09249,37.18766],[126.08925,37.18161],[126.08493,37.17911],[126.08695,37.17283],[126.09401,37.16696],[126.11036,37.16552],[126.11261,37.17052],[126.1082,37.17558],[126.10515,37.18197],[126.09702,37.18733]]],[[[125.9764,37.19359],[125.97271,37.18969],[125.9604,37.18465],[125.96137,37.18236],[125.97532,37.18624],[125.97988,37.18854],[125.98222,37.19319],[125.9764,37.19359]]],[[[126.1708,37.22689],[126.1696,37.22914],[126.15964,37.21823],[126.16255,37.21307],[126.16883,37.21091],[126.17778,37.21076],[126.17921,37.20093],[126.18152,37.19537],[126.18804,37.2029],[126.19192,37.20935],[126.1826,37.2094],[126.17986,37.218],[126.17314,37.2221],[126.1708,37.22689]]],[[[126.10583,37.27412],[126.10041,37.27277],[126.10167,37.26505],[126.098,37.26215],[126.09547,37.25378],[126.08948,37.2473],[126.08942,37.23953],[126.09179,37.23656],[126.09126,37.2299],[126.08548,37.22411],[126.0891,37.22029],[126.09502,37.22526],[126.09695,37.22994],[126.10302,37.22975],[126.10438,37.22628],[126.10051,37.22172],[126.10403,37.2196],[126.11262,37.22233],[126.11588,37.21622],[126.11206,37.21201],[126.11736,37.20929],[126.12678,37.21259],[126.14305,37.21346],[126.14335,37.20965],[126.13304,37.20265],[126.13646,37.20082],[126.13735,37.19544],[126.14326,37.19889],[126.14002,37.20322],[126.14925,37.20421],[126.15249,37.20739],[126.15728,37.21604],[126.14934,37.21643],[126.14659,37.21952],[126.14913,37.22303],[126.15407,37.22213],[126.15556,37.22694],[126.16274,37.22873],[126.16618,37.23258],[126.15186,37.23921],[126.14479,37.23874],[126.13727,37.24689],[126.1311,37.2481],[126.12865,37.25181],[126.12067,37.24736],[126.11709,37.25099],[126.11892,37.25801],[126.1117,37.25844],[126.10979,37.26598],[126.10987,37.27363],[126.10583,37.27412]]],[[[126.09244,37.2754],[126.09785,37.27972],[126.08159,37.29013],[126.07498,37.28939],[126.07523,37.28495],[126.08519,37.2809],[126.0868,37.27568],[126.09244,37.2754]]]]},"properties":{"code":"2872035000","name":"덕적면","parent":"28720"}},{"type":"Feature","geometry":{"type":"MultiPolygon","coordinates":[[[[126.0797,37.1085],[126.07667,37.10616],[126.06634,37.10558],[126.06017,37.09607],[126.07197,37.09729],[126.07293,37.09221],[126.06569,37.09288],[126.06224,37.08849],[126.06753,37.08337],[126.07535,37.08375],[126.08165,37.09018],[126.08888,37.09493],[126.08966,37.09891],[126.08559,37.10389],[126.08549,37.10768],[126.0797,37.1085]]],[[[126.27497,37.15088],[126.2715,37.14532],[126.27594,37.14042],[126.27789,37.15051],[126.27497,37.15088]]],[[[126.29645,37.17362],[126.28954,37.17211],[126.30658,37.16103],[126.30685,37.15789],[126.31558,37.16046],[126.32045,37.15814],[126.3259,37.16127],[126.31735,37.16693],[126.31215,37.17227],[126.30729,37.1711],[126.30277,37.17378],[126.29645,37.17362]]],[[[126.25605,37.1818],[126.24373,37.17608],[126.24934,37.16976],[126.25444,37.17081],[126.26574,37.16763],[126.27291,37.16259],[126.27315,37.15919],[126.27984,37.15704],[126.28475,37.1621],[126.27465,37.16474],[126.27183,37.17009],[126.2715,37.17616],[126.26644,37.17587],[126.26168,37.18115],[126.25605,37.1818]]],[[[126.21658,37.1891],[126.21484,37.18223],[126.21926,37.17844],[126.22351,37.1796],[126.22835,37.17747],[126.233,37.17914],[126.23782,37.17767],[126.24126,37.18106],[126.24851,37.18234],[126.24026,37.18663],[126.22751,37.18802],[126.22404,37.18225],[126.21827,37.18432],[126.21658,37.1891]]],[[[126.31431,37.21168],[126.31971,37.21234],[126.31966,37.21869],[126.31434,37.22232],[126.3127,37.21662],[126.31431,37.21168]]],[[[126.29785,37.26614],[126.28417,37.26888],[126.28034,37.259],[126.28576,37.25996],[126.29694,37.25191],[126.304,37.25334],[126.31066,37.24885],[126.31656,37.24793],[126.31692,37.2443],[126.32533,37.24747],[126.33134,37.24538],[126.3429,37.25],[126.34885,37.259],[126.34781,37.26101],[126.33834,37.26362],[126.33372,37.26143],[126.33365,37.25564],[126.32612,37.25715],[126.31536,37.26254],[126.30745,37.26298],[126.29785,37.26614]]]]},"properties":{"code":"2872037000","name":"자월면","parent":"28720"}},{"type":"Feature","geometry":{"type":"MultiPolygon","coordinates":[[[[126.51514,37.22816],[126.51907,37.23153],[126.51516,37.23478],[126.51118,37.23194],[126.51514,37.22816]]],[[[126.52406,37.25762],[126.51441,37.25719],[126.51514,37.2505],[126.52056,37.24991],[126.52565,37.24513],[126.52385,37.23546],[126.53224,37.23194],[126.54061,37.23379],[126.53441,37.23893],[126.53127,37.24565],[126.5266,37.2491],[126.52959,37.25214],[126.52406,37.25762]]],[[[126.4721,37.2845],[126.45156,37.28228],[126.45383,37.27846],[126.44712,37.27189],[126.44397,37.27348],[126.43363,37.27407],[126.43577,37.26537],[126.42959,37.26392],[126.43496,37.25465],[126.43559,37.24725],[126.43146,37.24723],[126.43156,37.23303],[126.4354,37.23112],[126.44255,37.23116],[126.45263,37.22901],[126.45702,37.22418],[126.46865,37.23225],[126.4704,37.23827],[126.48148,37.24107],[126.48238,37.25487],[126.48916,37.2503],[126.48713,37.25892],[126.49171,37.25943],[126.49843,37.25314],[126.50163,37.25826],[126.49648,37.26455],[126.4943,37.27143],[126.49686,37.27741],[126.487,37.2826],[126.48268,37.28126],[126.4721,37.2845]]]]},"properties":{"code":"2872036000","name":"영흥면","parent":"28720"}},{"type":"Feature","geometry":{"type":"Polygon","coordinates":[[[126.63216,37.55035],[126.63538,37.55847],[126.61051,37.55228],[126.60658,37.55369],[126.60509,37.53932],[126.59915,37.53917],[126.60247,37.53326],[126.60261,37.51706],[126.60413,37.51006],[126.61094,37.51291],[126.61741,37.51118],[126.63266,37.51598],[126.63617,37.52],[126.63189,37.5298],[126.63216,37.55035]]]},"properties":{"code":"2827553900","name":"청라3동","parent":"28275"}},{"type":"Feature","geometry":{"type":"Polygon","coordinates":[[[126.76098,37.42629],[126.76737,37.42659],[126.77035,37.42905],[126.77105,37.43682],[126.76884,37.44293],[126.77174,37.45027],[126.77832,37.45079],[126.77745,37.45752],[126.77984,37.46579],[126.77823,37.47179],[126.77808,37.47181],[126.77188,37.47236],[126.76774,37.47176],[126.75694,37.46917],[126.75452,37.46573],[126.74514,37.46537],[126.74263,37.46007],[126.74272,37.45068],[126.74023,37.44802],[126.75025,37.44514],[126.74928,37.44182],[126.74346,37.43833],[126.74179,37.43285],[126.75915,37.43221],[126.76098,37.42629]]]},"properties":{"code":"2820065000","name":"장수서창동","parent":"28200"}},{"type":"Feature","geometry":{"type":"Polygon","coordinates":[[[126.63958,37.38588],[126.65509,37.40064],[126.64629,37.40837],[126.63859,37.40766],[126.63401,37.41014],[126.6248,37.40912],[126.63958,37.38588]]]},"properties":{"code":"2818583000","name":"송도2동","parent":"28185"}},{"type":"Feature","geometry":{"type":"Polygon","coordinates":[[[126.6248,37.40912],[126.63401,37.41014],[126.63859,37.40766],[126.64629,37.40837],[126.64112,37.41301],[126.63729,37.42153],[126.63497,37.43003],[126.61087,37.42992],[126.60791,37.42708],[126.58981,37.43305],[126.59029,37.41914],[126.59682,37.41595],[126.60972,37.41605],[126.60977,37.40657],[126.6248,37.40912]]]},"properties":{"code":"2818586000","name":"송도5동","parent":"28185"}},{"type":"Feature","geometry":{"type":"Polygon","coordinates":[[[126.70247,37.59314],[126.70395,37.59044],[126.70095,37.58212],[126.70367,37.58032],[126.7133,37.57769],[126.71774,37.5815],[126.71777,37.58533],[126.72513,37.592],[126.72451,37.59294],[126.72186,37.59593],[126.7137,37.5923],[126.70663,37.59157],[126.70247,37.59314]]]},"properties":{"code":"2829057000","name":"아라1동","parent":"28290"}},{"type":"Feature","geometry":{"type":"Polygon","coordinates":[[[126.62263,37.47551],[126.62797,37.47923],[126.62035,37.48066],[126.61677,37.48359],[126.60985,37.48294],[126.60624,37.4863],[126.60054,37.48153],[126.59558,37.47185],[126.6,37.4661],[126.60327,37.46552],[126.60993,37.46916],[126.61625,37.46992],[126.61583,37.47465],[126.62263,37.47551]]]},"properties":{"code":"2812557000","name":"개항동","parent":"28125"}},{"type":"Feature","geometry":{"type":"Polygon","coordinates":[[[126.72186,37.59593],[126.71812,37.5978],[126.71199,37.60479],[126.70465,37.60262],[126.70456,37.60264],[126.70404,37.60157],[126.70393,37.60073],[126.70327,37.60046],[126.70376,37.59969],[126.70281,37.59747],[126.70527,37.59655],[126.70202,37.59533],[126.70247,37.59314],[126.70663,37.59157],[126.7137,37.5923],[126.72186,37.59593]]]},"properties":{"code":"2829058000","name":"아라2동","parent":"28290"}},{"type":"Feature","geometry":{"type":"Polygon","coordinates":[[[126.50028,37.45469],[126.50616,37.46394],[126.50709,37.46858],[126.50432,37.47565],[126.49963,37.47907],[126.50594,37.48348],[126.51048,37.48084],[126.51502,37.48488],[126.51726,37.49119],[126.50958,37.49962],[126.5101,37.50344],[126.50532,37.50493],[126.49908,37.49934],[126.48895,37.48551],[126.48558,37.47826],[126.48566,37.4725],[126.48968,37.45686],[126.50028,37.45469]]]},"properties":{"code":"2815555000","name":"운서2동","parent":"28155"}},{"type":"Feature","geometry":{"type":"Polygon","coordinates":[[[126.66348,37.59364],[126.66699,37.58433],[126.65833,37.58371],[126.65742,37.57924],[126.66305,37.57647],[126.66065,37.57207],[126.68776,37.5714],[126.70029,37.57204],[126.69906,37.57338],[126.68245,37.57722],[126.68309,37.58146],[126.68681,37.58382],[126.68711,37.58371],[126.69079,37.58269],[126.69206,37.58243],[126.6933,37.58225],[126.69455,37.58493],[126.68878,37.58807],[126.68843,37.5946],[126.66348,37.59364]]]},"properties":{"code":"2829054000","name":"당하동","parent":"28290"}},{"type":"Feature","geometry":{"type":"Polygon","coordinates":[[[126.66065,37.57207],[126.66305,37.57647],[126.65742,37.57924],[126.65833,37.58371],[126.66699,37.58433],[126.66348,37.59364],[126.6639,37.59914],[126.65614,37.60273],[126.6346,37.60633],[126.62769,37.60597],[126.6234,37.6028],[126.61575,37.60549],[126.60906,37.60415],[126.60552,37.59988],[126.60495,37.59944],[126.59272,37.59298],[126.57258,37.58778],[126.58149,37.57144],[126.59334,37.55935],[126.60695,37.56159],[126.63275,37.56981],[126.66065,37.57207]]]},"properties":{"code":"2829055000","name":"오류왕길동","parent":"28290"}},{"type":"Feature","geometry":{"type":"Polygon","coordinates":[[[126.68843,37.5946],[126.68952,37.59722],[126.67931,37.59658],[126.67581,37.59868],[126.6639,37.59914],[126.66348,37.59364],[126.68843,37.5946]]]},"properties":{"code":"2829056000","name":"마전동","parent":"28290"}},{"type":"Feature","geometry":{"type":"Polygon","coordinates":[[[126.66065,37.57207],[126.63275,37.56981],[126.60695,37.56159],[126.59334,37.55935],[126.59372,37.55426],[126.60451,37.5556],[126.60658,37.55369],[126.61051,37.55228],[126.63538,37.55847],[126.63216,37.55035],[126.64094,37.54814],[126.65012,37.54361],[126.65613,37.54925],[126.66289,37.55189],[126.66549,37.55317],[126.67062,37.55375],[126.67746,37.55623],[126.68209,37.5621],[126.68635,37.56216],[126.69117,37.55812],[126.69951,37.55889],[126.70235,37.56075],[126.70338,37.56387],[126.70014,37.56559],[126.70029,37.57204],[126.68776,37.5714],[126.66065,37.57207]]]},"properties":{"code":"2827551500","name":"검암경서동","parent":"28275"}},{"type":"Feature","geometry":{"type":"Polygon","coordinates":[[[126.55342,37.49647],[126.54363,37.48731],[126.5461,37.4831],[126.55804,37.48301],[126.55895,37.4783],[126.56484,37.47962],[126.5708,37.48492],[126.55342,37.49647]]]},"properties":{"code":"2815552000","name":"영종1동","parent":"28155"}},{"type":"Feature","geometry":{"type":"Polygon","coordinates":[[[126.5708,37.48492],[126.58132,37.48971],[126.57884,37.49794],[126.57453,37.50504],[126.56216,37.50177],[126.55342,37.49647],[126.5708,37.48492]]]},"properties":{"code":"2815553000","name":"영종2동","parent":"28155"}}]}