{"type":"FeatureCollection","features":[{"type":"Feature","geometry":{"type":"Polygon","coordinates":[[[127.44846,36.31925],[127.43803,36.31839],[127.44022,36.31297],[127.44663,36.3105],[127.45585,36.30069],[127.46162,36.30093],[127.4599,36.31247],[127.44978,36.31172],[127.44846,36.31925]]]},"properties":{"key":"대전광역시|동구|효동","code":"3011053000"}},{"type":"Feature","geometry":{"type":"Polygon","coordinates":[[[127.481,36.30044],[127.4804,36.30319],[127.48275,36.31585],[127.48021,36.32162],[127.48402,36.33005],[127.47697,36.33215],[127.47077,36.3295],[127.46709,36.32208],[127.46267,36.32155],[127.45644,36.31696],[127.44913,36.31929],[127.44846,36.31925],[127.44978,36.31172],[127.4599,36.31247],[127.46162,36.30093],[127.46911,36.30299],[127.47597,36.2997],[127.481,36.30044]]]},"properties":{"key":"대전광역시|동구|판암1동","code":"3011055100"}},{"type":"Feature","geometry":{"type":"Polygon","coordinates":[[[127.46267,36.32155],[127.45819,36.32534],[127.44734,36.32413],[127.44697,36.32386],[127.44913,36.31929],[127.45644,36.31696],[127.46267,36.32155]]]},"properties":{"key":"대전광역시|동구|판암2동","code":"3011055200"}},{"type":"Feature","geometry":{"type":"Polygon","coordinates":[[[127.47077,36.3295],[127.47235,36.33447],[127.46482,36.34519],[127.45699,36.34388],[127.45364,36.3343],[127.45158,36.33237],[127.44734,36.32413],[127.45819,36.32534],[127.46267,36.32155],[127.46709,36.32208],[127.47077,36.3295]]]},"properties":{"key":"대전광역시|동구|용운동","code":"3011056000"}},{"type":"Feature","geometry":{"type":"Polygon","coordinates":[[[127.45699,36.34388],[127.45349,36.34519],[127.4483,36.34198],[127.44263,36.33566],[127.44076,36.3315],[127.4452,36.33406],[127.45158,36.33237],[127.45364,36.3343],[127.45699,36.34388]]]},"properties":{"key":"대전광역시|동구|자양동","code":"3011059000"}},{"type":"Feature","geometry":{"type":"Polygon","coordinates":[[[127.4483,36.34198],[127.44146,36.35068],[127.43756,36.34942],[127.43917,36.34081],[127.43761,36.33838],[127.43807,36.33774],[127.44263,36.33566],[127.4483,36.34198]]]},"properties":{"key":"대전광역시|동구|가양1동","code":"3011062000"}},{"type":"Feature","geometry":{"type":"Polygon","coordinates":[[[127.4639,36.35076],[127.4545,36.35448],[127.44252,36.35185],[127.4414,36.35237],[127.44146,36.35068],[127.4483,36.34198],[127.45349,36.34519],[127.45699,36.34388],[127.46482,36.34519],[127.4639,36.35076]]]},"properties":{"key":"대전광역시|동구|가양2동","code":"3011063000"}},{"type":"Feature","geometry":{"type":"Polygon","coordinates":[[[127.4414,36.35237],[127.4387,36.35973],[127.43544,36.36075],[127.43068,36.35905],[127.42757,36.35503],[127.42792,36.35259],[127.43197,36.34744],[127.43756,36.34942],[127.44146,36.35068],[127.4414,36.35237]]]},"properties":{"key":"대전광역시|동구|용전동","code":"3011064000"}},{"type":"Feature","geometry":{"type":"Polygon","coordinates":[[[127.43197,36.34744],[127.42792,36.35259],[127.4207,36.34446],[127.42321,36.34368],[127.42722,36.34365],[127.43197,36.34744]]]},"properties":{"key":"대전광역시|동구|홍도동","code":"3011067000"}},{"type":"Feature","geometry":{"type":"Polygon","coordinates":[[[127.48921,36.4327],[127.48403,36.43349],[127.47781,36.42227],[127.46646,36.40841],[127.45965,36.40397],[127.45421,36.39586],[127.45522,36.38871],[127.45131,36.38091],[127.4659,36.36049],[127.4639,36.35076],[127.46482,36.34519],[127.47235,36.33447],[127.47077,36.3295],[127.47697,36.33215],[127.48402,36.33005],[127.48021,36.32162],[127.48275,36.31585],[127.4804,36.30319],[127.481,36.30044],[127.489,36.30084],[127.4933,36.30003],[127.49915,36.30581],[127.49476,36.31169],[127.49926,36.31493],[127.49828,36.31895],[127.50358,36.32576],[127.50122,36.3333],[127.50125,36.33871],[127.50683,36.34064],[127.50977,36.35045],[127.52131,36.3532],[127.52686,36.36929],[127.52529,36.37622],[127.52572,36.38731],[127.53331,36.39182],[127.53916,36.39719],[127.54812,36.39676],[127.55419,36.39473],[127.55515,36.39897],[127.55207,36.40528],[127.54463,36.41109],[127.54313,36.41687],[127.53975,36.42072],[127.52934,36.41934],[127.52415,36.42319],[127.51949,36.42018],[127.51569,36.42228],[127.50909,36.40519],[127.50256,36.4082],[127.49771,36.41895],[127.48921,36.4327]]]},"properties":{"key":"대전광역시|동구|대청동","code":"3011072500"}},{"type":"Feature","geometry":{"type":"Polygon","coordinates":[[[127.46162,36.30093],[127.45585,36.30069],[127.45616,36.29286],[127.44623,36.29651],[127.44092,36.29585],[127.43771,36.29272],[127.43103,36.29151],[127.43079,36.28478],[127.43525,36.28134],[127.43214,36.27884],[127.43669,36.27483],[127.43863,36.26806],[127.42964,36.26094],[127.43898,36.24585],[127.44202,36.24391],[127.4429,36.2387],[127.43755,36.23658],[127.43765,36.23226],[127.43413,36.22787],[127.42762,36.22919],[127.4257,36.22478],[127.42581,36.21101],[127.42236,36.20829],[127.42927,36.20534],[127.43349,36.19918],[127.44281,36.19406],[127.4548,36.20084],[127.45325,36.20677],[127.45909,36.20978],[127.46028,36.21304],[127.46855,36.2148],[127.46712,36.22243],[127.47788,36.22678],[127.47783,36.22974],[127.48995,36.23377],[127.49277,36.23809],[127.49259,36.24471],[127.48954,36.24552],[127.48756,36.2515],[127.48981,36.25789],[127.48625,36.26144],[127.48936,36.27003],[127.48858,36.27324],[127.49666,36.27947],[127.4967,36.28709],[127.489,36.30084],[127.481,36.30044],[127.47597,36.2997],[127.46911,36.30299],[127.46162,36.30093]]]},"properties":{"key":"대전광역시|동구|산내동","code":"3011074000"}},{"type":"Feature","geometry":{"type":"Polygon","coordinates":[[[127.44263,36.33566],[127.43807,36.33774],[127.43157,36.33632],[127.42545,36.33282],[127.43087,36.32783],[127.43254,36.32577],[127.43795,36.32539],[127.44076,36.3315],[127.44263,36.33566]]]},"properties":{"key":"대전광역시|동구|중앙동","code":"3011051500"}},{"type":"Feature","geometry":{"type":"Polygon","coordinates":[[[127.43795,36.32539],[127.43254,36.32577],[127.43344,36.32467],[127.43803,36.31839],[127.44846,36.31925],[127.44913,36.31929],[127.44697,36.32386],[127.44465,36.32618],[127.43795,36.32539]]]},"properties":{"key":"대전광역시|동구|신인동","code":"3011054500"}},{"type":"Feature","geometry":{"type":"Polygon","coordinates":[[[127.45158,36.33237],[127.4452,36.33406],[127.44076,36.3315],[127.43795,36.32539],[127.44465,36.32618],[127.44697,36.32386],[127.44734,36.32413],[127.45158,36.33237]]]},"properties":{"key":"대전광역시|동구|대동","code":"3011058500"}},{"type":"Feature","geometry":{"type":"Polygon","coordinates":[[[127.43761,36.33838],[127.43917,36.34081],[127.43756,36.34942],[127.43197,36.34744],[127.42722,36.34365],[127.42321,36.34368],[127.43761,36.33838]]]},"properties":{"key":"대전광역시|동구|성남동","code":"3011066500"}},{"type":"Feature","geometry":{"type":"Polygon","coordinates":[[[127.4207,36.34446],[127.41277,36.34369],[127.41858,36.33864],[127.42545,36.33282],[127.43157,36.33632],[127.43807,36.33774],[127.43761,36.33838],[127.42321,36.34368],[127.4207,36.34446]]]},"properties":{"key":"대전광역시|동구|삼성동","code":"3011069500"}},{"type":"Feature","geometry":{"type":"Polygon","coordinates":[[[127.42545,36.33282],[127.41858,36.33864],[127.41327,36.33462],[127.41378,36.32755],[127.41497,36.32287],[127.41674,36.32312],[127.4221,36.32715],[127.43087,36.32783],[127.42545,36.33282]]]},"properties":{"key":"대전광역시|중구|은행선화동","code":"3014053500"}},{"type":"Feature","geometry":{"type":"Polygon","coordinates":[[[127.41327,36.33462],[127.40876,36.3381],[127.40444,36.33786],[127.40311,36.33476],[127.41001,36.32879],[127.41378,36.32755],[127.41327,36.33462]]]},"properties":{"key":"대전광역시|중구|목동","code":"3014055000"}},{"type":"Feature","geometry":{"type":"Polygon","coordinates":[[[127.41277,36.34369],[127.40977,36.3478],[127.4029,36.35009],[127.40309,36.34896],[127.40328,36.3459],[127.40195,36.33818],[127.40444,36.33786],[127.40876,36.3381],[127.41327,36.33462],[127.41858,36.33864],[127.41277,36.34369]]]},"properties":{"key":"대전광역시|중구|중촌동","code":"3014056000"}},{"type":"Feature","geometry":{"type":"Polygon","coordinates":[[[127.43087,36.32783],[127.4221,36.32715],[127.41674,36.32312],[127.41676,36.32225],[127.41956,36.31735],[127.4309,36.31969],[127.43138,36.32022],[127.43344,36.32467],[127.43254,36.32577],[127.43087,36.32783]]]},"properties":{"key":"대전광역시|중구|대흥동","code":"3014057500"}},{"type":"Feature","geometry":{"type":"Polygon","coordinates":[[[127.43803,36.31839],[127.43344,36.32467],[127.43138,36.32022],[127.43887,36.31122],[127.44022,36.31297],[127.43803,36.31839]]]},"properties":{"key":"대전광역시|중구|문창동","code":"3014060500"}},{"type":"Feature","geometry":{"type":"Polygon","coordinates":[[[127.45585,36.30069],[127.44663,36.3105],[127.44022,36.31297],[127.43887,36.31122],[127.42794,36.30246],[127.42952,36.29731],[127.42231,36.29614],[127.42634,36.29233],[127.43103,36.29151],[127.43771,36.29272],[127.44092,36.29585],[127.44623,36.29651],[127.45616,36.29286],[127.45585,36.30069]]]},"properties":{"key":"대전광역시|중구|석교동","code":"3014062000"}},{"type":"Feature","geometry":{"type":"Polygon","coordinates":[[[127.4309,36.31969],[127.41956,36.31735],[127.41676,36.32225],[127.41433,36.31786],[127.41758,36.31294],[127.41589,36.30989],[127.41686,36.30333],[127.42231,36.30077],[127.42169,36.29612],[127.42231,36.29614],[127.42952,36.29731],[127.42794,36.30246],[127.42599,36.30837],[127.4309,36.31969]]]},"properties":{"key":"대전광역시|중구|대사동","code":"3014063000"}},{"type":"Feature","geometry":{"type":"Polygon","coordinates":[[[127.43887,36.31122],[127.43138,36.32022],[127.4309,36.31969],[127.42599,36.30837],[127.42794,36.30246],[127.43887,36.31122]]]},"properties":{"key":"대전광역시|중구|부사동","code":"3014064000"}},{"type":"Feature","geometry":{"type":"Polygon","coordinates":[[[127.40444,36.33786],[127.40195,36.33818],[127.39813,36.33425],[127.39858,36.33388],[127.39962,36.33302],[127.41195,36.32232],[127.41497,36.32287],[127.41378,36.32755],[127.41001,36.32879],[127.40311,36.33476],[127.40444,36.33786]]]},"properties":{"key":"대전광역시|중구|용두동","code":"3014065500"}},{"type":"Feature","geometry":{"type":"Polygon","coordinates":[[[127.41195,36.32232],[127.39962,36.33302],[127.40242,36.3232],[127.40364,36.31988],[127.41195,36.32232]]]},"properties":{"key":"대전광역시|중구|오류동","code":"3014067000"}},{"type":"Feature","geometry":{"type":"Polygon","coordinates":[[[127.39962,36.33302],[127.39858,36.33388],[127.39481,36.32581],[127.3961,36.3221],[127.40242,36.3232],[127.39962,36.33302]]]},"properties":{"key":"대전광역시|중구|태평1동","code":"3014068000"}},{"type":"Feature","geometry":{"type":"Polygon","coordinates":[[[127.39858,36.33388],[127.39813,36.33425],[127.39368,36.33073],[127.3897,36.32647],[127.38615,36.32097],[127.38644,36.31563],[127.39143,36.31689],[127.3946,36.32172],[127.3961,36.3221],[127.39481,36.32581],[127.39858,36.33388]]]},"properties":{"key":"대전광역시|중구|태평2동","code":"3014069000"}},{"type":"Feature","geometry":{"type":"Polygon","coordinates":[[[127.39795,36.3124],[127.3946,36.32172],[127.39143,36.31689],[127.38644,36.31563],[127.38669,36.31259],[127.39164,36.31388],[127.3961,36.31192],[127.39795,36.3124]]]},"properties":{"key":"대전광역시|중구|유천1동","code":"3014070000"}},{"type":"Feature","geometry":{"type":"Polygon","coordinates":[[[127.40364,36.31988],[127.40242,36.3232],[127.3961,36.3221],[127.3946,36.32172],[127.39795,36.3124],[127.40237,36.31372],[127.40364,36.31988]]]},"properties":{"key":"대전광역시|중구|유천2동","code":"3014071000"}},{"type":"Feature","geometry":{"type":"Polygon","coordinates":[[[127.41676,36.32225],[127.41674,36.32312],[127.41497,36.32287],[127.41195,36.32232],[127.40364,36.31988],[127.40237,36.31372],[127.40974,36.3082],[127.40949,36.30262],[127.41899,36.29888],[127.42169,36.29612],[127.42231,36.30077],[127.41686,36.30333],[127.41589,36.30989],[127.41758,36.31294],[127.41433,36.31786],[127.41676,36.32225]]]},"properties":{"key":"대전광역시|중구|문화1동","code":"3014072000"}},{"type":"Feature","geometry":{"type":"Polygon","coordinates":[[[127.40949,36.30262],[127.40974,36.3082],[127.40237,36.31372],[127.39795,36.3124],[127.3961,36.31192],[127.39465,36.30784],[127.40046,36.30193],[127.40949,36.30262]]]},"properties":{"key":"대전광역시|중구|문화2동","code":"3014073000"}},{"type":"Feature","geometry":{"type":"Polygon","coordinates":[[[127.3961,36.31192],[127.39164,36.31388],[127.38669,36.31259],[127.3845,36.30873],[127.38213,36.30639],[127.38305,36.29995],[127.37839,36.29288],[127.37343,36.29324],[127.37036,36.28837],[127.36929,36.28189],[127.37241,36.27218],[127.37757,36.27146],[127.38881,36.26551],[127.39042,36.26079],[127.38654,36.25273],[127.38783,36.24595],[127.39112,36.24274],[127.38788,36.23447],[127.40057,36.23182],[127.40456,36.22272],[127.4109,36.21694],[127.40827,36.21306],[127.41935,36.20724],[127.42236,36.20829],[127.42581,36.21101],[127.4257,36.22478],[127.42762,36.22919],[127.43413,36.22787],[127.43765,36.23226],[127.43755,36.23658],[127.4429,36.2387],[127.44202,36.24391],[127.43898,36.24585],[127.42964,36.26094],[127.43863,36.26806],[127.43669,36.27483],[127.43214,36.27884],[127.43525,36.28134],[127.43079,36.28478],[127.43103,36.29151],[127.42634,36.29233],[127.42231,36.29614],[127.42169,36.29612],[127.41899,36.29888],[127.40949,36.30262],[127.40046,36.30193],[127.39465,36.30784],[127.3961,36.31192]]]},"properties":{"key":"대전광역시|중구|산성동","code":"3014074000"}},{"type":"Feature","geometry":{"type":"Polygon","coordinates":[[[127.37991,36.31098],[127.37222,36.30994],[127.37054,36.29757],[127.37343,36.29324],[127.37839,36.29288],[127.38305,36.29995],[127.38213,36.30639],[127.3845,36.30873],[127.37991,36.31098]]]},"properties":{"key":"대전광역시|서구|복수동","code":"3017051000"}},{"type":"Feature","geometry":{"type":"Polygon","coordinates":[[[127.38615,36.32097],[127.3751,36.32239],[127.37471,36.32811],[127.37063,36.32805],[127.37147,36.31929],[127.3777,36.31923],[127.37991,36.31098],[127.3845,36.30873],[127.38669,36.31259],[127.38644,36.31563],[127.38615,36.32097]]]},"properties":{"key":"대전광역시|서구|도마1동","code":"3017052000"}},{"type":"Feature","geometry":{"type":"Polygon","coordinates":[[[127.36368,36.33129],[127.35973,36.32777],[127.35818,36.31978],[127.36196,36.31898],[127.37222,36.30994],[127.37991,36.31098],[127.3777,36.31923],[127.37147,36.31929],[127.37063,36.32805],[127.36537,36.32776],[127.36368,36.33129]]]},"properties":{"key":"대전광역시|서구|도마2동","code":"3017053000"}},{"type":"Feature","geometry":{"type":"Polygon","coordinates":[[[127.37222,36.30994],[127.36196,36.31898],[127.35818,36.31978],[127.35475,36.31399],[127.35725,36.30829],[127.3612,36.30454],[127.36213,36.29959],[127.35792,36.29069],[127.35693,36.278],[127.34631,36.27493],[127.35809,36.27037],[127.36101,36.26446],[127.36271,36.26919],[127.37102,36.26994],[127.37241,36.27218],[127.36929,36.28189],[127.37036,36.28837],[127.37343,36.29324],[127.37054,36.29757],[127.37222,36.30994]]]},"properties":{"key":"대전광역시|서구|정림동","code":"3017053500"}},{"type":"Feature","geometry":{"type":"Polygon","coordinates":[[[127.38123,36.32871],[127.37221,36.33112],[127.36409,36.33502],[127.36368,36.33129],[127.36537,36.32776],[127.37063,36.32805],[127.37471,36.32811],[127.3751,36.32239],[127.38615,36.32097],[127.3897,36.32647],[127.38123,36.32871]]]},"properties":{"key":"대전광역시|서구|변동","code":"3017054000"}},{"type":"Feature","geometry":{"type":"Polygon","coordinates":[[[127.40195,36.33818],[127.40328,36.3459],[127.39332,36.33843],[127.39135,36.33988],[127.38687,36.33642],[127.39368,36.33073],[127.39813,36.33425],[127.40195,36.33818]]]},"properties":{"key":"대전광역시|서구|용문동","code":"3017055000"}},{"type":"Feature","geometry":{"type":"Polygon","coordinates":[[[127.39525,36.34898],[127.38294,36.34908],[127.37992,36.34482],[127.37784,36.34147],[127.38212,36.34327],[127.39135,36.33988],[127.39332,36.33843],[127.40328,36.3459],[127.40309,36.34896],[127.39525,36.34898]]]},"properties":{"key":"대전광역시|서구|탄방동","code":"3017055500"}},{"type":"Feature","geometry":{"type":"Polygon","coordinates":[[[127.39527,36.35768],[127.38675,36.35773],[127.38294,36.34908],[127.39525,36.34898],[127.39527,36.35768]]]},"properties":{"key":"대전광역시|서구|둔산1동","code":"3017063000"}},{"type":"Feature","geometry":{"type":"Polygon","coordinates":[[[127.39481,36.3648],[127.37951,36.36486],[127.37948,36.35778],[127.37426,36.35779],[127.3732,36.35055],[127.37992,36.34482],[127.38294,36.34908],[127.38675,36.35773],[127.39527,36.35768],[127.40284,36.35733],[127.40037,36.36093],[127.39481,36.3648]]]},"properties":{"key":"대전광역시|서구|둔산2동","code":"3017064000"}},{"type":"Feature","geometry":{"type":"Polygon","coordinates":[[[127.39135,36.33988],[127.38212,36.34327],[127.37784,36.34147],[127.37163,36.34226],[127.36843,36.34019],[127.37001,36.3369],[127.3775,36.33718],[127.3825,36.33295],[127.38687,36.33642],[127.39135,36.33988]]]},"properties":{"key":"대전광역시|서구|괴정동","code":"3017056000"}},{"type":"Feature","geometry":{"type":"Polygon","coordinates":[[[127.39368,36.33073],[127.38687,36.33642],[127.3825,36.33295],[127.38123,36.32871],[127.3897,36.32647],[127.39368,36.33073]]]},"properties":{"key":"대전광역시|서구|가장동","code":"3017057000"}},{"type":"Feature","geometry":{"type":"Polygon","coordinates":[[[127.3825,36.33295],[127.3775,36.33718],[127.37001,36.3369],[127.36843,36.34019],[127.36185,36.33948],[127.36409,36.33502],[127.37221,36.33112],[127.38123,36.32871],[127.3825,36.33295]]]},"properties":{"key":"대전광역시|서구|내동","code":"3017057500"}},{"type":"Feature","geometry":{"type":"Polygon","coordinates":[[[127.37426,36.35779],[127.37426,36.35792],[127.36842,36.35782],[127.36318,36.35369],[127.36185,36.33948],[127.36843,36.34019],[127.37163,36.34226],[127.36919,36.351],[127.3732,36.35055],[127.37426,36.35779]]]},"properties":{"key":"대전광역시|서구|갈마1동","code":"3017058100"}},{"type":"Feature","geometry":{"type":"Polygon","coordinates":[[[127.3732,36.35055],[127.36919,36.351],[127.37163,36.34226],[127.37784,36.34147],[127.37992,36.34482],[127.3732,36.35055]]]},"properties":{"key":"대전광역시|서구|갈마2동","code":"3017058200"}},{"type":"Feature","geometry":{"type":"Polygon","coordinates":[[[127.36842,36.35782],[127.35682,36.35895],[127.34942,36.35155],[127.35364,36.33214],[127.35893,36.33231],[127.35973,36.32777],[127.36368,36.33129],[127.36409,36.33502],[127.36185,36.33948],[127.36318,36.35369],[127.36842,36.35782]]]},"properties":{"key":"대전광역시|서구|월평1동","code":"3017058600"}},{"type":"Feature","geometry":{"type":"Polygon","coordinates":[[[127.37951,36.36486],[127.36602,36.36493],[127.36849,36.36227],[127.37428,36.36225],[127.37426,36.35792],[127.37426,36.35779],[127.37948,36.35778],[127.37951,36.36486]]]},"properties":{"key":"대전광역시|서구|월평2동","code":"3017058700"}},{"type":"Feature","geometry":{"type":"Polygon","coordinates":[[[127.36602,36.36493],[127.36578,36.36521],[127.36364,36.36397],[127.35682,36.35895],[127.36842,36.35782],[127.37426,36.35792],[127.37428,36.36225],[127.36849,36.36227],[127.36602,36.36493]]]},"properties":{"key":"대전광역시|서구|월평3동","code":"3017058800"}},{"type":"Feature","geometry":{"type":"Polygon","coordinates":[[[127.39499,36.37267],[127.38042,36.37287],[127.36578,36.36521],[127.36602,36.36493],[127.37951,36.36486],[127.39481,36.3648],[127.39499,36.37267]]]},"properties":{"key":"대전광역시|서구|만년동","code":"3017065000"}},{"type":"Feature","geometry":{"type":"Polygon","coordinates":[[[127.34515,36.30344],[127.34687,36.3016],[127.34804,36.29895],[127.34534,36.29133],[127.34658,36.28892],[127.33183,36.28417],[127.33493,36.28018],[127.34287,36.27847],[127.34631,36.27493],[127.35693,36.278],[127.35792,36.29069],[127.36213,36.29959],[127.3612,36.30454],[127.35829,36.30628],[127.34515,36.30344]]]},"properties":{"key":"대전광역시|서구|가수원동","code":"3017059000"}},{"type":"Feature","geometry":{"type":"Polygon","coordinates":[[[127.33183,36.28417],[127.31899,36.27924],[127.31683,36.28576],[127.31093,36.282],[127.3069,36.27232],[127.29571,36.26745],[127.29177,36.26419],[127.28206,36.25779],[127.28003,36.25234],[127.28102,36.24583],[127.27808,36.24407],[127.28299,36.23663],[127.29113,36.23027],[127.29376,36.22312],[127.30328,36.22184],[127.30284,36.22697],[127.31445,36.22242],[127.3215,36.2137],[127.32078,36.20966],[127.32363,36.20312],[127.32813,36.20405],[127.33356,36.19989],[127.33008,36.19444],[127.33143,36.18432],[127.3351,36.18362],[127.34066,36.18912],[127.34392,36.19673],[127.34748,36.19777],[127.34774,36.20504],[127.35303,36.21182],[127.35946,36.21392],[127.36052,36.2185],[127.36472,36.21997],[127.36005,36.22679],[127.36451,36.24348],[127.364,36.25165],[127.36137,36.25358],[127.36101,36.26446],[127.35809,36.27037],[127.34631,36.27493],[127.34287,36.27847],[127.33493,36.28018],[127.33183,36.28417]]]},"properties":{"key":"대전광역시|서구|기성동","code":"3017060000"}},{"type":"Feature","geometry":{"type":"Polygon","coordinates":[[[127.34515,36.30344],[127.33888,36.31321],[127.33252,36.30792],[127.33279,36.30156],[127.34515,36.30344]]]},"properties":{"key":"대전광역시|서구|관저1동","code":"3017059600"}},{"type":"Feature","geometry":{"type":"Polygon","coordinates":[[[127.33183,36.28417],[127.34658,36.28892],[127.34534,36.29133],[127.34804,36.29895],[127.34687,36.3016],[127.34515,36.30344],[127.33279,36.30156],[127.32475,36.29984],[127.32211,36.29716],[127.31967,36.28759],[127.31683,36.28576],[127.31899,36.27924],[127.33183,36.28417]]]},"properties":{"key":"대전광역시|서구|관저2동","code":"3017059700"}},{"type":"Feature","geometry":{"type":"Polygon","coordinates":[[[127.40284,36.35733],[127.39527,36.35768],[127.39525,36.34898],[127.40309,36.34896],[127.4029,36.35009],[127.40284,36.35733]]]},"properties":{"key":"대전광역시|서구|둔산3동","code":"3017066000"}},{"type":"Feature","geometry":{"type":"Polygon","coordinates":[[[127.26801,36.33159],[127.26605,36.3285],[127.25975,36.32721],[127.26042,36.32241],[127.25788,36.31816],[127.25921,36.29623],[127.25136,36.2957],[127.24683,36.29044],[127.24946,36.28343],[127.25315,36.28114],[127.26107,36.27585],[127.28101,36.26541],[127.29177,36.26419],[127.29571,36.26745],[127.3069,36.27232],[127.31093,36.282],[127.31683,36.28576],[127.31967,36.28759],[127.32211,36.29716],[127.32475,36.29984],[127.33279,36.30156],[127.33252,36.30792],[127.33888,36.31321],[127.33601,36.33018],[127.33821,36.33219],[127.33033,36.33207],[127.32823,36.33214],[127.32509,36.32693],[127.31773,36.32834],[127.31159,36.33199],[127.31191,36.32412],[127.30874,36.32179],[127.29448,36.32443],[127.29062,36.33255],[127.27852,36.32949],[127.26801,36.33159]]]},"properties":{"key":"대전광역시|유성구|진잠동","code":"3020052000"}},{"type":"Feature","geometry":{"type":"Polygon","coordinates":[[[127.38042,36.37287],[127.3767,36.37669],[127.36264,36.37642],[127.35722,36.37899],[127.3513,36.37506],[127.33594,36.38199],[127.33199,36.37301],[127.3312,36.36676],[127.31991,36.36121],[127.33305,36.35704],[127.33767,36.35676],[127.34398,36.35982],[127.35139,36.35925],[127.36364,36.36397],[127.36578,36.36521],[127.38042,36.37287]]]},"properties":{"key":"대전광역시|유성구|온천2동","code":"3020054000"}},{"type":"Feature","geometry":{"type":"Polygon","coordinates":[[[127.38163,36.42134],[127.37976,36.42629],[127.37236,36.43349],[127.36632,36.43587],[127.3621,36.42951],[127.35472,36.43599],[127.351,36.42849],[127.34072,36.43098],[127.32698,36.42203],[127.32721,36.41085],[127.32438,36.40704],[127.32735,36.40005],[127.3313,36.3975],[127.32881,36.39309],[127.3337,36.39134],[127.33033,36.38381],[127.33594,36.38199],[127.3513,36.37506],[127.35722,36.37899],[127.36264,36.37642],[127.3767,36.37669],[127.38042,36.37287],[127.39499,36.37267],[127.40073,36.37496],[127.39327,36.38052],[127.38808,36.38163],[127.38002,36.39339],[127.38017,36.40123],[127.38545,36.40374],[127.38918,36.40888],[127.38708,36.41229],[127.37879,36.41713],[127.38163,36.42134]]]},"properties":{"key":"대전광역시|유성구|신성동","code":"3020055000"}},{"type":"Feature","geometry":{"type":"Polygon","coordinates":[[[127.41499,36.41039],[127.40117,36.40813],[127.38708,36.41229],[127.38918,36.40888],[127.38545,36.40374],[127.38017,36.40123],[127.38002,36.39339],[127.38808,36.38163],[127.39327,36.38052],[127.40073,36.37496],[127.4094,36.37879],[127.4111,36.38167],[127.41137,36.39509],[127.41387,36.40137],[127.41499,36.41039]]]},"properties":{"key":"대전광역시|유성구|전민동","code":"3020057000"}},{"type":"Feature","geometry":{"type":"Polygon","coordinates":[[[127.33594,36.38199],[127.33033,36.38381],[127.32505,36.377],[127.31518,36.37597],[127.31563,36.37251],[127.3071,36.37148],[127.30198,36.37531],[127.30097,36.38007],[127.28311,36.38277],[127.27897,36.38157],[127.28099,36.37482],[127.27752,36.36521],[127.27087,36.36108],[127.27225,36.35423],[127.27789,36.34893],[127.28353,36.35389],[127.30402,36.3613],[127.3151,36.36242],[127.31991,36.36121],[127.3312,36.36676],[127.33199,36.37301],[127.33594,36.38199]]]},"properties":{"key":"대전광역시|유성구|노은1동","code":"3020054600"}},{"type":"Feature","geometry":{"type":"Polygon","coordinates":[[[127.39567,36.49161],[127.38797,36.49851],[127.38117,36.50002],[127.37558,36.49385],[127.36939,36.48959],[127.36133,36.49107],[127.35915,36.48539],[127.36129,36.47757],[127.3645,36.47442],[127.36362,36.47033],[127.35595,36.46402],[127.35871,36.45603],[127.35309,36.44791],[127.3447,36.44446],[127.3399,36.43598],[127.34072,36.43098],[127.351,36.42849],[127.35472,36.43599],[127.3621,36.42951],[127.36632,36.43587],[127.37236,36.43349],[127.37976,36.42629],[127.38163,36.42134],[127.38858,36.43394],[127.39446,36.43824],[127.39118,36.44189],[127.39071,36.44661],[127.39349,36.45057],[127.40254,36.45275],[127.40262,36.45569],[127.40044,36.46132],[127.4006,36.47017],[127.40346,36.47615],[127.40421,36.48332],[127.39567,36.49161]]]},"properties":{"key":"대전광역시|유성구|구즉동","code":"3020058000"}},{"type":"Feature","geometry":{"type":"Polygon","coordinates":[[[127.41345,36.42228],[127.39446,36.43824],[127.38858,36.43394],[127.38163,36.42134],[127.37879,36.41713],[127.38708,36.41229],[127.40117,36.40813],[127.41499,36.41039],[127.4184,36.414],[127.41747,36.41877],[127.41345,36.42228]]]},"properties":{"key":"대전광역시|유성구|관평동","code":"3020060000"}},{"type":"Feature","geometry":{"type":"Polygon","coordinates":[[[127.32698,36.42203],[127.32112,36.42351],[127.31667,36.42012],[127.31061,36.42479],[127.30275,36.42467],[127.28926,36.41936],[127.28925,36.41609],[127.28231,36.41454],[127.27884,36.39624],[127.28903,36.39921],[127.29951,36.40044],[127.31019,36.39887],[127.31823,36.38721],[127.31518,36.37597],[127.32505,36.377],[127.33033,36.38381],[127.3337,36.39134],[127.32881,36.39309],[127.3313,36.3975],[127.32735,36.40005],[127.32438,36.40704],[127.32721,36.41085],[127.32698,36.42203]]]},"properties":{"key":"대전광역시|유성구|노은2동","code":"3020054700"}},{"type":"Feature","geometry":{"type":"Polygon","coordinates":[[[127.31518,36.37597],[127.31823,36.38721],[127.31019,36.39887],[127.29951,36.40044],[127.28903,36.39921],[127.27884,36.39624],[127.27897,36.38157],[127.28311,36.38277],[127.30097,36.38007],[127.30198,36.37531],[127.3071,36.37148],[127.31563,36.37251],[127.31518,36.37597]]]},"properties":{"key":"대전광역시|유성구|노은3동","code":"3020054800"}},{"type":"Feature","geometry":{"type":"Polygon","coordinates":[[[127.42757,36.35503],[127.41759,36.35868],[127.42004,36.36333],[127.41299,36.36179],[127.40037,36.36093],[127.40284,36.35733],[127.4029,36.35009],[127.40977,36.3478],[127.41277,36.34369],[127.4207,36.34446],[127.42792,36.35259],[127.42757,36.35503]]]},"properties":{"key":"대전광역시|대덕구|오정동","code":"3023051000"}},{"type":"Feature","geometry":{"type":"Polygon","coordinates":[[[127.42115,36.36833],[127.41458,36.37585],[127.4094,36.37879],[127.40073,36.37496],[127.39499,36.37267],[127.39481,36.3648],[127.40037,36.36093],[127.41299,36.36179],[127.42004,36.36333],[127.42183,36.36784],[127.42115,36.36833]]]},"properties":{"key":"대전광역시|대덕구|대화동","code":"3023052000"}},{"type":"Feature","geometry":{"type":"Polygon","coordinates":[[[127.45965,36.40397],[127.45239,36.41418],[127.45863,36.4258],[127.45332,36.42881],[127.44143,36.4273],[127.43831,36.42423],[127.43179,36.41392],[127.42257,36.42013],[127.41747,36.41877],[127.4184,36.414],[127.41499,36.41039],[127.41387,36.40137],[127.41137,36.39509],[127.4111,36.38167],[127.4094,36.37879],[127.41458,36.37585],[127.42115,36.36833],[127.42427,36.37537],[127.4275,36.37597],[127.4366,36.37882],[127.44008,36.38405],[127.45131,36.38091],[127.45522,36.38871],[127.45421,36.39586],[127.45965,36.40397]]]},"properties":{"key":"대전광역시|대덕구|회덕동","code":"3023052500"}},{"type":"Feature","geometry":{"type":"Polygon","coordinates":[[[127.4639,36.35076],[127.4659,36.36049],[127.45131,36.38091],[127.44562,36.37601],[127.44976,36.37105],[127.44699,36.36651],[127.44998,36.36212],[127.44252,36.35185],[127.4545,36.35448],[127.4639,36.35076]]]},"properties":{"key":"대전광역시|대덕구|비래동","code":"3023053300"}},{"type":"Feature","geometry":{"type":"Polygon","coordinates":[[[127.42991,36.36732],[127.42183,36.36784],[127.42004,36.36333],[127.41759,36.35868],[127.42757,36.35503],[127.43068,36.35905],[127.43544,36.36075],[127.4363,36.36555],[127.42991,36.36732]]]},"properties":{"key":"대전광역시|대덕구|중리동","code":"3023054600"}},{"type":"Feature","geometry":{"type":"Polygon","coordinates":[[[127.4275,36.37597],[127.42427,36.37537],[127.42115,36.36833],[127.42183,36.36784],[127.42991,36.36732],[127.4275,36.37597]]]},"properties":{"key":"대전광역시|대덕구|법1동","code":"3023060000"}},{"type":"Feature","geometry":{"type":"Polygon","coordinates":[[[127.45131,36.38091],[127.44008,36.38405],[127.4366,36.37882],[127.4275,36.37597],[127.42991,36.36732],[127.4363,36.36555],[127.43858,36.36984],[127.44562,36.37601],[127.45131,36.38091]]]},"properties":{"key":"대전광역시|대덕구|법2동","code":"3023061000"}},{"type":"Feature","geometry":{"type":"Polygon","coordinates":[[[127.48342,36.4778],[127.47171,36.47467],[127.46624,36.46931],[127.46403,36.46379],[127.46396,36.45657],[127.45321,36.4501],[127.44389,36.45032],[127.43626,36.45665],[127.42665,36.45534],[127.42905,36.44623],[127.42841,36.44256],[127.43489,36.43862],[127.44135,36.4382],[127.44392,36.43027],[127.44065,36.43017],[127.43831,36.42423],[127.44143,36.4273],[127.45332,36.42881],[127.45863,36.4258],[127.45239,36.41418],[127.45965,36.40397],[127.46646,36.40841],[127.47781,36.42227],[127.48403,36.43349],[127.48921,36.4327],[127.49222,36.44044],[127.50265,36.44931],[127.50266,36.45398],[127.49892,36.45568],[127.48717,36.45467],[127.47934,36.45784],[127.47928,36.46014],[127.48452,36.47528],[127.48342,36.4778]]]},"properties":{"key":"대전광역시|대덕구|신탄진동","code":"3023055000"}},{"type":"Feature","geometry":{"type":"Polygon","coordinates":[[[127.42665,36.45534],[127.41463,36.45487],[127.41923,36.44845],[127.42841,36.44256],[127.42905,36.44623],[127.42665,36.45534]]]},"properties":{"key":"대전광역시|대덕구|석봉동","code":"3023056000"}},{"type":"Feature","geometry":{"type":"Polygon","coordinates":[[[127.41923,36.44845],[127.4165,36.44665],[127.41373,36.43259],[127.41345,36.42228],[127.41747,36.41877],[127.42257,36.42013],[127.43179,36.41392],[127.43831,36.42423],[127.44065,36.43017],[127.44392,36.43027],[127.44135,36.4382],[127.43489,36.43862],[127.42841,36.44256],[127.41923,36.44845]]]},"properties":{"key":"대전광역시|대덕구|덕암동","code":"3023057000"}},{"type":"Feature","geometry":{"type":"Polygon","coordinates":[[[127.41463,36.45487],[127.40262,36.45569],[127.40254,36.45275],[127.39349,36.45057],[127.39071,36.44661],[127.39118,36.44189],[127.39446,36.43824],[127.41345,36.42228],[127.41373,36.43259],[127.4165,36.44665],[127.41923,36.44845],[127.41463,36.45487]]]},"properties":{"key":"대전광역시|대덕구|목상동","code":"3023058000"}},{"type":"Feature","geometry":{"type":"Polygon","coordinates":[[[127.44252,36.35185],[127.44998,36.36212],[127.44699,36.36651],[127.44976,36.37105],[127.44562,36.37601],[127.43858,36.36984],[127.4363,36.36555],[127.43544,36.36075],[127.4387,36.35973],[127.4414,36.35237],[127.44252,36.35185]]]},"properties":{"key":"대전광역시|대덕구|송촌동","code":"3023054300"}},{"type":"Feature","geometry":{"type":"Polygon","coordinates":[[[127.30402,36.3613],[127.28353,36.35389],[127.27789,36.34893],[127.26734,36.33889],[127.26801,36.33159],[127.27852,36.32949],[127.29062,36.33255],[127.29448,36.32443],[127.30874,36.32179],[127.31191,36.32412],[127.31159,36.33199],[127.31773,36.32834],[127.32509,36.32693],[127.32823,36.33214],[127.31801,36.33788],[127.32476,36.34676],[127.30895,36.35241],[127.31078,36.35756],[127.30402,36.3613]]]},"properties":{"key":"대전광역시|유성구|학하동","code":"3020052600"}},{"type":"Feature","geometry":{"type":"Polygon","coordinates":[[[127.32476,36.34676],[127.32635,36.34846],[127.34025,36.34858],[127.34129,36.35347],[127.34942,36.35155],[127.35682,36.35895],[127.36364,36.36397],[127.35139,36.35925],[127.34398,36.35982],[127.33767,36.35676],[127.33305,36.35704],[127.31991,36.36121],[127.3151,36.36242],[127.30402,36.3613],[127.31078,36.35756],[127.30895,36.35241],[127.32476,36.34676]]]},"properties":{"key":"대전광역시|유성구|온천1동","code":"3020053000"}},{"type":"Feature","geometry":{"type":"Polygon","coordinates":[[[127.33033,36.33207],[127.33821,36.33219],[127.35364,36.33214],[127.34942,36.35155],[127.34129,36.35347],[127.34025,36.34858],[127.34023,36.34557],[127.33569,36.33564],[127.33033,36.33207]]]},"properties":{"key":"대전광역시|유성구|원신흥동","code":"3020061000"}},{"type":"Feature","geometry":{"type":"Polygon","coordinates":[[[127.32476,36.34676],[127.31801,36.33788],[127.32823,36.33214],[127.33033,36.33207],[127.33569,36.33564],[127.34023,36.34557],[127.34025,36.34858],[127.32635,36.34846],[127.32476,36.34676]]]},"properties":{"key":"대전광역시|유성구|상대동","code":"3020052700"}},{"type":"Feature","geometry":{"type":"Polygon","coordinates":[[[127.3612,36.30454],[127.35725,36.30829],[127.35475,36.31399],[127.35818,36.31978],[127.35973,36.32777],[127.35893,36.33231],[127.35364,36.33214],[127.33821,36.33219],[127.33601,36.33018],[127.33888,36.31321],[127.34515,36.30344],[127.35829,36.30628],[127.3612,36.30454]]]},"properties":{"key":"대전광역시|서구|도안동","code":"3017059300"}}]}