{"type":"FeatureCollection","features":[{"type":"Feature","geometry":{"type":"Polygon","coordinates":[[[129.33586,35.55919],[129.32824,35.5586],[129.33174,35.55534],[129.33099,35.54996],[129.34028,35.54925],[129.34111,35.55603],[129.33822,35.55667],[129.33586,35.55919]]]},"properties":{"key":"울산광역시|중구|학성동","code":"3111051000"}},{"type":"Feature","geometry":{"type":"Polygon","coordinates":[[[129.35405,35.54802],[129.34992,35.55581],[129.35295,35.56069],[129.34364,35.55932],[129.33822,35.55667],[129.34111,35.55603],[129.34028,35.54925],[129.34824,35.54964],[129.35405,35.54802]]]},"properties":{"key":"울산광역시|중구|반구1동","code":"3111052000"}},{"type":"Feature","geometry":{"type":"Polygon","coordinates":[[[129.34364,35.55932],[129.34201,35.56153],[129.34328,35.56819],[129.3359,35.56421],[129.33586,35.55919],[129.33822,35.55667],[129.34364,35.55932]]]},"properties":{"key":"울산광역시|중구|반구2동","code":"3111053000"}},{"type":"Feature","geometry":{"type":"Polygon","coordinates":[[[129.31409,35.56276],[129.31227,35.56443],[129.31337,35.57145],[129.30403,35.57285],[129.30643,35.56474],[129.30664,35.55653],[129.30896,35.55334],[129.31704,35.55561],[129.31409,35.56276]]]},"properties":{"key":"울산광역시|중구|우정동","code":"3111059000"}},{"type":"Feature","geometry":{"type":"Polygon","coordinates":[[[129.2876,35.57807],[129.28432,35.57843],[129.27771,35.57349],[129.27817,35.56636],[129.28123,35.56291],[129.28608,35.56345],[129.28997,35.55681],[129.29407,35.55384],[129.28952,35.5486],[129.29458,35.54532],[129.3025,35.54598],[129.30454,35.55231],[129.30874,35.55228],[129.30896,35.55334],[129.30664,35.55653],[129.30643,35.56474],[129.30403,35.57285],[129.2876,35.57807]]]},"properties":{"key":"울산광역시|중구|태화동","code":"3111060000"}},{"type":"Feature","geometry":{"type":"Polygon","coordinates":[[[129.2839,35.58399],[129.26747,35.5869],[129.26548,35.58091],[129.25695,35.57849],[129.2616,35.57211],[129.26107,35.56246],[129.26512,35.55728],[129.27183,35.55322],[129.27908,35.55308],[129.28952,35.5486],[129.29407,35.55384],[129.28997,35.55681],[129.28608,35.56345],[129.28123,35.56291],[129.27817,35.56636],[129.27771,35.57349],[129.28432,35.57843],[129.2876,35.57807],[129.2839,35.58399]]]},"properties":{"key":"울산광역시|중구|다운동","code":"3111061000"}},{"type":"Feature","geometry":{"type":"Polygon","coordinates":[[[129.35229,35.57218],[129.34465,35.57183],[129.3414,35.5773],[129.33884,35.57445],[129.34328,35.56819],[129.34201,35.56153],[129.34364,35.55932],[129.35295,35.56069],[129.35229,35.57218]]]},"properties":{"key":"울산광역시|중구|병영1동","code":"3111062000"}},{"type":"Feature","geometry":{"type":"Polygon","coordinates":[[[129.34844,35.59528],[129.34135,35.59641],[129.33496,35.59355],[129.33104,35.59909],[129.32249,35.59714],[129.32604,35.59492],[129.3266,35.58826],[129.3294,35.58449],[129.3414,35.5773],[129.34465,35.57183],[129.35229,35.57218],[129.35155,35.57654],[129.34809,35.58592],[129.34844,35.59528]]]},"properties":{"key":"울산광역시|중구|병영2동","code":"3111063000"}},{"type":"Feature","geometry":{"type":"Polygon","coordinates":[[[129.3414,35.5773],[129.3294,35.58449],[129.3266,35.58826],[129.32604,35.59492],[129.32249,35.59714],[129.31821,35.59406],[129.3184,35.59135],[129.32668,35.58273],[129.32793,35.57274],[129.32582,35.57165],[129.33151,35.56917],[129.3359,35.56421],[129.34328,35.56819],[129.33884,35.57445],[129.3414,35.5773]]]},"properties":{"key":"울산광역시|중구|약사동","code":"3111064000"}},{"type":"Feature","geometry":{"type":"Polygon","coordinates":[[[129.31821,35.59406],[129.31057,35.58925],[129.30723,35.58908],[129.30107,35.59366],[129.29338,35.59245],[129.29013,35.59483],[129.29066,35.58552],[129.2839,35.58399],[129.2876,35.57807],[129.30403,35.57285],[129.31337,35.57145],[129.31227,35.56443],[129.31409,35.56276],[129.32202,35.56258],[129.32255,35.57025],[129.32582,35.57165],[129.32793,35.57274],[129.32668,35.58273],[129.3184,35.59135],[129.31821,35.59406]]]},"properties":{"key":"울산광역시|중구|성안동","code":"3111065000"}},{"type":"Feature","geometry":{"type":"Polygon","coordinates":[[[129.32202,35.56258],[129.31409,35.56276],[129.31704,35.55561],[129.30896,35.55334],[129.30874,35.55228],[129.31615,35.55056],[129.32185,35.55109],[129.33099,35.54996],[129.33174,35.55534],[129.32824,35.5586],[129.32359,35.55779],[129.32202,35.56258]]]},"properties":{"key":"울산광역시|중구|중앙동","code":"3111058500"}},{"type":"Feature","geometry":{"type":"Polygon","coordinates":[[[129.30874,35.55228],[129.30454,35.55231],[129.3025,35.54598],[129.29458,35.54532],[129.29467,35.54275],[129.2955,35.54063],[129.30555,35.53781],[129.31287,35.5381],[129.30812,35.54911],[129.30874,35.55228]]]},"properties":{"key":"울산광역시|남구|신정1동","code":"3114051000"}},{"type":"Feature","geometry":{"type":"Polygon","coordinates":[[[129.31287,35.5381],[129.30555,35.53781],[129.2955,35.54063],[129.29714,35.53336],[129.29975,35.52971],[129.30074,35.51841],[129.30801,35.51792],[129.31171,35.52073],[129.31255,35.52196],[129.30749,35.53221],[129.31446,35.534],[129.31287,35.5381]]]},"properties":{"key":"울산광역시|남구|신정2동","code":"3114052000"}},{"type":"Feature","geometry":{"type":"Polygon","coordinates":[[[129.31615,35.55056],[129.30874,35.55228],[129.30812,35.54911],[129.31287,35.5381],[129.32025,35.54005],[129.31615,35.55056]]]},"properties":{"key":"울산광역시|남구|신정3동","code":"3114053000"}},{"type":"Feature","geometry":{"type":"Polygon","coordinates":[[[129.32382,35.53123],[129.31446,35.534],[129.30749,35.53221],[129.31255,35.52196],[129.3213,35.52785],[129.32382,35.53123]]]},"properties":{"key":"울산광역시|남구|신정4동","code":"3114054000"}},{"type":"Feature","geometry":{"type":"Polygon","coordinates":[[[129.3262,35.5416],[129.32185,35.55109],[129.31615,35.55056],[129.32025,35.54005],[129.3262,35.5416]]]},"properties":{"key":"울산광역시|남구|신정5동","code":"3114055000"}},{"type":"Feature","geometry":{"type":"Polygon","coordinates":[[[129.33045,35.5317],[129.3262,35.5416],[129.32025,35.54005],[129.31287,35.5381],[129.31446,35.534],[129.32382,35.53123],[129.33045,35.5317]]]},"properties":{"key":"울산광역시|남구|달동","code":"3114056000"}},{"type":"Feature","geometry":{"type":"Polygon","coordinates":[[[129.33099,35.54996],[129.32185,35.55109],[129.3262,35.5416],[129.33045,35.5317],[129.33496,35.53324],[129.35197,35.53429],[129.3626,35.54095],[129.36461,35.54316],[129.35405,35.54802],[129.34824,35.54964],[129.34028,35.54925],[129.33099,35.54996]]]},"properties":{"key":"울산광역시|남구|삼산동","code":"3114057000"}},{"type":"Feature","geometry":{"type":"Polygon","coordinates":[[[129.28952,35.5486],[129.27908,35.55308],[129.27183,35.55322],[129.26512,35.55728],[129.26055,35.55211],[129.26369,35.54961],[129.26397,35.54326],[129.27455,35.54227],[129.27468,35.54714],[129.28166,35.54462],[129.29467,35.54275],[129.29458,35.54532],[129.28952,35.5486]]]},"properties":{"key":"울산광역시|남구|삼호동","code":"3114058500"}},{"type":"Feature","geometry":{"type":"Polygon","coordinates":[[[129.26055,35.55211],[129.25625,35.55475],[129.2494,35.54549],[129.23882,35.53946],[129.23667,35.53622],[129.24458,35.53582],[129.24785,35.53339],[129.25511,35.53383],[129.26182,35.53832],[129.26397,35.54326],[129.26369,35.54961],[129.26055,35.55211]]]},"properties":{"key":"울산광역시|남구|무거동","code":"3114059500"}},{"type":"Feature","geometry":{"type":"Polygon","coordinates":[[[129.29467,35.54275],[129.28166,35.54462],[129.27468,35.54714],[129.27455,35.54227],[129.26397,35.54326],[129.26182,35.53832],[129.25511,35.53383],[129.26236,35.5298],[129.27241,35.52978],[129.27287,35.52608],[129.28354,35.51711],[129.28742,35.51522],[129.29016,35.50776],[129.30148,35.49447],[129.30907,35.49727],[129.30801,35.51792],[129.30074,35.51841],[129.29975,35.52971],[129.29714,35.53336],[129.2955,35.54063],[129.29467,35.54275]]]},"properties":{"key":"울산광역시|남구|옥동","code":"3114060000"}},{"type":"Feature","geometry":{"type":"Polygon","coordinates":[[[129.36234,35.50531],[129.36982,35.50097],[129.37978,35.50274],[129.38743,35.50203],[129.38492,35.51586],[129.37552,35.51757],[129.3725,35.52346],[129.37449,35.52881],[129.37011,35.5364],[129.3626,35.54095],[129.35197,35.53429],[129.33496,35.53324],[129.3323,35.52381],[129.33281,35.5194],[129.33837,35.51647],[129.34418,35.51055],[129.34906,35.51002],[129.36234,35.50531]]]},"properties":{"key":"울산광역시|남구|야음장생포동","code":"3114067000"}},{"type":"Feature","geometry":{"type":"Polygon","coordinates":[[[129.33281,35.5194],[129.3323,35.52381],[129.33496,35.53324],[129.33045,35.5317],[129.32382,35.53123],[129.3213,35.52785],[129.31983,35.52462],[129.32426,35.52161],[129.33281,35.5194]]]},"properties":{"key":"울산광역시|남구|대현동","code":"3114062500"}},{"type":"Feature","geometry":{"type":"Polygon","coordinates":[[[129.3213,35.52785],[129.31255,35.52196],[129.31171,35.52073],[129.32257,35.51917],[129.32426,35.52161],[129.31983,35.52462],[129.3213,35.52785]]]},"properties":{"key":"울산광역시|남구|수암동","code":"3114063500"}},{"type":"Feature","geometry":{"type":"Polygon","coordinates":[[[129.33281,35.5194],[129.32426,35.52161],[129.32257,35.51917],[129.31171,35.52073],[129.30801,35.51792],[129.30907,35.49727],[129.31403,35.49114],[129.31943,35.49111],[129.31938,35.48483],[129.33126,35.48468],[129.3357,35.48241],[129.33905,35.48013],[129.33934,35.47527],[129.35267,35.46541],[129.3544,35.45974],[129.36131,35.45915],[129.37838,35.4722],[129.38413,35.47408],[129.3845,35.48372],[129.38933,35.48774],[129.37932,35.49998],[129.36759,35.49801],[129.36234,35.50531],[129.34906,35.51002],[129.34418,35.51055],[129.33837,35.51647],[129.33281,35.5194]]]},"properties":{"key":"울산광역시|남구|선암동","code":"3114064000"}},{"type":"Feature","geometry":{"type":"Polygon","coordinates":[[[129.41081,35.49482],[129.40445,35.50501],[129.40705,35.50864],[129.40668,35.51661],[129.40321,35.52011],[129.39185,35.523],[129.38744,35.52726],[129.39673,35.51493],[129.39786,35.50786],[129.39569,35.50116],[129.40304,35.49971],[129.40802,35.49324],[129.40396,35.48667],[129.40403,35.47738],[129.4068,35.47321],[129.41165,35.47159],[129.4164,35.47589],[129.41487,35.47838],[129.42413,35.48419],[129.42887,35.48471],[129.43215,35.48043],[129.43807,35.48465],[129.42744,35.49235],[129.42443,35.49039],[129.41735,35.49155],[129.41081,35.49482]]]},"properties":{"key":"울산광역시|동구|방어동","code":"3117051000"}},{"type":"Feature","geometry":{"type":"Polygon","coordinates":[[[129.43243,35.50756],[129.42966,35.50518],[129.42117,35.5067],[129.42387,35.5052],[129.42501,35.49777],[129.42744,35.49235],[129.43807,35.48465],[129.44243,35.49551],[129.4343,35.49219],[129.43143,35.49442],[129.43237,35.49932],[129.44345,35.50213],[129.44154,35.50773],[129.43243,35.50756]]]},"properties":{"key":"울산광역시|동구|일산동","code":"3117052000"}},{"type":"Feature","geometry":{"type":"Polygon","coordinates":[[[129.42501,35.49777],[129.42067,35.49876],[129.41081,35.49482],[129.41735,35.49155],[129.42443,35.49039],[129.42744,35.49235],[129.42501,35.49777]]]},"properties":{"key":"울산광역시|동구|화정동","code":"3117053000"}},{"type":"Feature","geometry":{"type":"Polygon","coordinates":[[[129.40836,35.516],[129.40668,35.51661],[129.40705,35.50864],[129.40445,35.50501],[129.41081,35.49482],[129.42067,35.49876],[129.42501,35.49777],[129.42387,35.5052],[129.42117,35.5067],[129.4185,35.51341],[129.40836,35.516]]]},"properties":{"key":"울산광역시|동구|대송동","code":"3117054000"}},{"type":"Feature","geometry":{"type":"Polygon","coordinates":[[[129.44722,35.51765],[129.44637,35.52006],[129.43143,35.51972],[129.42651,35.51869],[129.41203,35.51939],[129.40937,35.52135],[129.40836,35.516],[129.4185,35.51341],[129.4335,35.51127],[129.44549,35.51099],[129.44722,35.51765]]]},"properties":{"key":"울산광역시|동구|전하1동","code":"3117055000"}},{"type":"Feature","geometry":{"type":"Polygon","coordinates":[[[129.4343,35.53247],[129.42936,35.53916],[129.42942,35.54219],[129.41655,35.54752],[129.40844,35.54532],[129.40563,35.54165],[129.4067,35.53751],[129.40259,35.53147],[129.4062,35.52653],[129.41565,35.53353],[129.42792,35.53841],[129.4343,35.53247]]]},"properties":{"key":"울산광역시|동구|남목1동","code":"3117058000"}},{"type":"Feature","geometry":{"type":"Polygon","coordinates":[[[129.4343,35.53247],[129.42792,35.53841],[129.41565,35.53353],[129.4062,35.52653],[129.40937,35.52135],[129.41203,35.51939],[129.42651,35.51869],[129.43143,35.51972],[129.44637,35.52006],[129.44722,35.51765],[129.45036,35.52469],[129.44964,35.52778],[129.44726,35.52933],[129.43507,35.52754],[129.4343,35.53247]]]},"properties":{"key":"울산광역시|동구|남목2동","code":"3117059000"}},{"type":"Feature","geometry":{"type":"Polygon","coordinates":[[[129.44964,35.52778],[129.45101,35.53753],[129.45351,35.54211],[129.4531,35.5467],[129.45796,35.5546],[129.45835,35.55884],[129.45281,35.57268],[129.44504,35.56733],[129.44083,35.56836],[129.41722,35.56334],[129.4121,35.5607],[129.41372,35.55907],[129.41149,35.55291],[129.40796,35.5516],[129.40844,35.54532],[129.41655,35.54752],[129.42942,35.54219],[129.42936,35.53916],[129.4343,35.53247],[129.43507,35.52754],[129.44726,35.52933],[129.44964,35.52778]]]},"properties":{"key":"울산광역시|동구|남목3동","code":"3117060000"}},{"type":"Feature","geometry":{"type":"Polygon","coordinates":[[[129.4335,35.51127],[129.4185,35.51341],[129.42117,35.5067],[129.42966,35.50518],[129.43243,35.50756],[129.4335,35.51127]]]},"properties":{"key":"울산광역시|동구|전하2동","code":"3117056000"}},{"type":"Feature","geometry":{"type":"Polygon","coordinates":[[[129.3837,35.60885],[129.38807,35.60977],[129.39075,35.61384],[129.38564,35.61941],[129.39286,35.6235],[129.39117,35.62773],[129.38035,35.62784],[129.38103,35.63268],[129.37774,35.64029],[129.38181,35.64715],[129.37988,35.65647],[129.37536,35.66035],[129.37737,35.66614],[129.36904,35.659],[129.36828,35.65564],[129.36146,35.65345],[129.35766,35.64416],[129.34935,35.63329],[129.34529,35.63152],[129.34976,35.62526],[129.35131,35.61809],[129.34934,35.60524],[129.37922,35.61096],[129.3837,35.60885]]]},"properties":{"key":"울산광역시|북구|농소1동","code":"3120051000"}},{"type":"Feature","geometry":{"type":"Polygon","coordinates":[[[129.36455,35.67877],[129.35389,35.67955],[129.34879,35.67733],[129.34162,35.67083],[129.33721,35.6689],[129.33804,35.66644],[129.33414,35.65962],[129.33698,35.6516],[129.33718,35.64358],[129.34529,35.63152],[129.34935,35.63329],[129.35766,35.64416],[129.36146,35.65345],[129.36828,35.65564],[129.36904,35.659],[129.37737,35.66614],[129.37347,35.66984],[129.36455,35.67877]]]},"properties":{"key":"울산광역시|북구|농소2동","code":"3120052000"}},{"type":"Feature","geometry":{"type":"Polygon","coordinates":[[[129.34529,35.63152],[129.33718,35.64358],[129.33698,35.6516],[129.33414,35.65962],[129.33804,35.66644],[129.33721,35.6689],[129.33067,35.66585],[129.32399,35.65921],[129.31879,35.65841],[129.31075,35.66023],[129.30357,35.65697],[129.30279,35.64835],[129.29581,35.6443],[129.29819,35.63241],[129.29465,35.62583],[129.29462,35.61847],[129.30014,35.61419],[129.29907,35.60889],[129.29608,35.60719],[129.2901,35.59728],[129.29013,35.59483],[129.29338,35.59245],[129.30107,35.59366],[129.30723,35.58908],[129.31057,35.58925],[129.31821,35.59406],[129.32249,35.59714],[129.33104,35.59909],[129.33496,35.59355],[129.34135,35.59641],[129.34844,35.59528],[129.34934,35.60524],[129.35131,35.61809],[129.34976,35.62526],[129.34529,35.63152]]]},"properties":{"key":"울산광역시|북구|농소3동","code":"3120053000"}},{"type":"Feature","geometry":{"type":"Polygon","coordinates":[[[129.45001,35.65095],[129.44464,35.65388],[129.42839,35.65594],[129.4174,35.66054],[129.41263,35.66402],[129.40304,35.66325],[129.4008,35.66711],[129.38099,35.67108],[129.37347,35.66984],[129.37737,35.66614],[129.37536,35.66035],[129.37988,35.65647],[129.38181,35.64715],[129.37774,35.64029],[129.38103,35.63268],[129.38035,35.62784],[129.39117,35.62773],[129.39286,35.6235],[129.38564,35.61941],[129.39075,35.61384],[129.38807,35.60977],[129.3837,35.60885],[129.38984,35.60594],[129.39753,35.59701],[129.39764,35.5932],[129.39689,35.58565],[129.40034,35.57839],[129.39788,35.5692],[129.40273,35.56217],[129.4121,35.5607],[129.41722,35.56334],[129.44083,35.56836],[129.44504,35.56733],[129.45281,35.57268],[129.4532,35.5797],[129.45735,35.58474],[129.46506,35.58589],[129.46263,35.5931],[129.46437,35.59935],[129.46131,35.60732],[129.45746,35.60888],[129.45695,35.61394],[129.45041,35.61448],[129.45062,35.61803],[129.44333,35.62565],[129.44081,35.63247],[129.44125,35.64308],[129.44839,35.64755],[129.45001,35.65095]]]},"properties":{"key":"울산광역시|북구|강동동","code":"3120054000"}},{"type":"Feature","geometry":{"type":"Polygon","coordinates":[[[129.39788,35.5692],[129.40034,35.57839],[129.39689,35.58565],[129.39764,35.5932],[129.38738,35.59064],[129.38318,35.59098],[129.37041,35.58847],[129.36264,35.58824],[129.35155,35.57654],[129.35229,35.57218],[129.35295,35.56069],[129.34992,35.55581],[129.35405,35.54802],[129.36461,35.54316],[129.36931,35.54356],[129.37942,35.53694],[129.3775,35.54711],[129.3731,35.54977],[129.37137,35.55594],[129.37453,35.55979],[129.38137,35.55966],[129.38484,35.56305],[129.39134,35.56483],[129.39788,35.5692]]]},"properties":{"key":"울산광역시|북구|효문동","code":"3120056000"}},{"type":"Feature","geometry":{"type":"Polygon","coordinates":[[[129.3837,35.60885],[129.37922,35.61096],[129.34934,35.60524],[129.34844,35.59528],[129.34809,35.58592],[129.35155,35.57654],[129.36264,35.58824],[129.37041,35.58847],[129.38318,35.59098],[129.38738,35.59064],[129.39764,35.5932],[129.39753,35.59701],[129.38984,35.60594],[129.3837,35.60885]]]},"properties":{"key":"울산광역시|북구|송정동","code":"3120057000"}},{"type":"Feature","geometry":{"type":"Polygon","coordinates":[[[129.4121,35.5607],[129.40273,35.56217],[129.39788,35.5692],[129.39134,35.56483],[129.38484,35.56305],[129.38137,35.55966],[129.37453,35.55979],[129.37137,35.55594],[129.3731,35.54977],[129.3775,35.54711],[129.37942,35.53694],[129.38302,35.53328],[129.3913,35.53788],[129.39571,35.54492],[129.39732,35.5528],[129.41372,35.55907],[129.4121,35.5607]]]},"properties":{"key":"울산광역시|북구|양정동","code":"3120058000"}},{"type":"Feature","geometry":{"type":"Polygon","coordinates":[[[129.40844,35.54532],[129.40796,35.5516],[129.41149,35.55291],[129.41372,35.55907],[129.39732,35.5528],[129.39571,35.54492],[129.3913,35.53788],[129.38302,35.53328],[129.38744,35.52726],[129.39185,35.523],[129.40321,35.52011],[129.40668,35.51661],[129.40836,35.516],[129.40937,35.52135],[129.4062,35.52653],[129.40259,35.53147],[129.4067,35.53751],[129.40563,35.54165],[129.40844,35.54532]]]},"properties":{"key":"울산광역시|북구|염포동","code":"3120059000"}},{"type":"Feature","geometry":{"type":"Polygon","coordinates":[[[129.34651,35.38942],[129.35607,35.39249],[129.35747,35.40342],[129.36305,35.4065],[129.36295,35.41093],[129.35593,35.41109],[129.3558,35.41413],[129.36395,35.41455],[129.36557,35.41799],[129.36398,35.42311],[129.36491,35.42962],[129.3695,35.43151],[129.36577,35.4357],[129.36464,35.44161],[129.35907,35.44278],[129.35956,35.44796],[129.34997,35.44827],[129.34741,35.46429],[129.33935,35.4743],[129.33147,35.47162],[129.33012,35.46424],[129.31209,35.45689],[129.30566,35.45863],[129.29771,35.45729],[129.29884,35.45177],[129.29676,35.4478],[129.29692,35.44189],[129.28471,35.44058],[129.28442,35.43196],[129.28908,35.42553],[129.29826,35.42289],[129.30552,35.42761],[129.31158,35.42479],[129.30915,35.41988],[129.31259,35.41742],[129.31207,35.41229],[129.30804,35.40471],[129.31343,35.40298],[129.32124,35.39813],[129.34088,35.39264],[129.34651,35.38942]]]},"properties":{"key":"울산광역시|울주군|온산읍","code":"3171025000"}},{"type":"Feature","geometry":{"type":"Polygon","coordinates":[[[129.21466,35.62542],[129.20495,35.6331],[129.19951,35.63412],[129.19557,35.62855],[129.19233,35.62841],[129.18974,35.62271],[129.19112,35.61883],[129.18515,35.61485],[129.17755,35.61396],[129.17327,35.61155],[129.17233,35.60769],[129.16642,35.60731],[129.1576,35.61182],[129.15291,35.60802],[129.14627,35.6103],[129.14397,35.61263],[129.13586,35.61027],[129.12595,35.62426],[129.11749,35.62523],[129.11352,35.63103],[129.10461,35.63409],[129.09269,35.63294],[129.092,35.6242],[129.09907,35.61499],[129.10189,35.60936],[129.11311,35.60694],[129.12261,35.60143],[129.12232,35.59059],[129.11462,35.58015],[129.11267,35.57477],[129.10728,35.57049],[129.11199,35.56343],[129.11864,35.56414],[129.1301,35.56043],[129.13913,35.55501],[129.14449,35.54664],[129.13844,35.54147],[129.14239,35.54273],[129.14744,35.53837],[129.15672,35.53992],[129.16937,35.53521],[129.17816,35.53776],[129.18192,35.5427],[129.18746,35.545],[129.19332,35.5447],[129.19396,35.53779],[129.19696,35.53715],[129.20581,35.54232],[129.20087,35.54843],[129.20207,35.55929],[129.20049,35.56616],[129.19517,35.56599],[129.19542,35.57219],[129.19025,35.57798],[129.20155,35.58684],[129.20069,35.59644],[129.20629,35.60327],[129.21278,35.60528],[129.21218,35.6133],[129.21748,35.61756],[129.21466,35.62542]]]},"properties":{"key":"울산광역시|울주군|언양읍","code":"3171025300"}},{"type":"Feature","geometry":{"type":"Polygon","coordinates":[[[129.29771,35.45729],[129.28676,35.46226],[129.27903,35.46031],[129.27861,35.45715],[129.27354,35.45303],[129.26174,35.45292],[129.25413,35.45095],[129.24919,35.45416],[129.24424,35.451],[129.23809,35.45035],[129.23172,35.45409],[129.22351,35.44852],[129.21707,35.44849],[129.21493,35.44286],[129.20912,35.44075],[129.2071,35.43138],[129.2022,35.42999],[129.20018,35.42413],[129.20313,35.42094],[129.21035,35.41972],[129.21986,35.40917],[129.21073,35.40012],[129.20297,35.38787],[129.20871,35.38117],[129.21736,35.37869],[129.2312,35.38161],[129.23564,35.38031],[129.24131,35.38558],[129.25039,35.38376],[129.26537,35.38627],[129.26512,35.39227],[129.26879,35.39492],[129.27646,35.39201],[129.27478,35.38488],[129.28161,35.37988],[129.2911,35.37649],[129.2955,35.37963],[129.30111,35.38705],[129.30222,35.39549],[129.30804,35.40471],[129.31207,35.41229],[129.31259,35.41742],[129.30915,35.41988],[129.31158,35.42479],[129.30552,35.42761],[129.29826,35.42289],[129.28908,35.42553],[129.28442,35.43196],[129.28471,35.44058],[129.29692,35.44189],[129.29676,35.4478],[129.29884,35.45177],[129.29771,35.45729]]]},"properties":{"key":"울산광역시|울주군|온양읍","code":"3171025600"}},{"type":"Feature","geometry":{"type":"Polygon","coordinates":[[[129.29581,35.6443],[129.28451,35.65145],[129.28214,35.64949],[129.27529,35.65289],[129.2695,35.65104],[129.26008,35.65451],[129.25517,35.66034],[129.24869,35.64986],[129.2439,35.64495],[129.24455,35.63718],[129.24252,35.62953],[129.23328,35.63243],[129.22529,35.63176],[129.2177,35.62601],[129.21466,35.62542],[129.21748,35.61756],[129.21218,35.6133],[129.21278,35.60528],[129.20629,35.60327],[129.20069,35.59644],[129.20155,35.58684],[129.19025,35.57798],[129.19542,35.57219],[129.19517,35.56599],[129.20049,35.56616],[129.20207,35.55929],[129.20087,35.54843],[129.20581,35.54232],[129.2122,35.54137],[129.21502,35.53438],[129.22961,35.53753],[129.23667,35.53622],[129.23882,35.53946],[129.2494,35.54549],[129.25625,35.55475],[129.26055,35.55211],[129.26512,35.55728],[129.26107,35.56246],[129.2616,35.57211],[129.25695,35.57849],[129.26548,35.58091],[129.26747,35.5869],[129.2839,35.58399],[129.29066,35.58552],[129.29013,35.59483],[129.2901,35.59728],[129.29608,35.60719],[129.29907,35.60889],[129.30014,35.61419],[129.29462,35.61847],[129.29465,35.62583],[129.29819,35.63241],[129.29581,35.6443]]]},"properties":{"key":"울산광역시|울주군|범서읍","code":"3171025900"}},{"type":"Feature","geometry":{"type":"Polygon","coordinates":[[[129.34651,35.38942],[129.34088,35.39264],[129.32124,35.39813],[129.31343,35.40298],[129.30804,35.40471],[129.30222,35.39549],[129.30111,35.38705],[129.2955,35.37963],[129.2911,35.37649],[129.28161,35.37988],[129.27478,35.38488],[129.27646,35.39201],[129.26879,35.39492],[129.26512,35.39227],[129.26537,35.38627],[129.26827,35.37991],[129.27671,35.3724],[129.27971,35.36578],[129.28351,35.36271],[129.28057,35.35611],[129.28448,35.35227],[129.28377,35.34568],[129.27986,35.34151],[129.2855,35.3392],[129.28917,35.34021],[129.29318,35.33595],[129.30088,35.33424],[129.30453,35.32951],[129.31364,35.33046],[129.3179,35.33839],[129.32078,35.33901],[129.32271,35.34598],[129.33215,35.34759],[129.33575,35.35593],[129.33957,35.35672],[129.34721,35.35251],[129.35185,35.35566],[129.35899,35.35557],[129.36329,35.36122],[129.36141,35.36635],[129.35538,35.3697],[129.35596,35.3739],[129.34556,35.37642],[129.34838,35.38486],[129.34651,35.38942]]]},"properties":{"key":"울산광역시|울주군|서생면","code":"3171031000"}},{"type":"Feature","geometry":{"type":"Polygon","coordinates":[[[129.23667,35.53622],[129.22961,35.53753],[129.21502,35.53438],[129.20839,35.526],[129.20697,35.51966],[129.21005,35.51441],[129.2181,35.51216],[129.22336,35.50867],[129.22668,35.501],[129.22427,35.49788],[129.22731,35.49153],[129.23134,35.49044],[129.23364,35.48527],[129.23831,35.49139],[129.24873,35.48948],[129.24957,35.4868],[129.25605,35.48154],[129.25636,35.47496],[129.24688,35.46643],[129.23834,35.46546],[129.2363,35.45983],[129.24137,35.4566],[129.24424,35.451],[129.24919,35.45416],[129.25413,35.45095],[129.26174,35.45292],[129.27354,35.45303],[129.27861,35.45715],[129.27903,35.46031],[129.28676,35.46226],[129.29771,35.45729],[129.30566,35.45863],[129.31209,35.45689],[129.33012,35.46424],[129.33147,35.47162],[129.33935,35.4743],[129.3357,35.48241],[129.33126,35.48468],[129.31938,35.48483],[129.31943,35.49111],[129.31403,35.49114],[129.30907,35.49727],[129.30148,35.49447],[129.29016,35.50776],[129.28742,35.51522],[129.28354,35.51711],[129.27287,35.52608],[129.27241,35.52978],[129.26236,35.5298],[129.25511,35.53383],[129.24785,35.53339],[129.24458,35.53582],[129.23667,35.53622]]]},"properties":{"key":"울산광역시|울주군|청량읍","code":"3171026200"}},{"type":"Feature","geometry":{"type":"Polygon","coordinates":[[[129.21005,35.51441],[129.20289,35.51332],[129.19255,35.50404],[129.19566,35.50144],[129.20259,35.49],[129.19966,35.48566],[129.18824,35.48758],[129.18439,35.47555],[129.17365,35.47965],[129.16415,35.47921],[129.14343,35.4658],[129.13954,35.4593],[129.13572,35.45645],[129.13979,35.449],[129.14566,35.44443],[129.15,35.44298],[129.16549,35.43229],[129.17265,35.43357],[129.17895,35.43263],[129.18743,35.43487],[129.19636,35.43942],[129.2022,35.42999],[129.2071,35.43138],[129.20912,35.44075],[129.21493,35.44286],[129.21707,35.44849],[129.22351,35.44852],[129.23172,35.45409],[129.23809,35.45035],[129.24424,35.451],[129.24137,35.4566],[129.2363,35.45983],[129.23834,35.46546],[129.24688,35.46643],[129.25636,35.47496],[129.25605,35.48154],[129.24957,35.4868],[129.24873,35.48948],[129.23831,35.49139],[129.23364,35.48527],[129.23134,35.49044],[129.22731,35.49153],[129.22427,35.49788],[129.22668,35.501],[129.22336,35.50867],[129.2181,35.51216],[129.21005,35.51441]]]},"properties":{"key":"울산광역시|울주군|웅촌면","code":"3171034000"}},{"type":"Feature","geometry":{"type":"Polygon","coordinates":[[[129.25604,35.70078],[129.23406,35.70358],[129.23254,35.70807],[129.22669,35.70832],[129.21944,35.71346],[129.21405,35.71525],[129.20723,35.72151],[129.20091,35.71602],[129.19523,35.70987],[129.20084,35.70159],[129.197,35.693],[129.19768,35.68567],[129.19231,35.68046],[129.19188,35.67636],[129.18395,35.67196],[129.1853,35.6596],[129.18104,35.65294],[129.16876,35.65056],[129.16726,35.64162],[129.1641,35.63736],[129.16416,35.63128],[129.16849,35.62477],[129.16439,35.62096],[129.15766,35.62734],[129.14723,35.61555],[129.14627,35.6103],[129.15291,35.60802],[129.1576,35.61182],[129.16642,35.60731],[129.17233,35.60769],[129.17327,35.61155],[129.17755,35.61396],[129.18515,35.61485],[129.19112,35.61883],[129.18974,35.62271],[129.19233,35.62841],[129.19557,35.62855],[129.19951,35.63412],[129.20495,35.6331],[129.21466,35.62542],[129.2177,35.62601],[129.22529,35.63176],[129.23328,35.63243],[129.24252,35.62953],[129.24455,35.63718],[129.2439,35.64495],[129.24869,35.64986],[129.25517,35.66034],[129.25425,35.66626],[129.25981,35.67303],[129.26086,35.67939],[129.25863,35.68349],[129.2623,35.68601],[129.26269,35.69145],[129.25604,35.70078]]]},"properties":{"key":"울산광역시|울주군|두동면","code":"3171036000"}},{"type":"Feature","geometry":{"type":"Polygon","coordinates":[[[129.20091,35.71602],[129.19765,35.71579],[129.18152,35.72314],[129.17686,35.71553],[129.17332,35.71439],[129.16064,35.71488],[129.15437,35.72171],[129.14572,35.7247],[129.13853,35.72088],[129.14004,35.71808],[129.13524,35.71193],[129.12917,35.71287],[129.12328,35.70748],[129.11611,35.70826],[129.10168,35.70623],[129.09103,35.70257],[129.08857,35.70202],[129.09562,35.69432],[129.09834,35.68877],[129.09647,35.68289],[129.10074,35.67442],[129.10411,35.67108],[129.10981,35.65729],[129.09882,35.64912],[129.09307,35.64335],[129.0887,35.64163],[129.09269,35.63294],[129.10461,35.63409],[129.11352,35.63103],[129.11749,35.62523],[129.12595,35.62426],[129.13586,35.61027],[129.14397,35.61263],[129.14627,35.6103],[129.14723,35.61555],[129.15766,35.62734],[129.16439,35.62096],[129.16849,35.62477],[129.16416,35.63128],[129.1641,35.63736],[129.16726,35.64162],[129.16876,35.65056],[129.18104,35.65294],[129.1853,35.6596],[129.18395,35.67196],[129.19188,35.67636],[129.19231,35.68046],[129.19768,35.68567],[129.197,35.693],[129.20084,35.70159],[129.19523,35.70987],[129.20091,35.71602]]]},"properties":{"key":"울산광역시|울주군|두서면","code":"3171037000"}},{"type":"Feature","geometry":{"type":"Polygon","coordinates":[[[129.09269,35.63294],[129.0887,35.64163],[129.09307,35.64335],[129.09882,35.64912],[129.10981,35.65729],[129.10411,35.67108],[129.10074,35.67442],[129.09647,35.68289],[129.09834,35.68877],[129.09562,35.69432],[129.08857,35.70202],[129.07743,35.69302],[129.06949,35.68073],[129.07303,35.67801],[129.06833,35.67312],[129.06947,35.66911],[129.06761,35.6618],[129.07015,35.65775],[129.08107,35.64748],[129.08121,35.64343],[129.07413,35.64009],[129.06433,35.64625],[129.04731,35.65015],[129.04392,35.64145],[129.03497,35.632],[129.02714,35.63635],[129.02098,35.63556],[129.01757,35.63091],[129.00773,35.62681],[129.00335,35.62014],[129.00752,35.61589],[129.01554,35.6165],[129.02186,35.61392],[129.02346,35.60354],[129.02603,35.60069],[129.02359,35.59171],[129.02018,35.58497],[129.00624,35.57804],[128.99545,35.56895],[128.98658,35.5657],[128.97781,35.56397],[128.9709,35.56064],[128.97365,35.55223],[128.98094,35.54661],[128.99304,35.54794],[128.99762,35.5422],[128.9945,35.52899],[129.00955,35.52799],[129.01144,35.52317],[129.03834,35.52742],[129.05576,35.53214],[129.0567,35.53111],[129.05473,35.53717],[129.05809,35.54001],[129.08085,35.54319],[129.08697,35.54151],[129.09515,35.54386],[129.0981,35.54733],[129.09838,35.55223],[129.10136,35.55906],[129.11199,35.56343],[129.10728,35.57049],[129.11267,35.57477],[129.11462,35.58015],[129.12232,35.59059],[129.12261,35.60143],[129.11311,35.60694],[129.10189,35.60936],[129.09907,35.61499],[129.092,35.6242],[129.09269,35.63294]]]},"properties":{"key":"울산광역시|울주군|상북면","code":"3171038000"}},{"type":"Feature","geometry":{"type":"Polygon","coordinates":[[[129.13844,35.54147],[129.14449,35.54664],[129.13913,35.55501],[129.1301,35.56043],[129.11864,35.56414],[129.11199,35.56343],[129.10136,35.55906],[129.09838,35.55223],[129.0981,35.54733],[129.09515,35.54386],[129.08697,35.54151],[129.08085,35.54319],[129.05809,35.54001],[129.05473,35.53717],[129.0567,35.53111],[129.05314,35.52536],[129.052,35.51573],[129.06165,35.50946],[129.07102,35.50573],[129.08644,35.50184],[129.0947,35.49774],[129.0973,35.50373],[129.09604,35.50709],[129.09906,35.51157],[129.10382,35.51064],[129.11557,35.52184],[129.11944,35.52992],[129.12662,35.53508],[129.13569,35.53698],[129.13844,35.54147]]]},"properties":{"key":"울산광역시|울주군|삼남읍","code":"3171026500"}},{"type":"Feature","geometry":{"type":"Polygon","coordinates":[[[129.20581,35.54232],[129.19696,35.53715],[129.19396,35.53779],[129.19332,35.5447],[129.18746,35.545],[129.18192,35.5427],[129.17816,35.53776],[129.16937,35.53521],[129.15672,35.53992],[129.14744,35.53837],[129.14239,35.54273],[129.13844,35.54147],[129.13569,35.53698],[129.12662,35.53508],[129.11944,35.52992],[129.11557,35.52184],[129.10382,35.51064],[129.09906,35.51157],[129.09604,35.50709],[129.0973,35.50373],[129.0947,35.49774],[129.1026,35.49767],[129.10671,35.49496],[129.10664,35.48977],[129.10963,35.4797],[129.11712,35.47467],[129.11985,35.46855],[129.12876,35.45925],[129.13572,35.45645],[129.13954,35.4593],[129.14343,35.4658],[129.16415,35.47921],[129.17365,35.47965],[129.18439,35.47555],[129.18824,35.48758],[129.19966,35.48566],[129.20259,35.49],[129.19566,35.50144],[129.19255,35.50404],[129.20289,35.51332],[129.21005,35.51441],[129.20697,35.51966],[129.20839,35.526],[129.21502,35.53438],[129.2122,35.54137],[129.20581,35.54232]]]},"properties":{"key":"울산광역시|울주군|삼동면","code":"3171040000"}},{"type":"Feature","geometry":{"type":"Polygon","coordinates":[[[129.32824,35.5586],[129.33586,35.55919],[129.3359,35.56421],[129.33151,35.56917],[129.32582,35.57165],[129.32255,35.57025],[129.32202,35.56258],[129.32359,35.55779],[129.32824,35.5586]]]},"properties":{"key":"울산광역시|중구|복산동","code":"3111055500"}}]}