{"type":"FeatureCollection","features":[{"type":"Feature","geometry":{"type":"Polygon","coordinates":[[[127.30161,36.58212],[127.29935,36.5864],[127.30395,36.59013],[127.30698,36.59997],[127.30123,36.60752],[127.30087,36.61554],[127.29459,36.6207],[127.29093,36.62695],[127.29237,36.63576],[127.28885,36.63713],[127.28085,36.63439],[127.27943,36.62904],[127.27448,36.6237],[127.26787,36.62048],[127.25867,36.61878],[127.26002,36.61445],[127.26404,36.61183],[127.27164,36.61104],[127.27039,36.60297],[127.27565,36.59688],[127.28225,36.59566],[127.2912,36.58507],[127.28933,36.57965],[127.30141,36.57792],[127.30161,36.58212]]]},"properties":{"key":"세종특별자치시|세종시|조치원읍","code":"3611025000"}},{"type":"Feature","geometry":{"type":"Polygon","coordinates":[[[127.37706,36.56744],[127.37029,36.56651],[127.36054,36.56227],[127.35114,36.56225],[127.35768,36.54874],[127.35416,36.54169],[127.35563,36.53836],[127.35516,36.52996],[127.36221,36.52566],[127.36269,36.52189],[127.35821,36.52021],[127.36333,36.51708],[127.36475,36.5117],[127.36105,36.50966],[127.35086,36.5004],[127.35653,36.49339],[127.36133,36.49107],[127.36939,36.48959],[127.37558,36.49385],[127.38117,36.50002],[127.38797,36.49851],[127.39567,36.49161],[127.40881,36.4953],[127.40777,36.50285],[127.40916,36.50706],[127.40385,36.51713],[127.39761,36.52057],[127.4084,36.52719],[127.40562,36.5314],[127.40501,36.53731],[127.40182,36.54124],[127.39216,36.53995],[127.38349,36.54201],[127.3831,36.54817],[127.37869,36.54992],[127.37938,36.55369],[127.37632,36.56072],[127.37706,36.56744]]]},"properties":{"key":"세종특별자치시|세종시|부강면","code":"3611033000"}},{"type":"Feature","geometry":{"type":"Polygon","coordinates":[[[127.21853,36.55281],[127.21818,36.56342],[127.21285,36.57416],[127.20768,36.57821],[127.20374,36.57267],[127.20311,36.56745],[127.19379,36.56481],[127.18676,36.55294],[127.19146,36.54727],[127.18504,36.54366],[127.17867,36.54536],[127.17424,36.54219],[127.17267,36.53614],[127.17573,36.52888],[127.18199,36.52191],[127.17402,36.51551],[127.17002,36.50904],[127.17599,36.50541],[127.17825,36.49988],[127.17351,36.49927],[127.17688,36.49253],[127.18831,36.49262],[127.19468,36.48959],[127.19486,36.48474],[127.19048,36.47947],[127.19475,36.46876],[127.20328,36.46498],[127.20473,36.45929],[127.1984,36.45221],[127.20134,36.44912],[127.20139,36.44198],[127.19909,36.44005],[127.2057,36.43657],[127.21248,36.43539],[127.22347,36.43584],[127.22564,36.43753],[127.22676,36.44837],[127.23374,36.45662],[127.24536,36.4605],[127.23506,36.47046],[127.24095,36.47627],[127.24381,36.47872],[127.23907,36.48808],[127.23784,36.49504],[127.23106,36.49948],[127.23174,36.50235],[127.22341,36.5148],[127.22924,36.52191],[127.23065,36.52622],[127.22438,36.53005],[127.21565,36.5313],[127.21267,36.53409],[127.21429,36.54485],[127.21842,36.54748],[127.21853,36.55281]]]},"properties":{"key":"세종특별자치시|세종시|장군면","code":"3611035000"}},{"type":"Feature","geometry":{"type":"Polygon","coordinates":[[[127.25867,36.61878],[127.25263,36.62005],[127.23162,36.61827],[127.22504,36.61579],[127.22205,36.61904],[127.20983,36.61947],[127.19685,36.61349],[127.19781,36.60991],[127.19272,36.59802],[127.18894,36.59439],[127.18925,36.5866],[127.19296,36.58175],[127.2005,36.58285],[127.20768,36.57821],[127.21285,36.57416],[127.21818,36.56342],[127.21853,36.55281],[127.22366,36.55426],[127.24379,36.55278],[127.2521,36.55008],[127.26359,36.5526],[127.26672,36.54962],[127.27163,36.5513],[127.274,36.55546],[127.28394,36.55638],[127.29519,36.54802],[127.29685,36.55394],[127.30198,36.56046],[127.30674,36.56935],[127.30141,36.57792],[127.28933,36.57965],[127.2912,36.58507],[127.28225,36.59566],[127.27565,36.59688],[127.27039,36.60297],[127.27164,36.61104],[127.26404,36.61183],[127.26002,36.61445],[127.25867,36.61878]]]},"properties":{"key":"세종특별자치시|세종시|연서면","code":"3611036000"}},{"type":"Feature","geometry":{"type":"Polygon","coordinates":[[[127.24812,36.69507],[127.23609,36.70736],[127.23014,36.70772],[127.21897,36.71521],[127.20774,36.71918],[127.2061,36.71273],[127.20048,36.70788],[127.19847,36.70362],[127.1861,36.70346],[127.17785,36.7064],[127.17623,36.71005],[127.16969,36.70809],[127.16395,36.71089],[127.15789,36.70708],[127.15174,36.70558],[127.1575,36.69531],[127.16087,36.69199],[127.1644,36.67834],[127.15839,36.6731],[127.15477,36.66486],[127.15896,36.66156],[127.1594,36.65595],[127.15421,36.65271],[127.15304,36.64504],[127.15795,36.63517],[127.15411,36.62454],[127.15056,36.62043],[127.15589,36.61526],[127.15559,36.60614],[127.16762,36.60156],[127.17254,36.59651],[127.17858,36.5969],[127.18459,36.59102],[127.18894,36.59439],[127.19272,36.59802],[127.19781,36.60991],[127.19685,36.61349],[127.20983,36.61947],[127.2102,36.62426],[127.20503,36.62987],[127.20381,36.63963],[127.20189,36.64345],[127.20446,36.65046],[127.20063,36.65666],[127.20871,36.66584],[127.20602,36.66939],[127.21196,36.67124],[127.21807,36.67072],[127.21914,36.67377],[127.21604,36.68396],[127.22051,36.68758],[127.23536,36.68388],[127.24254,36.68556],[127.24735,36.69067],[127.24812,36.69507]]]},"properties":{"key":"세종특별자치시|세종시|전의면","code":"3611037000"}},{"type":"Feature","geometry":{"type":"Polygon","coordinates":[[[127.27033,36.69428],[127.26704,36.69237],[127.25967,36.69253],[127.25142,36.69687],[127.24812,36.69507],[127.24735,36.69067],[127.24254,36.68556],[127.23536,36.68388],[127.22051,36.68758],[127.21604,36.68396],[127.21914,36.67377],[127.21807,36.67072],[127.21196,36.67124],[127.20602,36.66939],[127.20871,36.66584],[127.20063,36.65666],[127.20446,36.65046],[127.20189,36.64345],[127.20381,36.63963],[127.20503,36.62987],[127.2102,36.62426],[127.20983,36.61947],[127.22205,36.61904],[127.22504,36.61579],[127.23162,36.61827],[127.25263,36.62005],[127.25867,36.61878],[127.26787,36.62048],[127.27448,36.6237],[127.27943,36.62904],[127.28085,36.63439],[127.27671,36.63852],[127.28044,36.64166],[127.28696,36.65417],[127.29333,36.65445],[127.30162,36.66009],[127.30145,36.66409],[127.30508,36.66803],[127.30761,36.68163],[127.30459,36.68488],[127.29644,36.68572],[127.28563,36.69093],[127.27772,36.69132],[127.27033,36.69428]]]},"properties":{"key":"세종특별자치시|세종시|전동면","code":"3611038000"}},{"type":"Feature","geometry":{"type":"Polygon","coordinates":[[[127.20292,36.72618],[127.1928,36.72882],[127.18785,36.72776],[127.18344,36.73033],[127.17381,36.72861],[127.17188,36.73154],[127.16336,36.73364],[127.15925,36.73168],[127.15693,36.7264],[127.15287,36.72831],[127.14505,36.71713],[127.12771,36.70858],[127.13619,36.70484],[127.14247,36.69113],[127.15275,36.6902],[127.1575,36.69531],[127.15174,36.70558],[127.15789,36.70708],[127.16395,36.71089],[127.16969,36.70809],[127.17623,36.71005],[127.17785,36.7064],[127.1861,36.70346],[127.19847,36.70362],[127.20048,36.70788],[127.2061,36.71273],[127.20774,36.71918],[127.20394,36.72137],[127.20292,36.72618]]]},"properties":{"key":"세종특별자치시|세종시|소정면","code":"3611039000"}},{"type":"Feature","geometry":{"type":"Polygon","coordinates":[[[127.259,36.48358],[127.24381,36.47872],[127.24095,36.47627],[127.23697,36.47147],[127.2446,36.46398],[127.25273,36.4654],[127.25739,36.47158],[127.25639,36.4755],[127.26242,36.4789],[127.259,36.48358]]]},"properties":{"key":"세종특별자치시|세종시|한솔동","code":"3611051000"}},{"type":"Feature","geometry":{"type":"Polygon","coordinates":[[[127.26106,36.52537],[127.24859,36.52793],[127.24777,36.5246],[127.24133,36.51635],[127.24141,36.5088],[127.2531,36.50719],[127.25246,36.51541],[127.25394,36.51948],[127.25948,36.52045],[127.26106,36.52537]]]},"properties":{"key":"세종특별자치시|세종시|아름동","code":"3611053000"}},{"type":"Feature","geometry":{"type":"Polygon","coordinates":[[[127.2531,36.50719],[127.24141,36.5088],[127.24031,36.49973],[127.25197,36.49897],[127.25425,36.50658],[127.2531,36.50719]]]},"properties":{"key":"세종특별자치시|세종시|종촌동","code":"3611054000"}},{"type":"Feature","geometry":{"type":"Polygon","coordinates":[[[127.27884,36.47717],[127.28606,36.47134],[127.29998,36.47805],[127.29351,36.4849],[127.28995,36.48192],[127.27884,36.47717]]]},"properties":{"key":"세종특별자치시|세종시|보람동","code":"3611056000"}},{"type":"Feature","geometry":{"type":"Polygon","coordinates":[[[127.24859,36.52793],[127.23844,36.53524],[127.23394,36.53313],[127.22754,36.53354],[127.22438,36.53005],[127.23065,36.52622],[127.22924,36.52191],[127.22341,36.5148],[127.23174,36.50235],[127.23106,36.49948],[127.24031,36.49973],[127.24141,36.5088],[127.24133,36.51635],[127.24777,36.5246],[127.24859,36.52793]]]},"properties":{"key":"세종특별자치시|세종시|고운동","code":"3611055000"}},{"type":"Feature","geometry":{"type":"Polygon","coordinates":[[[127.25634,36.49516],[127.25197,36.49897],[127.24031,36.49973],[127.23106,36.49948],[127.23784,36.49504],[127.23907,36.48808],[127.25547,36.49105],[127.25634,36.49516]]]},"properties":{"key":"세종특별자치시|세종시|다정동","code":"3611058000"}},{"type":"Feature","geometry":{"type":"Polygon","coordinates":[[[127.27884,36.47717],[127.26704,36.47221],[127.26314,36.46621],[127.27215,36.46388],[127.2772,36.46766],[127.28606,36.47134],[127.27884,36.47717]]]},"properties":{"key":"세종특별자치시|세종시|대평동","code":"3611057000"}},{"type":"Feature","geometry":{"type":"Polygon","coordinates":[[[127.27291,36.50611],[127.26746,36.5102],[127.26413,36.51884],[127.26749,36.52286],[127.26106,36.52537],[127.25948,36.52045],[127.25394,36.51948],[127.25246,36.51541],[127.2531,36.50719],[127.25425,36.50658],[127.25962,36.5083],[127.26686,36.50811],[127.27291,36.50611]]]},"properties":{"key":"세종특별자치시|세종시|도담동","code":"3611052000"}},{"type":"Feature","geometry":{"type":"Polygon","coordinates":[[[127.34656,36.51737],[127.34759,36.51351],[127.34439,36.50482],[127.33777,36.49818],[127.33168,36.48705],[127.32737,36.48663],[127.32568,36.48161],[127.30859,36.47925],[127.29998,36.47805],[127.28606,36.47134],[127.2772,36.46766],[127.27215,36.46388],[127.26376,36.4635],[127.25209,36.45906],[127.24536,36.4605],[127.23374,36.45662],[127.22676,36.44837],[127.22564,36.43753],[127.22347,36.43584],[127.21248,36.43539],[127.21771,36.43374],[127.22511,36.42665],[127.22564,36.42229],[127.23171,36.42195],[127.23626,36.41866],[127.24226,36.41862],[127.2508,36.40676],[127.25721,36.408],[127.25981,36.41552],[127.26549,36.41717],[127.27569,36.41395],[127.28231,36.41454],[127.28925,36.41609],[127.28926,36.41936],[127.30275,36.42467],[127.31061,36.42479],[127.31667,36.42012],[127.32112,36.42351],[127.32698,36.42203],[127.34072,36.43098],[127.3399,36.43598],[127.3447,36.44446],[127.35309,36.44791],[127.35871,36.45603],[127.35595,36.46402],[127.36362,36.47033],[127.3645,36.47442],[127.36129,36.47757],[127.35915,36.48539],[127.36133,36.49107],[127.35653,36.49339],[127.35086,36.5004],[127.36105,36.50966],[127.36475,36.5117],[127.36333,36.51708],[127.35821,36.52021],[127.34656,36.51737]]]},"properties":{"key":"세종특별자치시|세종시|금남면","code":"3611034000"}},{"type":"Feature","geometry":{"type":"Polygon","coordinates":[[[127.29886,36.49203],[127.29351,36.4849],[127.29998,36.47805],[127.30859,36.47925],[127.30455,36.48873],[127.29886,36.49203]]]},"properties":{"key":"세종특별자치시|세종시|소담동","code":"3611055500"}},{"type":"Feature","geometry":{"type":"Polygon","coordinates":[[[127.29641,36.54349],[127.29519,36.54802],[127.28394,36.55638],[127.274,36.55546],[127.27163,36.5513],[127.26672,36.54962],[127.26359,36.5526],[127.2521,36.55008],[127.24379,36.55278],[127.22366,36.55426],[127.21853,36.55281],[127.21842,36.54748],[127.21429,36.54485],[127.21267,36.53409],[127.21565,36.5313],[127.22438,36.53005],[127.22754,36.53354],[127.23394,36.53313],[127.23844,36.53524],[127.24517,36.53763],[127.25885,36.53724],[127.26417,36.5431],[127.27011,36.54345],[127.28659,36.54076],[127.29295,36.53793],[127.29641,36.54349]]]},"properties":{"key":"세종특별자치시|세종시|연기면","code":"3611031000"}},{"type":"Feature","geometry":{"type":"Polygon","coordinates":[[[127.29295,36.53793],[127.28659,36.54076],[127.27011,36.54345],[127.26417,36.5431],[127.25885,36.53724],[127.24517,36.53763],[127.23844,36.53524],[127.24859,36.52793],[127.26106,36.52537],[127.26749,36.52286],[127.28094,36.52272],[127.27871,36.52834],[127.2867,36.53008],[127.28461,36.52515],[127.28879,36.52195],[127.29008,36.51628],[127.29326,36.51501],[127.29975,36.52058],[127.30246,36.52857],[127.30545,36.52877],[127.29676,36.53148],[127.29295,36.53793]]]},"properties":{"key":"세종특별자치시|세종시|해밀동","code":"3611052500"}},{"type":"Feature","geometry":{"type":"Polygon","coordinates":[[[127.34656,36.51737],[127.35821,36.52021],[127.36269,36.52189],[127.36221,36.52566],[127.35516,36.52996],[127.35563,36.53836],[127.35416,36.54169],[127.35768,36.54874],[127.35114,36.56225],[127.34301,36.5645],[127.3371,36.56305],[127.33634,36.57018],[127.3255,36.57785],[127.3219,36.58265],[127.30824,36.58346],[127.30161,36.58212],[127.30141,36.57792],[127.30674,36.56935],[127.30198,36.56046],[127.29685,36.55394],[127.29519,36.54802],[127.29641,36.54349],[127.30004,36.54623],[127.30701,36.54645],[127.31058,36.54255],[127.31653,36.5458],[127.31892,36.54322],[127.32681,36.54327],[127.32967,36.54028],[127.32688,36.53621],[127.33187,36.53256],[127.33803,36.53257],[127.33707,36.52801],[127.34656,36.51737]]]},"properties":{"key":"세종특별자치시|세종시|연동면","code":"3611032000"}},{"type":"Feature","geometry":{"type":"Polygon","coordinates":[[[127.29641,36.54349],[127.29295,36.53793],[127.29676,36.53148],[127.30545,36.52877],[127.32024,36.525],[127.32375,36.51657],[127.32174,36.50861],[127.31361,36.50572],[127.30651,36.5002],[127.29886,36.49203],[127.30455,36.48873],[127.30859,36.47925],[127.32568,36.48161],[127.32737,36.48663],[127.33168,36.48705],[127.33777,36.49818],[127.34439,36.50482],[127.34759,36.51351],[127.34656,36.51737],[127.33707,36.52801],[127.33803,36.53257],[127.33187,36.53256],[127.32688,36.53621],[127.32967,36.54028],[127.32681,36.54327],[127.31892,36.54322],[127.31653,36.5458],[127.31058,36.54255],[127.30701,36.54645],[127.30004,36.54623],[127.29641,36.54349]]]},"properties":{"key":"세종특별자치시|세종시|반곡동","code":"3611055600"}},{"type":"Feature","geometry":{"type":"Polygon","coordinates":[[[127.25547,36.49105],[127.23907,36.48808],[127.24381,36.47872],[127.259,36.48358],[127.25547,36.49105]]]},"properties":{"key":"세종특별자치시|세종시|새롬동","code":"3611051500"}},{"type":"Feature","geometry":{"type":"Polygon","coordinates":[[[127.259,36.48358],[127.26242,36.4789],[127.25639,36.4755],[127.25739,36.47158],[127.25273,36.4654],[127.2446,36.46398],[127.23697,36.47147],[127.24095,36.47627],[127.23506,36.47046],[127.24536,36.4605],[127.25209,36.45906],[127.26376,36.4635],[127.27215,36.46388],[127.26314,36.46621],[127.26704,36.47221],[127.27884,36.47717],[127.28995,36.48192],[127.29351,36.4849],[127.29886,36.49203],[127.30651,36.5002],[127.31361,36.50572],[127.32174,36.50861],[127.32375,36.51657],[127.32024,36.525],[127.30545,36.52877],[127.30246,36.52857],[127.29975,36.52058],[127.29326,36.51501],[127.29008,36.51628],[127.28879,36.52195],[127.28461,36.52515],[127.2867,36.53008],[127.27871,36.52834],[127.28094,36.52272],[127.26749,36.52286],[127.26413,36.51884],[127.26746,36.5102],[127.27291,36.50611],[127.2738,36.50105],[127.26963,36.49905],[127.2674,36.49273],[127.25634,36.49516],[127.25547,36.49105],[127.259,36.48358]]]},"properties":{"key":"세종특별자치시|세종시|나성동","code":"3611051800"}},{"type":"Feature","geometry":{"type":"Polygon","coordinates":[[[127.25425,36.50658],[127.25197,36.49897],[127.25634,36.49516],[127.2674,36.49273],[127.26963,36.49905],[127.2738,36.50105],[127.27291,36.50611],[127.26686,36.50811],[127.25962,36.5083],[127.25425,36.50658]]]},"properties":{"key":"세종특별자치시|세종시|어진동","code":"3611052300"}}]}