{"type":"FeatureCollection","features":[{"type":"Feature","geometry":{"type":"MultiPolygon","coordinates":[[[[126.23128,33.40475],[126.23221,33.40991],[126.22874,33.41245],[126.22324,33.4118],[126.22198,33.40589],[126.23128,33.40475]]],[[[126.29638,33.44752],[126.29221,33.44423],[126.28538,33.44603],[126.2726,33.43892],[126.2616,33.43752],[126.25996,33.43469],[126.26228,33.42662],[126.25784,33.42635],[126.25626,33.42188],[126.25855,33.41533],[126.25371,33.41255],[126.24885,33.40585],[126.24973,33.40216],[126.24094,33.40148],[126.24091,33.39578],[126.23642,33.39611],[126.23207,33.39095],[126.22216,33.39127],[126.22082,33.38747],[126.21179,33.38162],[126.21212,33.37631],[126.21513,33.37374],[126.21608,33.36715],[126.22365,33.3644],[126.23216,33.35718],[126.23499,33.35296],[126.23858,33.34298],[126.24744,33.34785],[126.2481,33.34176],[126.25172,33.34061],[126.25866,33.345],[126.27296,33.33638],[126.28121,33.32924],[126.29268,33.32215],[126.29981,33.31981],[126.30281,33.3223],[126.31909,33.3272],[126.32382,33.32635],[126.32703,33.33116],[126.3309,33.33296],[126.33606,33.33924],[126.34327,33.34332],[126.34938,33.34109],[126.36886,33.34157],[126.37516,33.34677],[126.36629,33.349],[126.35434,33.35413],[126.33441,33.36624],[126.32327,33.37897],[126.3233,33.38731],[126.31823,33.39023],[126.30983,33.39956],[126.30892,33.40572],[126.30347,33.41327],[126.30201,33.41766],[126.30361,33.42737],[126.30002,33.43279],[126.29911,33.44596],[126.29638,33.44752]]]]},"properties":{"key":"제주특별자치도|제주시|한림읍","code":"5011025000"}},{"type":"Feature","geometry":{"type":"Polygon","coordinates":[[[126.44549,33.46855],[126.4433,33.47617],[126.43843,33.47615],[126.43175,33.47317],[126.42193,33.47436],[126.41919,33.47982],[126.42134,33.48939],[126.41974,33.49272],[126.40886,33.48918],[126.39835,33.48403],[126.39469,33.48439],[126.39177,33.48935],[126.38263,33.48822],[126.3684,33.47885],[126.35974,33.48009],[126.35321,33.47792],[126.3522,33.47443],[126.3415,33.47146],[126.33548,33.46693],[126.32619,33.46917],[126.31679,33.46841],[126.31331,33.4698],[126.30804,33.46635],[126.31034,33.46031],[126.30503,33.45149],[126.29638,33.44752],[126.29911,33.44596],[126.30002,33.43279],[126.30361,33.42737],[126.30201,33.41766],[126.30347,33.41327],[126.30892,33.40572],[126.30983,33.39956],[126.31823,33.39023],[126.3233,33.38731],[126.32327,33.37897],[126.33441,33.36624],[126.35434,33.35413],[126.36629,33.349],[126.37516,33.34677],[126.38163,33.34656],[126.39179,33.34368],[126.40036,33.34377],[126.40995,33.34119],[126.41807,33.33775],[126.42827,33.33749],[126.43341,33.33976],[126.43766,33.34369],[126.43801,33.35327],[126.4421,33.35747],[126.44873,33.35852],[126.46622,33.35818],[126.47512,33.35556],[126.47977,33.3584],[126.48472,33.35837],[126.48985,33.35455],[126.49867,33.35921],[126.50529,33.35767],[126.51216,33.36149],[126.51797,33.36029],[126.5223,33.36117],[126.52945,33.36153],[126.52413,33.37045],[126.50969,33.38306],[126.50273,33.38332],[126.49145,33.39047],[126.48189,33.38801],[126.476,33.38808],[126.47194,33.39117],[126.4593,33.39636],[126.45922,33.40249],[126.45185,33.40903],[126.45002,33.41281],[126.44863,33.42952],[126.44708,33.43384],[126.45065,33.44159],[126.44613,33.4499],[126.44783,33.462],[126.44549,33.46855]]]},"properties":{"key":"제주특별자치도|제주시|애월읍","code":"5011025300"}},{"type":"Feature","geometry":{"type":"Polygon","coordinates":[[[126.90324,33.48334],[126.91056,33.48679],[126.91295,33.49058],[126.91593,33.50159],[126.91387,33.50817],[126.90756,33.51168],[126.90033,33.51111],[126.90752,33.52092],[126.90363,33.52194],[126.90243,33.52632],[126.89735,33.52507],[126.89246,33.52894],[126.88623,33.52894],[126.86692,33.5309],[126.86446,33.52602],[126.8575,33.527],[126.85098,33.534],[126.84539,33.53391],[126.83491,33.54216],[126.83014,33.54727],[126.82792,33.5601],[126.81618,33.56165],[126.80849,33.55873],[126.80156,33.55975],[126.79981,33.55695],[126.78049,33.56648],[126.76203,33.56543],[126.76088,33.56044],[126.74904,33.56128],[126.74022,33.5592],[126.73362,33.55994],[126.72884,33.56249],[126.71813,33.55882],[126.71757,33.55631],[126.70523,33.55405],[126.70595,33.54706],[126.7028,33.54334],[126.70723,33.53394],[126.71389,33.52863],[126.71889,33.51912],[126.72513,33.51318],[126.72807,33.50722],[126.7314,33.50492],[126.73078,33.48548],[126.72395,33.4685],[126.72592,33.45807],[126.72033,33.4517],[126.72222,33.43975],[126.73268,33.42541],[126.74422,33.41811],[126.74929,33.41717],[126.75747,33.41824],[126.7782,33.43225],[126.7832,33.4346],[126.78869,33.44151],[126.79668,33.44043],[126.80523,33.44353],[126.82469,33.44842],[126.82391,33.45299],[126.82918,33.45398],[126.83689,33.45834],[126.84648,33.46213],[126.85433,33.4632],[126.85793,33.46714],[126.86523,33.46941],[126.88777,33.48149],[126.89701,33.48362],[126.90324,33.48334]]]},"properties":{"key":"제주특별자치도|제주시|구좌읍","code":"5011025600"}},{"type":"Feature","geometry":{"type":"Polygon","coordinates":[[[126.70523,33.55405],[126.69002,33.55352],[126.68327,33.55063],[126.6807,33.55365],[126.67528,33.55269],[126.67315,33.54548],[126.66574,33.54444],[126.65806,33.54901],[126.65805,33.55212],[126.6471,33.55604],[126.64318,33.55489],[126.63693,33.54978],[126.63232,33.54221],[126.62704,33.54008],[126.61199,33.53875],[126.60315,33.53524],[126.59905,33.52479],[126.60173,33.5202],[126.61187,33.51698],[126.62009,33.51483],[126.62022,33.49952],[126.62304,33.49383],[126.62782,33.48962],[126.63672,33.47662],[126.63815,33.4655],[126.64115,33.46253],[126.64074,33.44477],[126.64714,33.43616],[126.64263,33.42869],[126.62861,33.42273],[126.61907,33.4138],[126.61542,33.40611],[126.61594,33.40369],[126.6098,33.39683],[126.6027,33.39356],[126.59761,33.39451],[126.59096,33.391],[126.56846,33.38061],[126.56032,33.37996],[126.5582,33.37106],[126.56991,33.37187],[126.58104,33.3713],[126.59154,33.37376],[126.60195,33.38043],[126.61967,33.38493],[126.62277,33.38369],[126.62604,33.38992],[126.63336,33.39403],[126.63606,33.39321],[126.65198,33.39454],[126.65452,33.39985],[126.66532,33.40224],[126.6717,33.3986],[126.68627,33.39976],[126.68816,33.40961],[126.69558,33.41671],[126.70683,33.42182],[126.71775,33.42205],[126.73268,33.42541],[126.72222,33.43975],[126.72033,33.4517],[126.72592,33.45807],[126.72395,33.4685],[126.73078,33.48548],[126.7314,33.50492],[126.72807,33.50722],[126.72513,33.51318],[126.71889,33.51912],[126.71389,33.52863],[126.70723,33.53394],[126.7028,33.54334],[126.70595,33.54706],[126.70523,33.55405]]]},"properties":{"key":"제주특별자치도|제주시|조천읍","code":"5011025900"}},{"type":"Feature","geometry":{"type":"Polygon","coordinates":[[[126.29981,33.31981],[126.29268,33.32215],[126.28121,33.32924],[126.27296,33.33638],[126.25866,33.345],[126.25172,33.34061],[126.2481,33.34176],[126.24744,33.34785],[126.23858,33.34298],[126.23499,33.35296],[126.23216,33.35718],[126.22365,33.3644],[126.21608,33.36715],[126.21513,33.37374],[126.21212,33.37631],[126.20428,33.37234],[126.19999,33.36622],[126.18699,33.36395],[126.17995,33.35973],[126.17769,33.34725],[126.17455,33.34828],[126.16726,33.34637],[126.16416,33.33891],[126.15908,33.33662],[126.16227,33.33173],[126.1612,33.32387],[126.16499,33.3221],[126.16619,33.31715],[126.16217,33.30863],[126.16585,33.29904],[126.16077,33.29635],[126.15927,33.2923],[126.1607,33.28518],[126.16817,33.28162],[126.17207,33.28555],[126.17125,33.28864],[126.17596,33.29232],[126.1916,33.29454],[126.19195,33.29838],[126.20167,33.29586],[126.23028,33.28382],[126.24175,33.27459],[126.24394,33.27564],[126.24328,33.28498],[126.24739,33.28932],[126.25431,33.29298],[126.26881,33.29633],[126.27245,33.30235],[126.28104,33.30829],[126.28492,33.31279],[126.29981,33.31981]]]},"properties":{"key":"제주특별자치도|제주시|한경면","code":"5011031000"}},{"type":"Feature","geometry":{"type":"MultiPolygon","coordinates":[[[[126.34266,33.95456],[126.33683,33.95711],[126.3303,33.95364],[126.3215,33.95206],[126.31634,33.95455],[126.31048,33.95255],[126.3048,33.95395],[126.30288,33.95012],[126.31622,33.94096],[126.32039,33.9309],[126.32851,33.93035],[126.32483,33.93551],[126.32443,33.94115],[126.32835,33.94426],[126.34195,33.94588],[126.34266,33.95456]]],[[[126.2964,33.96523],[126.28408,33.96807],[126.28846,33.96256],[126.28894,33.95814],[126.29764,33.95213],[126.3025,33.95438],[126.29975,33.96314],[126.2964,33.96523]]],[[[126.33673,34.01322],[126.33493,34.00839],[126.34305,34.00795],[126.34779,34.00534],[126.35119,34.00837],[126.34526,34.01147],[126.33673,34.01322]]]]},"properties":{"key":"제주특별자치도|제주시|추자면","code":"5011032000"}},{"type":"Feature","geometry":{"type":"Polygon","coordinates":[[[126.95835,33.51541],[126.96237,33.51902],[126.95543,33.52571],[126.94703,33.52279],[126.94901,33.51883],[126.94401,33.51307],[126.94076,33.50668],[126.94441,33.49702],[126.94748,33.4928],[126.95617,33.49085],[126.95879,33.4924],[126.96397,33.48889],[126.96876,33.49237],[126.97148,33.4984],[126.96829,33.5049],[126.96608,33.51495],[126.95835,33.51541]]]},"properties":{"key":"제주특별자치도|제주시|우도면","code":"5011033000"}},{"type":"Feature","geometry":{"type":"Polygon","coordinates":[[[126.53196,33.51327],[126.52425,33.5161],[126.52348,33.51252],[126.52707,33.50992],[126.53196,33.51327]]]},"properties":{"key":"제주특별자치도|제주시|일도1동","code":"5011051000"}},{"type":"Feature","geometry":{"type":"Polygon","coordinates":[[[126.55496,33.50409],[126.55229,33.50333],[126.53838,33.51421],[126.53196,33.51327],[126.52707,33.50992],[126.52879,33.5064],[126.53478,33.5033],[126.53818,33.50562],[126.54609,33.49756],[126.55276,33.49739],[126.55496,33.50409]]]},"properties":{"key":"제주특별자치도|제주시|일도2동","code":"5011052000"}},{"type":"Feature","geometry":{"type":"Polygon","coordinates":[[[126.52707,33.50992],[126.52348,33.51252],[126.52462,33.50433],[126.52551,33.50012],[126.53478,33.5033],[126.52879,33.5064],[126.52707,33.50992]]]},"properties":{"key":"제주특별자치도|제주시|이도1동","code":"5011053000"}},{"type":"Feature","geometry":{"type":"Polygon","coordinates":[[[126.55276,33.49739],[126.54609,33.49756],[126.53818,33.50562],[126.53478,33.5033],[126.52551,33.50012],[126.52046,33.49793],[126.52141,33.49476],[126.51698,33.48391],[126.51972,33.47814],[126.52257,33.4763],[126.5299,33.47705],[126.53172,33.48502],[126.54221,33.48797],[126.54233,33.49401],[126.55209,33.49022],[126.55276,33.49739]]]},"properties":{"key":"제주특별자치도|제주시|이도2동","code":"5011054000"}},{"type":"Feature","geometry":{"type":"Polygon","coordinates":[[[126.52462,33.50433],[126.51996,33.50442],[126.51976,33.51052],[126.51446,33.5054],[126.51555,33.50003],[126.52046,33.49793],[126.52551,33.50012],[126.52462,33.50433]]]},"properties":{"key":"제주특별자치도|제주시|삼도1동","code":"5011055000"}},{"type":"Feature","geometry":{"type":"Polygon","coordinates":[[[126.52472,33.51897],[126.51576,33.5186],[126.51976,33.51052],[126.51996,33.50442],[126.52462,33.50433],[126.52348,33.51252],[126.52425,33.5161],[126.52472,33.51897]]]},"properties":{"key":"제주특별자치도|제주시|삼도2동","code":"5011056000"}},{"type":"Feature","geometry":{"type":"Polygon","coordinates":[[[126.51976,33.51052],[126.51576,33.5186],[126.51417,33.51653],[126.51155,33.50924],[126.51202,33.50016],[126.51555,33.50003],[126.51446,33.5054],[126.51976,33.51052]]]},"properties":{"key":"제주특별자치도|제주시|용담1동","code":"5011057000"}},{"type":"Feature","geometry":{"type":"Polygon","coordinates":[[[126.51417,33.51653],[126.50156,33.51833],[126.49539,33.52171],[126.48518,33.51816],[126.48382,33.51211],[126.49158,33.50509],[126.49223,33.49385],[126.49947,33.49831],[126.50595,33.50031],[126.51202,33.50016],[126.51155,33.50924],[126.51417,33.51653]]]},"properties":{"key":"제주특별자치도|제주시|용담2동","code":"5011058000"}},{"type":"Feature","geometry":{"type":"Polygon","coordinates":[[[126.54884,33.52084],[126.5445,33.52339],[126.5453,33.52774],[126.53974,33.53081],[126.53499,33.52459],[126.52472,33.51897],[126.52425,33.5161],[126.53196,33.51327],[126.53838,33.51421],[126.55229,33.50333],[126.55496,33.50409],[126.55687,33.50711],[126.54766,33.51163],[126.55218,33.5135],[126.54884,33.52084]]]},"properties":{"key":"제주특별자치도|제주시|건입동","code":"5011059000"}},{"type":"Feature","geometry":{"type":"Polygon","coordinates":[[[126.57345,33.52578],[126.56581,33.52467],[126.56161,33.5277],[126.55841,33.52271],[126.54884,33.52084],[126.55218,33.5135],[126.54766,33.51163],[126.55687,33.50711],[126.55496,33.50409],[126.55276,33.49739],[126.55209,33.49022],[126.55553,33.48648],[126.5638,33.48715],[126.56364,33.4945],[126.57536,33.49794],[126.5811,33.49754],[126.57384,33.50863],[126.577,33.5101],[126.57797,33.52137],[126.57345,33.52578]]]},"properties":{"key":"제주특별자치도|제주시|화북동","code":"5011060000"}},{"type":"Feature","geometry":{"type":"Polygon","coordinates":[[[126.60315,33.53524],[126.59737,33.53777],[126.58732,33.53281],[126.58623,33.52889],[126.58159,33.52718],[126.57478,33.52937],[126.57345,33.52578],[126.57797,33.52137],[126.577,33.5101],[126.57384,33.50863],[126.5811,33.49754],[126.58189,33.49709],[126.59343,33.49441],[126.59972,33.49918],[126.59817,33.50415],[126.60818,33.5063],[126.61187,33.51698],[126.60173,33.5202],[126.59905,33.52479],[126.60315,33.53524]]]},"properties":{"key":"제주특별자치도|제주시|삼양동","code":"5011061000"}},{"type":"Feature","geometry":{"type":"Polygon","coordinates":[[[126.59096,33.391],[126.59761,33.39451],[126.6027,33.39356],[126.6098,33.39683],[126.61594,33.40369],[126.61542,33.40611],[126.61907,33.4138],[126.62861,33.42273],[126.64263,33.42869],[126.64714,33.43616],[126.64074,33.44477],[126.64115,33.46253],[126.63815,33.4655],[126.63672,33.47662],[126.62782,33.48962],[126.62304,33.49383],[126.62022,33.49952],[126.62009,33.51483],[126.61187,33.51698],[126.60818,33.5063],[126.59817,33.50415],[126.59972,33.49918],[126.59343,33.49441],[126.58189,33.49709],[126.58188,33.49347],[126.58802,33.48673],[126.58208,33.48071],[126.57619,33.48057],[126.57695,33.47629],[126.5827,33.47279],[126.58499,33.46452],[126.58547,33.45574],[126.5902,33.4487],[126.58915,33.44257],[126.59306,33.42788],[126.5895,33.41566],[126.59115,33.4095],[126.59647,33.40295],[126.59096,33.391]]]},"properties":{"key":"제주특별자치도|제주시|봉개동","code":"5011062000"}},{"type":"Feature","geometry":{"type":"Polygon","coordinates":[[[126.5811,33.49754],[126.57536,33.49794],[126.56364,33.4945],[126.5638,33.48715],[126.55553,33.48648],[126.55209,33.49022],[126.54233,33.49401],[126.54221,33.48797],[126.53172,33.48502],[126.5299,33.47705],[126.52257,33.4763],[126.51972,33.47814],[126.51534,33.47105],[126.51725,33.46447],[126.51657,33.45713],[126.51916,33.44925],[126.525,33.44303],[126.52721,33.43673],[126.53254,33.43154],[126.53514,33.42401],[126.53934,33.42066],[126.53617,33.41372],[126.53885,33.403],[126.53669,33.39769],[126.52631,33.38622],[126.52389,33.37749],[126.52529,33.37411],[126.52413,33.37045],[126.52945,33.36153],[126.53962,33.36429],[126.55107,33.37204],[126.5582,33.37106],[126.56032,33.37996],[126.56846,33.38061],[126.59096,33.391],[126.59647,33.40295],[126.59115,33.4095],[126.5895,33.41566],[126.59306,33.42788],[126.58915,33.44257],[126.5902,33.4487],[126.58547,33.45574],[126.58499,33.46452],[126.5827,33.47279],[126.57695,33.47629],[126.57619,33.48057],[126.58208,33.48071],[126.58802,33.48673],[126.58188,33.49347],[126.58189,33.49709],[126.5811,33.49754]]]},"properties":{"key":"제주특별자치도|제주시|아라동","code":"5011063000"}},{"type":"Feature","geometry":{"type":"Polygon","coordinates":[[[126.51202,33.50016],[126.50595,33.50031],[126.49947,33.49831],[126.50173,33.49726],[126.50196,33.48476],[126.50005,33.47858],[126.50178,33.47509],[126.50087,33.46566],[126.50287,33.46171],[126.50015,33.45194],[126.5024,33.4339],[126.50507,33.42706],[126.50493,33.42211],[126.50758,33.41717],[126.50703,33.41071],[126.50038,33.41483],[126.50609,33.40625],[126.50633,33.39852],[126.51287,33.39575],[126.52192,33.38797],[126.52233,33.37676],[126.52529,33.37411],[126.52389,33.37749],[126.52631,33.38622],[126.53669,33.39769],[126.53885,33.403],[126.53617,33.41372],[126.53934,33.42066],[126.53514,33.42401],[126.53254,33.43154],[126.52721,33.43673],[126.525,33.44303],[126.51916,33.44925],[126.51657,33.45713],[126.51725,33.46447],[126.51534,33.47105],[126.51972,33.47814],[126.51698,33.48391],[126.52141,33.49476],[126.52046,33.49793],[126.51555,33.50003],[126.51202,33.50016]]]},"properties":{"key":"제주특별자치도|제주시|오라동","code":"5011064000"}},{"type":"Feature","geometry":{"type":"Polygon","coordinates":[[[126.50038,33.41483],[126.50703,33.41071],[126.50758,33.41717],[126.50493,33.42211],[126.50507,33.42706],[126.5024,33.4339],[126.50015,33.45194],[126.50287,33.46171],[126.50087,33.46566],[126.50178,33.47509],[126.50005,33.47858],[126.50196,33.48476],[126.50173,33.49726],[126.49947,33.49831],[126.49223,33.49385],[126.48203,33.49707],[126.4776,33.4955],[126.47954,33.49185],[126.48642,33.48613],[126.48685,33.47368],[126.48877,33.4615],[126.48661,33.45739],[126.48879,33.44551],[126.48869,33.43702],[126.49141,33.43144],[126.49292,33.42073],[126.50038,33.41483]]]},"properties":{"key":"제주특별자치도|제주시|연동","code":"5011065000"}},{"type":"Feature","geometry":{"type":"Polygon","coordinates":[[[126.50038,33.41483],[126.49292,33.42073],[126.49141,33.43144],[126.48869,33.43702],[126.48879,33.44551],[126.48661,33.45739],[126.48877,33.4615],[126.48685,33.47368],[126.48642,33.48613],[126.47954,33.49185],[126.4776,33.4955],[126.47179,33.4922],[126.45644,33.48441],[126.46139,33.47966],[126.46094,33.47059],[126.45603,33.46728],[126.45057,33.46943],[126.44549,33.46855],[126.44783,33.462],[126.44613,33.4499],[126.45065,33.44159],[126.44708,33.43384],[126.44863,33.42952],[126.45002,33.41281],[126.45185,33.40903],[126.45922,33.40249],[126.4593,33.39636],[126.47194,33.39117],[126.476,33.38808],[126.48189,33.38801],[126.49145,33.39047],[126.50273,33.38332],[126.50969,33.38306],[126.52413,33.37045],[126.52529,33.37411],[126.52233,33.37676],[126.52192,33.38797],[126.51287,33.39575],[126.50633,33.39852],[126.50609,33.40625],[126.50038,33.41483]]]},"properties":{"key":"제주특별자치도|제주시|노형동","code":"5011066000"}},{"type":"Feature","geometry":{"type":"Polygon","coordinates":[[[126.44708,33.49864],[126.43185,33.49453],[126.42375,33.4958],[126.41974,33.49272],[126.42134,33.48939],[126.41919,33.47982],[126.42193,33.47436],[126.43175,33.47317],[126.43843,33.47615],[126.4433,33.47617],[126.44549,33.46855],[126.45057,33.46943],[126.45603,33.46728],[126.46094,33.47059],[126.46139,33.47966],[126.45644,33.48441],[126.44677,33.49541],[126.44708,33.49864]]]},"properties":{"key":"제주특별자치도|제주시|외도동","code":"5011067000"}},{"type":"Feature","geometry":{"type":"Polygon","coordinates":[[[126.46274,33.50334],[126.45462,33.50463],[126.45429,33.50074],[126.44708,33.49864],[126.44677,33.49541],[126.45644,33.48441],[126.47179,33.4922],[126.4684,33.49328],[126.46274,33.50334]]]},"properties":{"key":"제주특별자치도|제주시|이호동","code":"5011068000"}},{"type":"Feature","geometry":{"type":"Polygon","coordinates":[[[126.49223,33.49385],[126.49158,33.50509],[126.48382,33.51211],[126.48006,33.51003],[126.46827,33.5106],[126.46274,33.50334],[126.4684,33.49328],[126.47179,33.4922],[126.4776,33.4955],[126.48203,33.49707],[126.49223,33.49385]]]},"properties":{"key":"제주특별자치도|제주시|도두동","code":"5011069000"}},{"type":"Feature","geometry":{"type":"MultiPolygon","coordinates":[[[[126.26998,33.11245],[126.27027,33.12255],[126.26443,33.1181],[126.2672,33.11193],[126.26998,33.11245]]],[[[126.27038,33.16123],[126.28022,33.16743],[126.27497,33.17542],[126.26849,33.17585],[126.26262,33.16909],[126.26746,33.16618],[126.27038,33.16123]]],[[[126.29523,33.21929],[126.29047,33.22145],[126.28973,33.22588],[126.2845,33.23157],[126.28612,33.24184],[126.29147,33.24316],[126.29641,33.25834],[126.29523,33.26602],[126.30376,33.27454],[126.30252,33.2796],[126.29489,33.28409],[126.29266,33.2889],[126.29365,33.29786],[126.29239,33.30201],[126.28104,33.30829],[126.27245,33.30235],[126.26881,33.29633],[126.25431,33.29298],[126.24739,33.28932],[126.24328,33.28498],[126.24394,33.27564],[126.24175,33.27459],[126.23028,33.28382],[126.20167,33.29586],[126.19195,33.29838],[126.1916,33.29454],[126.17596,33.29232],[126.17125,33.28864],[126.17207,33.28555],[126.16817,33.28162],[126.16944,33.27413],[126.1773,33.26823],[126.17959,33.26188],[126.19983,33.24593],[126.21221,33.24078],[126.21926,33.24179],[126.22804,33.23566],[126.23246,33.23447],[126.23513,33.22804],[126.23986,33.22571],[126.24936,33.21312],[126.25527,33.2096],[126.26241,33.20957],[126.2602,33.20064],[126.26186,33.19782],[126.26907,33.19404],[126.27638,33.19795],[126.28471,33.20021],[126.2891,33.19452],[126.29544,33.19639],[126.29195,33.20418],[126.29523,33.21929]]]]},"properties":{"key":"제주특별자치도|서귀포시|대정읍","code":"5013025000"}},{"type":"Feature","geometry":{"type":"Polygon","coordinates":[[[126.65198,33.39454],[126.63606,33.39321],[126.63336,33.39403],[126.62604,33.38992],[126.62277,33.38369],[126.61967,33.38493],[126.60195,33.38043],[126.59154,33.37376],[126.58104,33.3713],[126.56991,33.37187],[126.5582,33.37106],[126.55107,33.37204],[126.53962,33.36429],[126.55604,33.35844],[126.56264,33.35328],[126.57114,33.34918],[126.57419,33.34104],[126.58287,33.32954],[126.59087,33.32652],[126.59492,33.31884],[126.59971,33.31493],[126.60165,33.2997],[126.60459,33.29738],[126.60284,33.29093],[126.60406,33.28731],[126.61434,33.2854],[126.61689,33.27929],[126.62039,33.2784],[126.62361,33.26918],[126.62144,33.26619],[126.62468,33.2622],[126.62309,33.25591],[126.62412,33.25206],[126.62746,33.2513],[126.64032,33.25698],[126.64215,33.26575],[126.65323,33.26931],[126.67085,33.27063],[126.67722,33.2668],[126.68331,33.2695],[126.69856,33.2703],[126.70585,33.27334],[126.72315,33.27619],[126.72372,33.27825],[126.7323,33.2786],[126.73881,33.27656],[126.7454,33.27806],[126.75837,33.28925],[126.76547,33.29196],[126.76954,33.29984],[126.77557,33.30413],[126.77407,33.3098],[126.76979,33.31096],[126.75838,33.3235],[126.7589,33.3337],[126.75229,33.34171],[126.74936,33.34828],[126.74186,33.35323],[126.74119,33.35671],[126.73501,33.36558],[126.73075,33.36515],[126.72412,33.37196],[126.7178,33.37115],[126.698,33.37665],[126.69486,33.37415],[126.6868,33.37731],[126.68131,33.37567],[126.6782,33.37843],[126.66795,33.3817],[126.66464,33.3852],[126.65847,33.38499],[126.65318,33.39],[126.65198,33.39454]]]},"properties":{"key":"제주특별자치도|서귀포시|남원읍","code":"5013025300"}},{"type":"Feature","geometry":{"type":"Polygon","coordinates":[[[126.9147,33.47564],[126.90962,33.47957],[126.90613,33.47801],[126.90324,33.48334],[126.89701,33.48362],[126.88777,33.48149],[126.86523,33.46941],[126.85793,33.46714],[126.85433,33.4632],[126.84648,33.46213],[126.83689,33.45834],[126.82918,33.45398],[126.82391,33.45299],[126.82469,33.44842],[126.80523,33.44353],[126.81205,33.44036],[126.81616,33.43504],[126.81545,33.4282],[126.82007,33.42657],[126.81753,33.41464],[126.81202,33.39911],[126.8059,33.38513],[126.8004,33.38222],[126.80781,33.37277],[126.81484,33.37212],[126.82474,33.36314],[126.8372,33.35743],[126.84231,33.35002],[126.84442,33.34453],[126.84831,33.34091],[126.84977,33.33627],[126.85705,33.33811],[126.86141,33.34693],[126.86363,33.34728],[126.87017,33.35492],[126.86809,33.36366],[126.87338,33.3658],[126.87369,33.37166],[126.87944,33.37608],[126.88483,33.38417],[126.89096,33.38687],[126.89841,33.38786],[126.90713,33.39119],[126.90639,33.39862],[126.90342,33.40307],[126.90871,33.40676],[126.9089,33.41149],[126.91615,33.42475],[126.91771,33.43428],[126.92302,33.43398],[126.9247,33.42933],[126.92208,33.42667],[126.92855,33.42253],[126.93211,33.42235],[126.93713,33.42918],[126.92916,33.43556],[126.9253,33.43531],[126.92544,33.44316],[126.92274,33.44542],[126.92652,33.45241],[126.9342,33.45975],[126.94075,33.45433],[126.94714,33.45558],[126.94477,33.46137],[126.94015,33.46229],[126.93628,33.47381],[126.92381,33.47272],[126.91731,33.47525],[126.9147,33.47564]]]},"properties":{"key":"제주특별자치도|서귀포시|성산읍","code":"5013025900"}},{"type":"Feature","geometry":{"type":"Polygon","coordinates":[[[126.43341,33.33976],[126.42827,33.33749],[126.41807,33.33775],[126.40995,33.34119],[126.40036,33.34377],[126.39179,33.34368],[126.38163,33.34656],[126.37516,33.34677],[126.36886,33.34157],[126.34938,33.34109],[126.34327,33.34332],[126.33606,33.33924],[126.3309,33.33296],[126.32703,33.33116],[126.32382,33.32635],[126.31909,33.3272],[126.30281,33.3223],[126.29981,33.31981],[126.28492,33.31279],[126.28104,33.30829],[126.29239,33.30201],[126.29365,33.29786],[126.29266,33.2889],[126.29489,33.28409],[126.30252,33.2796],[126.30376,33.27454],[126.29523,33.26602],[126.29641,33.25834],[126.29147,33.24316],[126.28612,33.24184],[126.2845,33.23157],[126.28973,33.22588],[126.29047,33.22145],[126.29523,33.21929],[126.30261,33.22665],[126.30912,33.22823],[126.31134,33.23198],[126.31985,33.23809],[126.32842,33.24036],[126.33342,33.23967],[126.33615,33.23532],[126.34436,33.23597],[126.34943,33.23434],[126.35534,33.23529],[126.36829,33.23066],[126.36835,33.23558],[126.37251,33.24489],[126.36942,33.25393],[126.3707,33.26365],[126.37373,33.26911],[126.36845,33.27752],[126.37095,33.28202],[126.37212,33.2892],[126.37837,33.30008],[126.39464,33.29237],[126.4011,33.29285],[126.40352,33.30091],[126.40822,33.30725],[126.41465,33.30864],[126.42335,33.31395],[126.429,33.32894],[126.43479,33.33279],[126.43341,33.33976]]]},"properties":{"key":"제주특별자치도|서귀포시|안덕면","code":"5013031000"}},{"type":"Feature","geometry":{"type":"Polygon","coordinates":[[[126.84977,33.33627],[126.84831,33.34091],[126.84442,33.34453],[126.84231,33.35002],[126.8372,33.35743],[126.82474,33.36314],[126.81484,33.37212],[126.80781,33.37277],[126.8004,33.38222],[126.8059,33.38513],[126.81202,33.39911],[126.81753,33.41464],[126.82007,33.42657],[126.81545,33.4282],[126.81616,33.43504],[126.81205,33.44036],[126.80523,33.44353],[126.79668,33.44043],[126.78869,33.44151],[126.7832,33.4346],[126.7782,33.43225],[126.75747,33.41824],[126.74929,33.41717],[126.74422,33.41811],[126.73268,33.42541],[126.71775,33.42205],[126.70683,33.42182],[126.69558,33.41671],[126.68816,33.40961],[126.68627,33.39976],[126.6717,33.3986],[126.66532,33.40224],[126.65452,33.39985],[126.65198,33.39454],[126.65318,33.39],[126.65847,33.38499],[126.66464,33.3852],[126.66795,33.3817],[126.6782,33.37843],[126.68131,33.37567],[126.6868,33.37731],[126.69486,33.37415],[126.698,33.37665],[126.7178,33.37115],[126.72412,33.37196],[126.73075,33.36515],[126.73501,33.36558],[126.74119,33.35671],[126.74186,33.35323],[126.74936,33.34828],[126.75229,33.34171],[126.7589,33.3337],[126.75838,33.3235],[126.76979,33.31096],[126.77407,33.3098],[126.77557,33.30413],[126.78074,33.30688],[126.79128,33.30221],[126.80361,33.30386],[126.80853,33.30139],[126.81256,33.30529],[126.81926,33.30734],[126.8238,33.30493],[126.83432,33.30806],[126.84322,33.31676],[126.84823,33.31986],[126.84955,33.32494],[126.84345,33.32786],[126.84466,33.33333],[126.84977,33.33627]]]},"properties":{"key":"제주특별자치도|서귀포시|표선면","code":"5013032000"}},{"type":"Feature","geometry":{"type":"Polygon","coordinates":[[[126.6144,33.24071],[126.61189,33.24273],[126.60926,33.24993],[126.60414,33.25086],[126.60223,33.25415],[126.59662,33.2524],[126.59429,33.25596],[126.58986,33.25305],[126.58953,33.24714],[126.578,33.24783],[126.57143,33.24514],[126.56164,33.24357],[126.56098,33.24181],[126.56736,33.24061],[126.57201,33.24419],[126.58928,33.24289],[126.59125,33.23901],[126.59671,33.23598],[126.6144,33.24071]]]},"properties":{"key":"제주특별자치도|서귀포시|송산동","code":"5013051000"}},{"type":"Feature","geometry":{"type":"Polygon","coordinates":[[[126.57143,33.24514],[126.5702,33.24878],[126.56187,33.2476],[126.56164,33.24357],[126.57143,33.24514]]]},"properties":{"key":"제주특별자치도|서귀포시|정방동","code":"5013052000"}},{"type":"Feature","geometry":{"type":"Polygon","coordinates":[[[126.5702,33.24878],[126.56097,33.25317],[126.56187,33.2476],[126.5702,33.24878]]]},"properties":{"key":"제주특별자치도|서귀포시|중앙동","code":"5013053000"}},{"type":"Feature","geometry":{"type":"Polygon","coordinates":[[[126.56187,33.2476],[126.56097,33.25317],[126.55255,33.25189],[126.54944,33.24869],[126.54546,33.24806],[126.54584,33.24277],[126.54365,33.23789],[126.54797,33.23728],[126.55075,33.24108],[126.55932,33.23715],[126.55992,33.23749],[126.56098,33.24181],[126.56164,33.24357],[126.56187,33.2476]]]},"properties":{"key":"제주특별자치도|서귀포시|천지동","code":"5013054000"}},{"type":"Feature","geometry":{"type":"Polygon","coordinates":[[[126.62412,33.25206],[126.62309,33.25591],[126.62468,33.2622],[126.62144,33.26619],[126.62361,33.26918],[126.62039,33.2784],[126.61689,33.27929],[126.61276,33.27562],[126.60401,33.27253],[126.60049,33.26325],[126.5949,33.26205],[126.59429,33.25596],[126.59662,33.2524],[126.60223,33.25415],[126.60414,33.25086],[126.60926,33.24993],[126.61189,33.24273],[126.6144,33.24071],[126.62005,33.24313],[126.62014,33.24956],[126.62412,33.25206]]]},"properties":{"key":"제주특별자치도|서귀포시|효돈동","code":"5013055000"}},{"type":"Feature","geometry":{"type":"Polygon","coordinates":[[[126.61689,33.27929],[126.61434,33.2854],[126.60406,33.28731],[126.60284,33.29093],[126.60459,33.29738],[126.60165,33.2997],[126.59971,33.31493],[126.59492,33.31884],[126.59087,33.32652],[126.58287,33.32954],[126.57419,33.34104],[126.57114,33.34918],[126.56264,33.35328],[126.55604,33.35844],[126.53962,33.36429],[126.52945,33.36153],[126.53479,33.34947],[126.53772,33.34119],[126.54096,33.33658],[126.5447,33.32525],[126.54575,33.31864],[126.54911,33.31309],[126.55505,33.30764],[126.55555,33.29996],[126.55889,33.29804],[126.5612,33.28506],[126.5675,33.2746],[126.57495,33.27693],[126.57525,33.27092],[126.58086,33.26472],[126.57813,33.26305],[126.5767,33.25194],[126.578,33.24783],[126.58953,33.24714],[126.58986,33.25305],[126.59429,33.25596],[126.5949,33.26205],[126.60049,33.26325],[126.60401,33.27253],[126.61276,33.27562],[126.61689,33.27929]]]},"properties":{"key":"제주특별자치도|서귀포시|영천동","code":"5013056000"}},{"type":"Feature","geometry":{"type":"Polygon","coordinates":[[[126.578,33.24783],[126.5767,33.25194],[126.57813,33.26305],[126.58086,33.26472],[126.57525,33.27092],[126.57495,33.27693],[126.5675,33.2746],[126.5612,33.28506],[126.55889,33.29804],[126.55555,33.29996],[126.55505,33.30764],[126.54911,33.31309],[126.54575,33.31864],[126.5447,33.32525],[126.54096,33.33658],[126.53772,33.34119],[126.53479,33.34947],[126.53387,33.34313],[126.52905,33.33831],[126.5283,33.32741],[126.52957,33.31861],[126.5334,33.31585],[126.53922,33.3151],[126.54615,33.3051],[126.54671,33.29947],[126.54994,33.2939],[126.54939,33.29053],[126.55214,33.28295],[126.55755,33.27593],[126.56019,33.26505],[126.55875,33.26405],[126.56097,33.25317],[126.5702,33.24878],[126.57143,33.24514],[126.578,33.24783]]]},"properties":{"key":"제주특별자치도|서귀포시|동홍동","code":"5013057000"}},{"type":"Feature","geometry":{"type":"Polygon","coordinates":[[[126.52945,33.36153],[126.5223,33.36117],[126.52105,33.3517],[126.52382,33.32673],[126.52222,33.31622],[126.51735,33.31141],[126.52327,33.29983],[126.52325,33.2907],[126.52961,33.28845],[126.53429,33.28284],[126.53613,33.27246],[126.5409,33.26778],[126.54235,33.26201],[126.54076,33.25521],[126.54944,33.24869],[126.55255,33.25189],[126.56097,33.25317],[126.55875,33.26405],[126.56019,33.26505],[126.55755,33.27593],[126.55214,33.28295],[126.54939,33.29053],[126.54994,33.2939],[126.54671,33.29947],[126.54615,33.3051],[126.53922,33.3151],[126.5334,33.31585],[126.52957,33.31861],[126.5283,33.32741],[126.52905,33.33831],[126.53387,33.34313],[126.53479,33.34947],[126.52945,33.36153]]]},"properties":{"key":"제주특별자치도|서귀포시|서홍동","code":"5013058000"}},{"type":"Feature","geometry":{"type":"Polygon","coordinates":[[[126.54944,33.24869],[126.54076,33.25521],[126.54235,33.26201],[126.5409,33.26778],[126.53613,33.27246],[126.53429,33.28284],[126.52961,33.28845],[126.52325,33.2907],[126.52327,33.29983],[126.51735,33.31141],[126.52222,33.31622],[126.52382,33.32673],[126.52105,33.3517],[126.5223,33.36117],[126.51797,33.36029],[126.51468,33.34876],[126.51691,33.34148],[126.51568,33.33212],[126.5117,33.32743],[126.51368,33.31005],[126.51078,33.30043],[126.51097,33.29503],[126.50588,33.29391],[126.50727,33.28357],[126.51308,33.28265],[126.51045,33.27849],[126.50745,33.26688],[126.5103,33.26019],[126.50906,33.25144],[126.50679,33.24688],[126.50178,33.24528],[126.50928,33.23955],[126.5053,33.22858],[126.50919,33.23002],[126.51959,33.23702],[126.52085,33.24069],[126.53393,33.23805],[126.54003,33.24077],[126.54365,33.23789],[126.54584,33.24277],[126.54546,33.24806],[126.54944,33.24869]]]},"properties":{"key":"제주특별자치도|서귀포시|대륜동","code":"5013059000"}},{"type":"Feature","geometry":{"type":"Polygon","coordinates":[[[126.51797,33.36029],[126.51216,33.36149],[126.50529,33.35767],[126.50435,33.35391],[126.49599,33.3465],[126.48628,33.33958],[126.48402,33.33318],[126.48438,33.32449],[126.47466,33.31316],[126.47411,33.30811],[126.47681,33.30498],[126.47639,33.29704],[126.47926,33.28741],[126.47781,33.27974],[126.47377,33.27197],[126.46915,33.26813],[126.46874,33.25298],[126.46129,33.25387],[126.45659,33.23903],[126.45919,33.23723],[126.4598,33.23153],[126.46747,33.22662],[126.47031,33.22253],[126.47603,33.2216],[126.47866,33.226],[126.48372,33.22656],[126.48846,33.22994],[126.49752,33.22753],[126.5053,33.22858],[126.50928,33.23955],[126.50178,33.24528],[126.50679,33.24688],[126.50906,33.25144],[126.5103,33.26019],[126.50745,33.26688],[126.51045,33.27849],[126.51308,33.28265],[126.50727,33.28357],[126.50588,33.29391],[126.51097,33.29503],[126.51078,33.30043],[126.51368,33.31005],[126.5117,33.32743],[126.51568,33.33212],[126.51691,33.34148],[126.51468,33.34876],[126.51797,33.36029]]]},"properties":{"key":"제주특별자치도|서귀포시|대천동","code":"5013060000"}},{"type":"Feature","geometry":{"type":"Polygon","coordinates":[[[126.50529,33.35767],[126.49867,33.35921],[126.48985,33.35455],[126.48472,33.35837],[126.47977,33.3584],[126.47512,33.35556],[126.46622,33.35818],[126.44873,33.35852],[126.44573,33.35254],[126.44189,33.35105],[126.44404,33.34529],[126.44269,33.33286],[126.43475,33.32606],[126.42907,33.31797],[126.42521,33.30531],[126.42813,33.30198],[126.42318,33.29408],[126.42647,33.28749],[126.42319,33.28215],[126.42502,33.27335],[126.42289,33.25696],[126.4168,33.25191],[126.41911,33.24619],[126.41703,33.24149],[126.42366,33.23608],[126.43125,33.2319],[126.43624,33.23508],[126.44107,33.23532],[126.45044,33.24004],[126.45659,33.23903],[126.46129,33.25387],[126.46874,33.25298],[126.46915,33.26813],[126.47377,33.27197],[126.47781,33.27974],[126.47926,33.28741],[126.47639,33.29704],[126.47681,33.30498],[126.47411,33.30811],[126.47466,33.31316],[126.48438,33.32449],[126.48402,33.33318],[126.48628,33.33958],[126.49599,33.3465],[126.50435,33.35391],[126.50529,33.35767]]]},"properties":{"key":"제주특별자치도|서귀포시|중문동","code":"5013061000"}},{"type":"Feature","geometry":{"type":"Polygon","coordinates":[[[126.44873,33.35852],[126.4421,33.35747],[126.43801,33.35327],[126.43766,33.34369],[126.43341,33.33976],[126.43479,33.33279],[126.429,33.32894],[126.42335,33.31395],[126.41465,33.30864],[126.40822,33.30725],[126.40352,33.30091],[126.4011,33.29285],[126.39464,33.29237],[126.37837,33.30008],[126.37212,33.2892],[126.37095,33.28202],[126.36845,33.27752],[126.37373,33.26911],[126.3707,33.26365],[126.36942,33.25393],[126.37251,33.24489],[126.36835,33.23558],[126.36829,33.23066],[126.38462,33.23148],[126.39125,33.23606],[126.40485,33.24247],[126.41255,33.24406],[126.41703,33.24149],[126.41911,33.24619],[126.4168,33.25191],[126.42289,33.25696],[126.42502,33.27335],[126.42319,33.28215],[126.42647,33.28749],[126.42318,33.29408],[126.42813,33.30198],[126.42521,33.30531],[126.42907,33.31797],[126.43475,33.32606],[126.44269,33.33286],[126.44404,33.34529],[126.44189,33.35105],[126.44573,33.35254],[126.44873,33.35852]]]},"properties":{"key":"제주특별자치도|서귀포시|예래동","code":"5013062000"}}]}